Hospital Name,Address,CITY,STATE,PPN / NON PPN
"SV Hospital (A Unit Of Healthcare 
Alliance)","# 14-327, Kamala Nagar, AnantapurKamala Nagar",ANANTPUR,ANDHRA PRADESH,NON PPN
Kims Saveera Hospital Pvt Ltd,"1-1348, Srinagar Colony Extension, Bh - 44,Opp Sakshi 
Office,AnantapuramRudrampeta,",ANANTPUR,ANDHRA PRADESH,NON PPN
Aashraya Multi Specialty Hospital,"1-653/3, Opp Khanna Kalyana Moudapam, Kattamanchi, 
ChittoorKattamanchi",CHITOOR,ANDHRA PRADESH,NON PPN
Aragonda Apollo Hospitals,"Aragonda Village,,Thavanam Palli Mandal,,Chittoor",Chittoor,ANDHRA PRADESH,NON PPN
Apollo Samudra Hospitals(Kakinada),"13-1-3, Main Road, Surya Rao Peta,,Near 2 Town Police 
Chowky,,Kakinada",East Godavari,ANDHRA PRADESH,NON PPN
Swatantra Hospitals Pvt Ltd,"Near Kambala Park,,Rajahmundry",East Godavari,ANDHRA PRADESH,NON PPN
Prof D Ramakotaiah Children Hospital,"D. No.12-25-24, Beside Sivalayam Temple, KothapetGuntur",GUNTUR,ANDHRA PRADESH,NON PPN
Padmavathy Superspeciality Hospital,"OPP.POST OFFICE, KOTHAPET,NIL",GUNTUR,ANDHRA PRADESH,NON PPN
Sri Datta Super Specialty Hospital,"Beside Town Hall, Prakash Nagar, Narasaraopet, 
GunturGuntur",GUNTUR,ANDHRA PRADESH,NON PPN
Sri Vasudha Hospitals,"DS Kalyana Mandapam, Kothapet, Guntur Kothapet",GUNTUR,ANDHRA PRADESH,NON PPN
Tulasi Multi Speciality Hospital,"5th Lane, Gunturivari Thota, Old Club Road, GunutrGunutr",GUNTUR,ANDHRA PRADESH,NON PPN
Sravani Hospital,"Old Bank Road, Kothapet, GunturKothapet",GUNTUR,ANDHRA PRADESH,NON PPN
Vedanta Hospitals,"# 15-11-154. Near Best Price Mangalagiri Road, Guntur, 
Andhra Pradesh 522001Guntur",GUNTUR,ANDHRA PRADESH,NON PPN
NRI General Hospital,"NRI Hospital Road, NH5, Chinakakani, Mangalagiri, Guntur, 
Andhra Pradesh 522503Guntur",GUNTUR,ANDHRA PRADESH,NON PPN
St Joseph General Hospital,"D. No:27-1-12, Opp. AC Collage, Near Fly Over, 
GunturGuntur",GUNTUR,ANDHRA PRADESH,NON PPN
Palnadu Hospitals,"#7-234, Main Road, Piduguralla, GunturPiduguralla",GUNTUR,ANDHRA PRADESH,NON PPN
Vunnam Hospitals,"Main Road, Piduguralla, Guntur Guntur",GUNTUR,ANDHRA PRADESH,NON PPN
Sri Balaji Hospital Guntur,"Door No: 51-22-526 YADAVALLI VARI STREET, KOTHAPET, 
GUNTUR-522001Guntur",GUNTUR,ANDHRA PRADESH,NON PPN
A1 Hospitals,"12-1-36, Anna Srinivasa Rao Kalyana Mandapam Road, 
Kothapet, GunturGuntur",GUNTUR,ANDHRA PRADESH,NON PPN
Praja Vidyasala Multi Specialty Hospital,"Gujjanagundla, GunturGuntur",GUNTUR,ANDHRA PRADESH,NON PPN
Help Hospital,"4/5th Arundelpet, GunturGuntur",GUNTUR,ANDHRA PRADESH,NON PPN
Sri Srinivasa Mother and Child Hospital,"5-5-78/38, Palnadu Road, Guntur, Andhra PradeshGuntur",GUNTUR,ANDHRA PRADESH,NON PPN
Amar Orthopaedic Hospital,"Goudia Matam Road, 1st Line,,Gunturuvarithota 
Kothapet,,GunturNIL",GUNTUR,ANDHRA PRADESH,NON PPN
Amma Children Hospital,"13-07-109/D,Oid Club Road,Gunturuvari Thota",GUNTUR,ANDHRA PRADESH,NON PPN
Aruna Hospital(Tenali),"Gopala Reddy Street,,Ganganammapet, Prakasam 
Road,,Tenali",Guntur,ANDHRA PRADESH,NON PPN
C V R Hospital,"1st Line Sambasivapet, Guntur,Nazz Centre,,",Guntur,ANDHRA PRADESH,NON PPN
Coastal Care Hospital,"8th Lane Gunturuvari Thota,,Opp. Apsrtc Bus Stand Old 
Club Road,Kothapet",Guntur,ANDHRA PRADESH,NON PPN
Dhulipalla Hospital,"Door No. 12-15-179,,Kothapet",Guntur,ANDHRA PRADESH,NON PPN
Health Hospitals,"D. No-7-5-88/A, Prakasam Road,,Tenali, 
Guntur,Ganganammapet",GUNTUR,ANDHRA PRADESH,NON PPN
Hyma Hospital,"D No3-14-19,Pattabhipuram,,Main Road.,Pattabhipuram",Guntur,ANDHRA PRADESH,NON PPN
J K Hospital ( Guntur ),"Ganganamma Pet,,Prakasam Road,,Tenali",Guntur,ANDHRA PRADESH,NON PPN
"Karumuri Super Speciality Hospital (P) 
Ltd.","13-4-73 Old Club Road , 4th Line Gunturivarithota,,4th 
Line,Gunturivari Thota, Old Club Road,,Nr Bus Stand",Guntur,ANDHRA PRADESH,NON PPN
Lakshmi Srinivasa Hospital,"D. No.-15-1-29, Behind Manipuram Bridge,,Near Rtc Bus 
Stand,,Kothapet",Guntur,ANDHRA PRADESH,NON PPN
Lalitha Super Speciality Hospital,"Gowrisankar Theatre Road, Kothapet",GUNTUR,ANDHRA PRADESH,NON PPN
M N Hospital,"D. No. 5-37-77,,,Brodipet",Guntur,ANDHRA PRADESH,NON PPN
"Mother Teresa Orthopaedic And Accident 
Care Hospital","Opp R&B Banglow, Mekauari Veedi, Near Bus Stand And 
Railway Station,,Repalle, Guntur.,",Guntur,ANDHRA PRADESH,NON PPN
Sree Prathima Super Speciality Hospital,"D No:12-11-648,,Beside Manipuram Bridge, 1st Line,Guntur",Guntur,ANDHRA PRADESH,NON PPN
Star Hospital,"Block No.3, Mangalamandiram Compound,,Old Club 
Road,,Kothapet",Guntur,ANDHRA PRADESH,NON PPN
V Cardiac And Multi Speciality Hospital,"22-15-12, T. B. Road,,Navyuga Hotel Back Side,,Tenali",Guntur,ANDHRA PRADESH,NON PPN
Varababu Super Specialty Hospital,Prakash Nagar Narasaraopet Guntur Guntur,GUNTUR,ANDHRA PRADESH,NON PPN
Omega Hospital,"DNo - 55-1-11, Behind Mehar Baba Temple, Near Auto 
Nagar",GUNTUR,ANDHRA PRADESH,NON PPN
Blossoms Childrens Hospital,"13-5-97, Old Club Road,Kothapet,Gunturivarithota,",GUNTUR,ANDHRA PRADESH,NON PPN
Lahiri Hospital,"Beside Sri Venkateswara Theratre, Subhani Nagar, KB road, 
Chilakaluripeta,",GUNTUR,ANDHRA PRADESH,NON PPN
Bharathi Hospital,"1/82, Kadapa, Yerramukkapalli Yerramukka palli",KADAPA,ANDHRA PRADESH,NON PPN
Mrudula Hospital,"# 1/102, GEORGE REDDY STREET, 
YERRAMUKKAPALLIKadapa",KADAPA,ANDHRA PRADESH,NON PPN
Vidyasagar Hospital,"1/700-3,Dwarka Nagar,,Near Sandhya Theatre Circle,Beside 
HDFC bank,",KADAPA,ANDHRA PRADESH,NON PPN
Suraksha Super Speciality Hospital,"6-895-3, Opp. Blind School,Sankarapuram",KADAPA,ANDHRA PRADESH,NON PPN
Sri Srinivasa Hospital,"3/38, Nagarajupet,nil",KADAPA,ANDHRA PRADESH,NON PPN
Kadapa Hospitals,"Christian Lane, City Union Bank Upstairs,Opp. Police Gate,",KADAPA,ANDHRA PRADESH,NON PPN
Hope International Hospital,"3-119, Adb Road,Near Achampet Junction,Godavari,",Kakinada,ANDHRA PRADESH,NON PPN
"Trust Hospital - A Unit Of Sarvottam 
Healthcare Pvt Ltd","3-29, Sarpavaram Junction,,,Kakinadanil",KAKINADA,ANDHRA PRADESH,NON PPN
"Omni Hospital (A Unit Of Incor 
Padmachandra Hospitals Pvt Ltd)","#46/93-35-1,,Budhawar Peta,",Kurnool,ANDHRA PRADESH,NON PPN
Omega Hospital,"518003, Nandikotkur Rd, Maruthi Nagar, Sree Rama Nagar, 
Kurnool, Andhra Pradesh 518002Kurnool",KURNOOL,ANDHRA PRADESH,NON PPN
Agraseni Hospital,"46, 1 BK ST, Sapathagiri Nagar, Near Ayyappa Temple",KURNOOL,ANDHRA PRADESH,NON PPN
GNR Hospital,"50-760-A7, Gayathri Estate,Near Kotla Railway Station,",KURNOOL,ANDHRA PRADESH,NON PPN
Kims Rainbow Hospital Pvt Ltd,"69/213-K-9, Johapuram Road, nil",KURNOOL,ANDHRA PRADESH,NON PPN
Sai Vani Hospital,"#25-394/05, Denialpuram, Near St. Josoph Church, 
NandyalNandyal",NANDYAL,ANDHRA PRADESH,NON PPN
Sree Sai Multispecialty Hospital,"25/125, A1-1, Opp Ayyappa Swamy Temple, Sandhya 
Theatre Atmakur Road, NandyalNandyal",NANDYAL,ANDHRA PRADESH,NON PPN
Santhiram General Hospital,"Nh.18, Nandyal,,Near Venkateswarapuram,,Dist. Kurnool",Nandyal,ANDHRA PRADESH,NON PPN
Sri Narmada Hospital,H. NO-21/125-15B Bypass Road NandyalNandyal,NANDYAL,ANDHRA PRADESH,NON PPN
Maruthi Hospital,"Main Road, Nellimarla, Vieianagram, Andhra 
PradeshNellimarla",NELAMANGALA,ANDHRA PRADESH,NON PPN
Vijaya Krishna Hospital Pvt Ltd,"16 II/41A, POGATHOTA,NELLORE",NELLORE,ANDHRA PRADESH,NON PPN
RSR Hospital,"16-2/62, Pogathota S2 Opp NelloreNellore",NELLORE,ANDHRA PRADESH,NON PPN
Rudra Multi Speciality Hospital,"H. No, 5-6-39, Opp R & B Guest House, Koundinya Building 
Opp: NH 7 road, Kamareddy, Dist NizamabadKamareddy",NELLORE,ANDHRA PRADESH,NON PPN
KBR Orthopedic Hospital,"16-4-430, Near Saibaba Gudi, Gandhi Bomma, Trunk Road, 
NelloreNellore",NELLORE,ANDHRA PRADESH,NON PPN
Simhapuri Hospitals,"NH-5, Chinthareddypalem Crossroad, Nellore, 
Andhrepradesh Nellore",NELLORE,ANDHRA PRADESH,NON PPN
Apollo Hospital Nellore,"# 16/111/1133, Muthukur Road,,Pinakini Nagar,,Akuthota",Nellore,ANDHRA PRADESH,NON PPN
"Kidz Rainbow Children And Baby Hospital Ramesh Reddy Nagar,Near Rtc Bus Stand.,,",,Nellore,ANDHRA PRADESH,NON PPN
Lotus Hospital(Nellore),"D.No:16-2-51,,Beside S2 Cinema Hall,,Pogathota",Nellore,ANDHRA PRADESH,NON PPN
Mydhili Hospital,"14/20, I.C.S. Road,,,Gudur",Nellore,ANDHRA PRADESH,NON PPN
"Rainbow Super Speciality 
Hospital(Nellore)","D. No. 16/2/686, Nr.Saibaba Temple,,Sunday 
Market,Sankara Agraharam,",Nellore,ANDHRA PRADESH,NON PPN
"Sai Suresh Children Surgical And 
Meternity Hospital","16-2-119, Pogathota,,Opposite To Ravi Children 
Hospital,,Pogathota",Nellore,ANDHRA PRADESH,NON PPN
St. Josephs Hospital.,"Near Vinayaka Theater,,Santhapet.,Santpeth",Nellore,ANDHRA PRADESH,NON PPN
Venkataramana Hospital,"Near Sibaba Temple,,Gandhi Nagar,,Nellore",Nellore,ANDHRA PRADESH,NON PPN
Vijaya Care Hospital,"D.No 16-2477,Vijayamahal Gate,Near Santhi 
Sweets,Nellore,,",Nellore,ANDHRA PRADESH,NON PPN
Reshma Mutilspeciality Hospital(RMH),"16-2-243, Pogathota,Opp Sunday Market,",NELLORE,ANDHRA PRADESH,NON PPN
Chaitanya Hospital Ongole,"Near By Pass, Anjaiah Road, Ongle, Prakasham",ONGOLE,ANDHRA PRADESH,NON PPN
Zachariah's Hospital,"Zachariah bNagar, Ongle, PrakasamOngle",ONGOLE,ANDHRA PRADESH,NON PPN
Srinivasa Hospital,"Sundaraiah Bhavan Road, Beside RTC Depot, Kurnool Road, 
OngoleOngole",ONGOLE,ANDHRA PRADESH,NON PPN
Sri Prasanthi Hospital,"West toBus Stand, Petrol Bunk Road Prakasam , Andhra 
Pradesh Prakasam",ONGOLE,ANDHRA PRADESH,NON PPN
Prasad Multi Speciality Hospital,"Trunk Road, Near Nellore Bus Stand, OngoleOngole",ONGOLE,ANDHRA PRADESH,NON PPN
Manasa Mother and Child Hospital,"Lombadi Donka, Near Aditya School, Ongle Urban, 
Prakasam, Andhra PradeshOngle",ONGOLE,ANDHRA PRADESH,NON PPN
BGR Hospital,10/258 gandhi roadProddatur,PRODDUTUR,ANDHRA PRADESH,NON PPN
Shree Madan Multispecialty Hospital,"10-238, Gandhi Road, ProddaturProddatur",PRODDUTUR,ANDHRA PRADESH,NON PPN
Svr Hospital (Proddatur),"#8/606-7,Godown Street,,Proddatur,Godown StreetNIL",PRODDUTUR,ANDHRA PRADESH,NON PPN
Chandrakala Super Specialty Hospital,"No-75-7-1/1, Baksh Nagar Danavaipet Rajahmundry",RAJAHMUNDRY,ANDHRA PRADESH,NON PPN
Kamala Hospital,"Illisipuram Junction, One Way Traffic Road, 
SrikakulamSrikakulam",SRIKAKULAM,ANDHRA PRADESH,NON PPN
Mother Vannini Hospital,"1-47-62/1, kadakatla,West Godavari,K.N. Road",TADEPALLIGUDEM,ANDHRA PRADESH,NON PPN
"Geeta Hospitals(Sri Geeta Health Care 
Pvt Ltd)","22-7-2/1, VINNAKOTAVARI STREETTANUKU",TANUKU,ANDHRA PRADESH,NON PPN
Sri Aditya Hospital,"D.No.33-5-1 Suryalayam Street,Tanuku,W.G.Dt.(A.P),Surya 
Layam StreetNIL",TANUKU,ANDHRA PRADESH,NON PPN
Nisa Hospital,"21-4-29, Old Police Station Street, Dist.West Godavani,",TANUKU,ANDHRA PRADESH,NON PPN
"Gayathri Hospitals ( A Unit Of 
J.D.Hospital Pvt.Ltd )","484 & 485,V.V.MAHAL ROAD,TIRUPATI-517501Tirupati",TIRUPATI,ANDHRA PRADESH,NON PPN
"Venkataramana Heart and Maternity 
Hospital","10-3-206/A3/A, 517501, 10-14-587/1a, VV Mahal Rd, Reddy 
and Reddy's Colony, Tirupati, Andhra Pradesh 
517501Tirupati",TIRUPATI,ANDHRA PRADESH,NON PPN
Sri Sai Multi Speciality Hospital,"5-1-75/E, Sarojini Devi Road, Opp. Municipal High School, 
Chittoor [Dist], Tirupati, Andhra Pradesh 517501Tirupati",TIRUPATI,ANDHRA PRADESH,NON PPN
Gopi Madhavi Hospital,"# 10-3-206/M2/1, Reddy & Reddy Colony , Tirupati, 
Chittoor Tirupati",TIRUPATI,ANDHRA PRADESH,NON PPN
Care Plus Hospitals,"23-2-166/1a New Balaji Colony, 80ft Road, MR Palli, 
Tirupati, Andhra PradeshTirupati",TIRUPATI,ANDHRA PRADESH,NON PPN
Suraksha Hospital Tirupati,"#581/E, Reddy & Reddy's Colony, Reddy and Reddy's 
Colony, Tirupati, Andhra Pradesh 517501Chittoor",TIRUPATI,ANDHRA PRADESH,NON PPN
Fortuna Women & Orthocare Hospital,"Plot No-7, New Balaji Colony, AIR By Pass Road, MR Palli 
Circle, TirupatiTirupati",TIRUPATI,ANDHRA PRADESH,NON PPN
Elite Multi Specialiy Hospital Pvt Ltd,"D No 10/14/576/6,,Reddy & Reddy Colony,,Opp Municipal 
Office",Tirupati,ANDHRA PRADESH,NON PPN
"Sree Ramadevi Multi Super Speciality 
Hospital","82, Sairam Street,Near Bhavaninagar Bus Stop,82, Sai Ram 
Street,,Bhavani Nagar",Tirupati,ANDHRA PRADESH,NON PPN
Vidyu Hemanth Hospital Tirupati,"10-13-508,Reddy & Reddy Colony,,Chittoor,,",Tirupati,ANDHRA PRADESH,NON PPN
Amma Children Hospital,"18-2-139-A, Ashok Nagar, TrupatiTirupati",TIRUPATI,ANDHRA PRADESH,NON PPN
Helios Hospital,"18-2-148, Ashok Nagar, Opp to Devendra Theatre, Tirupati, 
Andhra Pradesh 517501",TIRUPATI,ANDHRA PRADESH,NON PPN
"Narayanadri Hospital & Research 
Institute PVT LTD","73/1A, Renigunta Road, TirupatiTirupati",TIRUPATI,ANDHRA PRADESH,NON PPN
Andhra Hospitals,"C V R Complex,,Prakasam Road,Vijayawada",Vijayawada,ANDHRA PRADESH,NON PPN
Anu Hospital,"# 29-28/1-13, Kovelamudivari S,Treet, Suryaraopet, 
Vijayawada,",Vijayawada,ANDHRA PRADESH,NON PPN
Boppana Superspeciality Hospital,"15-17711, Machilipatnam Road ,,M.G.Road,Poranki,",Vijayawada,ANDHRA PRADESH,NON PPN
"Gayathri Women And Child Care Hospital 
Pediatric Super Speciality Center","#29-13-43/1, Kaleswara Rao Road,Pushpa Hotel 
Center,Suryaraopet",Vijayawada,ANDHRA PRADESH,NON PPN
Giridhar Ent Hospital And Laser Centre,"29-8-39 Near Kalyan Kuteer Chiluku Durgalah 
Street,Suryarapet,Governorpet",Vijayawada,ANDHRA PRADESH,NON PPN
Kamineni Hospitals,"Kamineni Road, 100 Feet, New Autonagar Road,Tadigadapa 
Bus Stop, Near Siddhartha Engg. College,Poranki Rural,",Vijayawada,ANDHRA PRADESH,NON PPN
Liberty Hospitals,"D.No. 74-1-2,King Square Building,,Opp Auto Nagar Bus 
Terminal,Bundar Road,Patamata",Vijayawada,ANDHRA PRADESH,NON PPN
Life Line Hospital Trimurthy Hospital,"D No. 29-26-55,Dornakal Road,,Suryaraopet",Vijayawada,ANDHRA PRADESH,NON PPN
Mjnaidu Super Speciality Hospital,"Chalasani Venkatakrishnaiah Street, Near 
Pushpahospital,Suryaraopet,Chalasani Venkatakrishnaiah 
Street,,Suryaraopet",Vijayawada,ANDHRA PRADESH,NON PPN
Nori Multi Speciality Hospital,"#24/2/16-A, N.R.P Road,Vijayawada Nrp Road,,Gandhi 
Nagar",Vijayawada,ANDHRA PRADESH,NON PPN
Sagar Super Speciality Hospitals.,"D.No-29-28/1-56&57,Kovelamudivari Street,,Suryaraopet",Vijayawada,ANDHRA PRADESH,NON PPN
Sentini Hospitals Pvt Ltd,"Door No. 54-15-5 B & C,,Besides Vinayak Theater,,Ring 
Road",Vijayawada,ANDHRA PRADESH,NON PPN
Sindhura Hospitals Vijayawada,"29-10-36, Narasimha Rao,,Naidu St.,Suryaraopet",Vijayawada,ANDHRA PRADESH,NON PPN
Sri Santhi Hospitals,"# 29-8-13,Chiluku Durgaiah Street ,,Suryaraopet,",Vijayawada,ANDHRA PRADESH,NON PPN
Vignesh Super Specialities Hospital,"#29-29-6, Prakasam Road,,Opp Sbi Zonal Office 
Suryaraopet,,Suryaraopet,",Vijayawada,ANDHRA PRADESH,NON PPN
Vijaya Super Speciality Hospital,"# 29-26-92a, Suryanarayana & Boyapativari 
Street,,,Suryaraopet,",Vijayawada,ANDHRA PRADESH,NON PPN
"Vijaywada Multi Speciality Hospital (A 
Unit Of Durgabhavani Hosp Pvt Ltd)","D. No. 29-8-3, Chiluku Durgaia,H Street, Nakkal Road First 
Cross, Vijaya Talkies Centre, Suryaropeta,",Vijayawada,ANDHRA PRADESH,NON PPN
Vijetha Hospital(Vijayawada),"Meenakshi Towers,,Suryaraopet,Eluru Road",Vijayawada,ANDHRA PRADESH,NON PPN
Charithasri Hospital Ltd,"29-6-8/1,RAMCHANDRA RAO ROAD,SURYARAOPETNIL",VIJAYWADA,ANDHRA PRADESH,NON PPN
"Andhra Hospitals (Bhavanipuram) Pvt Ltd D.NO.16-72/1,OPP.HIGH SCHOOL, Gollapudi",,VIJAYWADA,ANDHRA PRADESH,NON PPN
Srikara Hospitals,"40-1-65, NH65, Opp EEnadu Office, Near Benz Circle, 
VijayawadaVijayawada",VIJAYWADA,ANDHRA PRADESH,NON PPN
Vennela Mother And Child Hospital,"Plot No 38, D. No. 40-9-100, Sai Nagar Near Banz Circle 
VIjayawadaVijayawada",VIJAYWADA,ANDHRA PRADESH,NON PPN
"Global Multispeciality Hospital (Global 
Medical Center)","27-39-1,Andhra Health Diagnostic Services Ltd., ,,Near 
Police Control Room, M. G. Road , D. No.27-39-
1,VijayawadaNIL",VIJAYWADA,ANDHRA PRADESH,NON PPN
Sunrise Hospital(Vijayawada),"D. No: 33-25-35, Bellapu, Shobanadri Road,,Opp 
.Corporation Bank,,Pushpa Hotel CentreNIL",VIJAYWADA,ANDHRA PRADESH,NON PPN
Time Hospitals Pvt Ltd,"11/150, Vijayawada Road, Opp Ashok Nagar, MG Road",VIJAYWADA,ANDHRA PRADESH,NON PPN
Bmr Hospitals,"33-25-33B/1,Main Road, Puspa Hotel Center,Surya 
RaopetKrishna District",VIJAYWADA,ANDHRA PRADESH,NON PPN
Nandan Hospital,"29-28/1-56, Kovelamudi Vari Street, Suryaraopeta,Near 
Pushpa Hotel Center,",VIJAYWADA,ANDHRA PRADESH,NON PPN
Bharathi Hospital,"14-24-1, Men'S Hostel Road,Near Zilla 
Parishad,MaharanipetaNIL",Visakhapatnam,ANDHRA PRADESH,NON PPN
Annapoorna Hospital,"47-9-32, Dwarkanagar,,3rd Lane,,Dwarakanagar",Visakhapatnam,ANDHRA PRADESH,NON PPN
Seven Hills Hospitals Ltd,"ROCK DALE LAYOUT, VISHAKHAPATNAM-520002NIL",VISAKHAPATNAM,ANDHRA PRADESH,NON PPN
"Lotus Hospitals For Women And Children #10-59-9, opposite Waltair Club, behind Gothi sons,","Siripuram, VisakhapatnamVisakhapatnam",VISAKHAPATNAM,ANDHRA PRADESH,NON PPN
Usha Prime Molti Speciality Hospital,"12-4-6/1, Pudimadaka Road, beside IOB Bank, Anakapalle, 
VisakhapatnamAnakapalle",VISAKHAPATNAM,ANDHRA PRADESH,NON PPN
Abc Hospital(Visakhapatnam),"16-1-13, Kgh To Beac Down, Opp,. Coastel 
Battery,,Maharanipeta,",Visakhapatnam,ANDHRA PRADESH,NON PPN
"Aditya Multicare 
Hospital(Visakhapatnam)","Frount Way:Opp. K G H. Op Gate ,,Aditya Medical 
Complex,Bace Way Opp. Prahaladha Kalayana 
Mandapam,Visakhapatnam",Visakhapatnam,ANDHRA PRADESH,NON PPN
Apollo Hospital (Visakhapatnam),"Waltair Main Road,111 Floor, Aci Tower ,G Block-
55,VisakhapatnamNIL",VISAKHAPATNAM,ANDHRA PRADESH,NON PPN
"Care Hospital( The Institute Of Medical 
Sciences)","A.S Raja Complex, 10-50-11/5,,Waltair Main 
Road,,Ramnagar",Visakhapatnam,ANDHRA PRADESH,NON PPN
Durga Hospital (Kancharapalem),"36-91-108, Urvasi Junction,,Kancharapalem, Nh-
5,Visakhapatnam",Visakhapatnam,ANDHRA PRADESH,NON PPN
Kims Icon Hospital(Icon Krishi Hospital),"Sheelanagar.,D No 32-11-2 Sheela Nagar Gajuwaka.,NIL",VISAKHAPATNAM,ANDHRA PRADESH,NON PPN
Kala Hospital(Visakhapatnam),"#47-1-104,Vi Lane,Dwarkanagar,Visakhapatnam",Visakhapatnam,ANDHRA PRADESH,NON PPN
"Mahatma Gandhi Cancer Hospital And 
Research Institute (Visakhpatnam)","Plot No. 1, Sector-7, M.V.P Colony 1/7 , Mvp Colony,,Plot 
No. 1, Sector-7, M.V.P Colony,Visakhapatnam",Visakhapatnam,ANDHRA PRADESH,NON PPN
"Mycure Hospitals Unit Ii (Sahrudaya 
Healthcare Pvt Ltd)","# 15-2-9 Gokhale Road,,Opp. Nbm College,NIL",VISAKHAPATNAM,ANDHRA PRADESH,NON PPN
Omni Rk Super Hospital,"Waltair Main Road,Opp Lions 
Club,,Ramnagar,Visakhapatnam,",Visakhapatnam,ANDHRA PRADESH,NON PPN
Padmaja Hospital (Visakhapatnam),"Old Gajuwaka Junction,,,Near 38 Bus Stand",Visakhapatnam,ANDHRA PRADESH,NON PPN
Padmasri Hospitals,"#49*48-16/5, Nggo'S Colony,,Nh-5, Akkayyapalem,Opp Iol 
Petrol Bunk",Visakhapatnam,ANDHRA PRADESH,NON PPN
"Queen'S Nri Hospital ( Chalasani 
Hospitals Pvt Ltd)","Gurudwara Lane,,Seethammadhara",Visakhapatnam,ANDHRA PRADESH,NON PPN
Raghavendra Hospital(Vishakhapatnam),"Balayya Sastry Layout,,T.P.T.Colony,Near Nhs Port 
Stadium,Near Port Stadium",Visakhapatnam,ANDHRA PRADESH,NON PPN
Sraddha Hospital,"14 - 37 - 45. Collectord Office,Mr.Rela,",Visakhapatnam,ANDHRA PRADESH,NON PPN
Susruta Ent Super Hospital,"A Unit Of Ske Susruta Institute Of Medical Sciences Pvt 
Ltd,,Plot No:14a ,Health City,,Chinagadili",VISAKHAPATNAM,ANDHRA PRADESH,NON PPN
Venkatarama Hospital ( Visakhapatnam),"D.No.47-7-43, Nehru Market Road,Dwarkanagar,",Visakhapatnam,ANDHRA PRADESH,NON PPN
Ramsaranya Hospitals Pvt Ltd,"14-37-4A, Krishna Nagar Maharanipeta,",VISAKHAPATNAM,ANDHRA PRADESH,NON PPN
MB Multispeciality Hospital,"15-B, Health City,Chinagadili,Near Pinnacle Hospitals",VISAKHAPATNAM,ANDHRA PRADESH,NON PPN
Apple Hospital,"D. No.-35-42-10, Nr. Railway Station Road,,Near Head Post 
Office, Tanuku, West Godavari,,Tanuku",West Godavari,ANDHRA PRADESH,NON PPN
Sowbhagya Hospital,"Rayaji Street,,Narasapur,West Godavari",West Godavari,ANDHRA PRADESH,NON PPN
"Sri Lakshmi Satyanarayana Orthopedic 
Hospital","P.S. Raju Buildings,,Rouuapeta,Tower Street",West Godavari,ANDHRA PRADESH,NON PPN
Vijaya Hospital.,"Tailor Pet Street,,Narsapur",West Godavari,ANDHRA PRADESH,NON PPN
MF Hospital And Research Centre,"Kalibari Road, Dibrugarh Town,Near Bogha Baba Majhar,",DIBRUGARH,ASSAM,NON PPN
Plexus Hospitals Pvt Ltd,"Paltan Bazaar, AMC Road,nil",DIBRUGARH,ASSAM,NON PPN
Narayana Superspeciality Hospital,"Near Tularam Bufna Civil Hospital Campus, Amingoan, 
Guwahati,,Guwahati",Guwahati,ASSAM,NON PPN
Asg Hospital Pvt Ltd (Guwahati),"Shubham Redstone, 1st Floor,,G.S.Stone, 
Downtown,Guwahati",Guwahati,ASSAM,NON PPN
Sparsh Hospital(Assam),"Santi ram Lahkar Path,Kamrup,Rangia",GUWAHATI,ASSAM,NON PPN
Paras Global Hospital,"VIP Road, Allalpatti, DarbhangaDarbhanga",DARBHANGA,BIHAR,NON PPN
Asg Hospital Pvt Ltd (Hajipur),"Nawin Plaza Near Anzanpeer Chowk,Anzanpeer,Hajipur 
(Vaishali)",Hajipur,BIHAR,NON PPN
Asg Hospital Pvt Ltd Muzaffarpur,"Hathi Chowk Holding No.457d Ward No.35,Ps:Mithanpura 
P.O:Ramna,NIL",MUZFFARPUR,BIHAR,NON PPN
"Ruban Memorial Hospital( Ratan Stone 
Clinic)","19 Patliputra Colony,,Near Patliputra Golambar,PatnaPatna",Patna,BIHAR,NON PPN
Sahyog Hospital (Patna),"40, Pataliputra Colony ,,,Patna",Patna,BIHAR,NON PPN
Paras HMRI Hospital,"NH 30, Bailey Rd, MLA Colony, Raja Bazar, Indrapuri, Patna, 
Bihar 800014Patna",PATNA,BIHAR,NON PPN
Bishnupur Multispeciality Hospital,"Bishnupur, BegusaraiBegusarai",PATNA,BIHAR,NON PPN
"Dr Bimal Hospital & Research Centre pvt 
Ltd","Adarsh Colony Saguna More Road Near Junior DAV School, 
Bailey Road",PATNA,BIHAR,NON PPN
Big Hospital,"Sheetla Mandir Road, Chhoti Pahari, Agamkuannil",PATNA,BIHAR,NON PPN
Medipark Hospital,"44,Patliputra Colony, Patna-800013Near patliputra 
Golumber",PATNA,BIHAR,NON PPN
Max Seven Hospital Pvt Ltd,"Rambagh Road, Line Bazar,Purnea",PURNEA,BIHAR,NON PPN
Dharam Hospital,"House. No. 2040,,Sec 15c, Chandigarh,chandigarh",Chandigarh,CHANDIGARH,PPN
Landmark Hospital,"SITE NO-122,SECTOR 33-C, CHANDIGARHChandigarh",CHANDIGARH,CHANDIGARH,PPN
Mukat Hospital Heart Institute,"SCO - 47-49, Sector, 34-A, ChandigarhChandigarh",CHANDIGARH,CHANDIGARH,PPN
"Healing Hospital And Institute Of 
Paramedical Sciences","Sco 18-19 ,,Sector 34-A,,ChandigarhNIL",CHANDIGARH,CHANDIGARH,PPN
"NH MMI Narayana Multispeciality 
Hospital","Dhamtari Road, Lalpur, Raipur",RAIPUR,CHATTISGARH,NON PPN
Om Hospital,"Near HP Petrol Pump,Mahadev Ghat Road,Raipura 
ChowkNIL",RAIPUR,CHATTISGARH,NON PPN
Ramkrishna Care Hospital(Raipur),"Arabindo Enclave, Pachpedhi Naka,,Dhamtari Road, N H 
43,,Raipur",Raipur,CHATTISGARH,NON PPN
"Suyash Hospital, Raipur","Kota Gudhiyari Road,,Behind Hotel Picadily,Raipur",Raipur,CHATTISGARH,NON PPN
Shri Balaji Multi Specialty Hospital,Sidharth Chowk Tikrapara RaipurTikrapara,RAIPUR,CHATTISGARH,NON PPN
Banthia Super Speciality Hospital,"Talab Road, Raipur ChhattisgarhRaipur (Chhattisgarh)",RAIPUR,CHATTISGARH,NON PPN
"Aarogya Hospital And Research Center 
Pvt Ltc.","Opposite HDFC Home Loans, Shankar Nagar, Raipur, 
Chhattisgarh 492007Raipur",RAIPUR,CHATTISGARH,NON PPN
Sarwa Trauma Hospital,"G.T. Road, Tatyapara, Raipur ChattisgarhRaipur",RAIPUR,CHATTISGARH,NON PPN
VY Hospital,"Adjacent to kamal vihar -sector-12, Boriyakala",RAIPUR,CHATTISGARH,NON PPN
We Care Super Specialty Hospital,"Ring Road, Besides Airtel Office, Mahaveer Nagar Rd, 
Shatabdi Nagar, Telibandha, Raipur, Chhattisgarh 
492006Raipur",RAIPUR,CHATTISGARH,NON PPN
Panchsheel Hospital Pvt Ltd,"C - 3 / 64 - A,,Yamuna Vihar, Opposite Gokul Puri Police 
Station,,Delhi( OPP. GOKUL PURI POLICE STATION)",DELHI,DELHI,PPN
"Ramlal Kundanlal Orthopaedic Hospital 
And R.K. Maternity Home","8, Pandav Nagar,,Opp Mother Dairy Plant,PatparganjNIL",Delhi,DELHI,PPN
Sehgal Neo Hospital,"B -364, Outer Ring Road,,Meera BaghNIL",DELHI,DELHI,PPN
Kesar Hospital (Delhi),"A H - 11 ,Shlimar Bagh,,Near Prabhu Dayal Public 
School,DelhiShalimar Bagh",DELHI,DELHI,PPN
Navjeevan Hospital,"A-12, Pushpanjali Enclave,,Outer Ring Road, Opp Jaipur 
Golden Redlight Near Kali Mandir,",DELHI,DELHI,PPN
Kukreja Hospital,"D-36 Acharya Niketan ,,Mayur Vihar,Phase 1New Delhi",Delhi,DELHI,PPN
Samyak Hospital(Shalimar Bagh),"Bm-7(East), Opp. Prabhu Dayal Public School Bm-
7(East),,Opp. Prabhu Dayal Public School,Shalimar Bagh",DELHI,DELHI,PPN
Shanti Mukand Hospital,"2, Institutional Are,,Vikas Marg Ext.,,Delhi",DELHI,DELHI,PPN
Rs Grover Memorial Hospital,"B-243, Priyadarshini Vihar,,Near Lovely Public School, Laxmi 
Nagar,New DelhiNIL",DELHI,DELHI,PPN
Jain Hospital New Delhi,"177-178,Jagriti Enclave,,Vikas Marg,,Vikas EnclaveNIL",DELHI,DELHI,PPN
Khandelwal Hospital and Urology Centre,"B-16 Main Road, East Krishna Nagar, Delhi-110051Krishna 
Nagar",DELHI,DELHI,PPN
Kosmos Superspeciality Hospital (Tm),"59,60, Anand Vihar,Vikas Marg,New Delhi",DELHI,DELHI,NON PPN
Sama Hospital,"8, Siri Fort Road,,DelhiSiri Fort Road",DELHI,DELHI,PPN
Venkateshwar Hospital,"Sector - 18A, Near Sector 12 Metro Station, Dwarka",DELHI,DELHI,PPN
Roopchand Hospital,"Main Mubarakpur, Dabas, DelhiDelhi",DELHI,DELHI,NON PPN
Dr. Gupta Nursing Home And Hospital,"25, Raj Block,,Naveen Shahdara,,DelhiNIL",DELHI,DELHI,PPN
Shree Aggarsain International Hospital,"Sec-22, RohiniBegumpur",DELHI,DELHI,PPN
Saroj Super Speciality Hospital,"Sector-14 Near Madhuban Chowk, Sector-14, RohiniROHINI",NEW DELHI,DELHI,PPN
"Dharamshila Hospital and Research 
Centre","Vasundhara Enclave, Near New Ashok Nagar Metro 
StationDELHI",NEW DELHI,DELHI,PPN
Indus Valley Hospitals,"232, laxmi Garden, Main Tehsil Road,Near Tuda Mandi",NEW DELHI,DELHI,NON PPN
Shri Moolchand Kharaiti Ram Hospital,"Lajpat Nagar-3, New DelhiLajpat nagar",NEW DELHI,DELHI,PPN
Tirath Ram Shah Hospital,"2a Rbl,Isher Das Sawhney Marg,Rajpur Road-",NEW DELHI,DELHI,PPN
Indraprastha Apollo Hospital,"Sarita Vihar Delhi,Mathura Road,New DelhiNEW DELHI",NEW DELHI,DELHI,PPN
Jaipur Golden Hospital,"2, INSTITUTIONAL AREA,SEC-3,ROHINI,NEW DELHI-
110085Rohini",NEW DELHI,DELHI,PPN
Kukreja Hospital And Heart Centre,"C-1, Vishal Enclave,Rajouri Garden, Metro Pillar No 419-
420,New DelhiRajouri Garden",NEW DELHI,DELHI,PPN
Sir Ganga Ram Hospital,"Sri Gangaram Hospital Marg,Rajinder Nagar,,New DelhiNew 
Rajinder Nagar",NEW DELHI,DELHI,PPN
"Max super speciality Hospital 
(Patparganj)","108 A Indraprastha Extension, Patparganj,DelhiPatparganj",NEW DELHI,DELHI,PPN
"Rg Stone Urology And Laproscopy 
Hospital","B-1, VISHAL ENCLAVERajouri Garden",NEW DELHI,DELHI,PPN
Goyal Hospital & Urology Centre,"E-4/8, Krishna Nagar",NEW DELHI,DELHI,PPN
Fortis Flt Lt Rajan Dhall Hospital,"Sector-B, Pocket 1Aruna Asaf Ali Marg, Vasant Kunj",NEW DELHI,DELHI,PPN
"RG Stone Urology And Laproscopy 
Hospital","F-12, East of Kailash",NEW DELHI,DELHI,PPN
Sant Parmanand Hospital,"18, Shamnath Marg,Civil Lines,Near I.P.College,New 
DelhiCIVIL LINES",NEW DELHI,DELHI,PPN
Jeewan Nursing Homeand Hospital,"2 B,,Pusa Road,New DelhiNIL",NEW DELHI,DELHI,PPN
Sukhda Hospital,"SHOPPING CENTRE, PAMPOSH ENCLAVE NEAR R-BLOCK, 
GK-INIL",NEW DELHI,DELHI,NON PPN
Aakash Hospital,"90/43, Malviya Nagar,Opp. Green Field School,New DelhiNIL",NEW DELHI,DELHI,PPN
MGS Hospital,"35/37 Rohtak Road,West Punjabi Baug,On The Main Rohtak 
Road,( Near General Store),New DelhiNIL",NEW DELHI,DELHI,PPN
Shree Jeewan Hospital,"67/1, NEW ROHTAK ROADNew Delhi",NEW DELHI,DELHI,PPN
"Bhagwati Hospital (Unit Of Sarvodya 
Health Foundation)","C/Socf 6 Sector 13 , Rohini,Nearprinter Apt ,Mother 
Dairy,New DelhiNIL",NEW DELHI,DELHI,PPN
Mata Chanan Devi Hospital,"C-1, Janak Puri,On Main Pankha Road,,St. Marks School 
Janakpuri N D,New DelhiNIL",NEW DELHI,DELHI,PPN
Bhagwan Mahavir Hospital,"Sector-14, Extension, Madhuban Chowk,,RohiniNIL",NEW DELHI,DELHI,PPN
Khetarpal Hospital,"F 95 Main Najapagarh Road,Bali Nagar,New DelhiBALI 
NAGAR",NEW DELHI,DELHI,PPN
Rockland Hospital,"B-33-34,Qutub International Area,,Tara Cresent Road, Near 
Qutub Hotel,New DelhiNew delhi",NEW DELHI,DELHI,PPN
Jeevan Jyoti Hospital(New Delhi),"B-28, Kiran Garden,,Uttam Nagar,,New DelhiNew Delhi",NEW DELHI,DELHI,PPN
Aarogya Hospital,"32 Chitra Vihar Vikas Marg,,Bhd. Laxmi Nagar,,Delhi",NEW DELHI,DELHI,PPN
Bansal Hospital,"A-1, New Friends Colony,,Near Escorts Heart Hospital,NIL",NEW DELHI,DELHI,PPN
Dashmesh Hospital,"C-141, SHIV NAGAR EXTN, JAIL ROAD, NEW DELHI - 
110053Tilak Nagar,",NEW DELHI,DELHI,PPN
Central Hospital (Delhi),"A-142,,Ganesh Nagar,,Tilak NagarTilak Nagar",NEW DELHI,DELHI,PPN
"Batra Hospital And Medical Research 
Centre","1,Tughlakabad Institutional Area ,,,Mehrauli Badarpur 
Road,NIL",NEW DELHI,DELHI,PPN
Sodhi Nursing Home And Ent Hospital,"455,Bhera Enclave,Paschim Vihar, New DelhiPaschim Vihar",NEW DELHI,DELHI,PPN
Dr Sushma Jindal Hospital Delhi,"488/15,Dilshad Garden,(Near Radha Krishan Mandir),NIL",NEW DELHI,DELHI,PPN
Nazar Kanwar Surana Hospital,"219/220, N.K.Surana Marg,,Gulabi Bagh,,New DelhiGulabi 
Bagh",NEW DELHI,DELHI,PPN
Bensups Hospital (New Delhi),"Bensups Avenue, Sector-12,Near Metro 
Station,,DwarkaDwarka",New Delhi,DELHI,NON PPN
Jeewan Hospital And Nursing Home,"Gate No. 2,150 Jeewan Nagar Ashram, Near Maharani Bagh",NEW DELHI,DELHI,PPN
Jeewan Mala Hospital Pvt Ltd,"67/1, New Rohtak Road,,,New DelhiNIL",NEW DELHI,DELHI,PPN
Primus Super Speciality Hospital,"Chandragupta Marg,ChanakyapuriNIL",NEW DELHI,DELHI,PPN
Metro Hospitals And Cancer Institute,"21, Community Centre,,,Preet Vihar,",NEW DELHI,DELHI,PPN
"Lion Kidney Hospital And Urology 
Research Institute","Opposite B Block,New Friends Colony,New DelhiNIL",New Delhi,DELHI,PPN
Max Super Speciality Hospital West Block,"1, Press Enclave Road,,,SaketSaket",NEW DELHI,DELHI,PPN
"Mata Roop Rani Maggo And Mahindru 
Hospital","C-9, Om Vihar, Uttam Nagar,,,New DelhiNew Delhi",NEW DELHI,DELHI,PPN
"Cygnus Sonia Hospital (A Unit Of Altius 
Healthcare Pvt Ltd)","Plot No 1, Gulshan Parktional Highway, No - 10,Ngloi,1, 
Gulshan Park, Main Rohtak Road,New DelhiNIL",NEW DELHI,DELHI,PPN
Durga Hospital Pvt Ltd,"711, Dr Mukherjee Nagar,Opp Batra Cinema,Delhi",NEW DELHI,DELHI,PPN
Lotus Hospital (Harinagar),"W 2-409 A, Janak Park,,Harinagar,New Delhi",NEW DELHI,DELHI,PPN
Divya Prastha Hospital,"RZ-37, Main Road, Opp Bagh Wala School, Palam Colony",NEW DELHI,DELHI,PPN
Dr BL Kapur Memorial Hospital,"PUSA ROAD,NEW DELHI-110005NIL",NEW DELHI,DELHI,PPN
Khanna Hospital,"C-2/396, Janakpuri New Delhi,,NIL",NEW DELHI,DELHI,PPN
Genesis Hospital Pvt Ltd,"C-1/30 JANAK PURI,NEW DELHI-110058NIL",NEW DELHI,DELHI,PPN
Aashlok Fortis Hospital,"25/A, BLOCK - AB, COMMUNITY CENTRE, SAFDARJUNG 
ENCLAVE,NIL",NEW DELHI,DELHI,NON PPN
Bhagat Chandra Hospital,"Mahavir Enclave Near Dwarka Airport Flyover,,New Delhi",NEW DELHI,DELHI,PPN
Vinayak Hospital Delhi,"Plot No2,Main Road,,Derawal NagarNIL",NEW DELHI,DELHI,PPN
Eden Hospital Pvt Ltd,"B-162,East Of Kailash B-162.East Of Kailash,Opposite C 
Block Muskad,,New DelhiNIL",NEW DELHI,DELHI,PPN
"Metro Hospital And Heart Institute (New 
Delhi)","14, Ring Road,Lajpat Nagar 4,Near Gupta Market,,Lajpat 
NagarLajpat Nagar",NEW DELHI,DELHI,PPN
"Hemraj Jain Hospital And Maternity 
Home.","Nh-1,,Block C-1, Janak Puri",NEW DELHI,DELHI,PPN
Adiva Hospitals,"C-1/C, Green Park Extension,",NEW DELHI,DELHI,PPN
Satya Bhama Hospital,"RZ-10, Naresh Park, Najafgarh Road, Nangloi, Near Water 
Tank, New Delhi, Delhi 110041New Delhi",NEW DELHI,DELHI,PPN
Janki Hospital,"Rz-89, Old Roshan Pura,,Opp. Gurudwara, Gurgaon 
Road,,Najafgarh,Najafgarh",New Delhi,DELHI,NON PPN
"Max Smart Super Speiality Hospital 
(Mandir Marg)","Press Enclave Road, Mandir Marg, Saket",NEW DELHI,DELHI,PPN
Balaji Hospital,"Goyal Mor, Deenpur, Main Gurgaon Road, Najafgarh, New 
DelhiNew Delhi",New Delhi,DELHI,NON PPN
Shubham Hospital,"Dd-15 Kalkaji ,,Opp.Main Post Office,Near Kalkaji Post 
Office,New DelhiNew Delhi",NEW DELHI,DELHI,PPN
Tarak Hospital,"C-7,Jai Bharat Enclave,Dwarka More,,Opp Metro Pillar No 
789,NIL",NEW DELHI,DELHI,PPN
Gandhi Hospital,"C-50-51, Om Vihar, Near Bank Of Baroda, Uttam Nagar",NEW DELHI,DELHI,PPN
Kalra Hospital SRCNC Pvt Ltd,"A-4,5-6,KIRTI NAGARNew Delhi",NEW DELHI,DELHI,PPN
St Stephen Hospital,"Tis Hazari, NIL",NEW DELHI,DELHI,NON PPN
Holy Family Hospital,"Okhla Rd,Opp. Fortis Escorts Heart Instuti % Research 
Centre,Okhla",NEW DELHI,DELHI,PPN
"Jeewan Hospital And Nursing Home Pvt 
Ltd (Jeewan Nagar)","Gate No. 1. No. 150 Jeewan Nagar,,Opp. Maharani 
Bagh,,New DelhiNIL",NEW DELHI,DELHI,PPN
Bhagat Hospital,"D-2/ 48-49,,,JanakpuriJanak Puri",NEW DELHI,DELHI,PPN
Sunrise Hospital,"F, KALINDI COLONY, NEAR MAHARANI BAGHNIL",NEW DELHI,DELHI,PPN
"RG Stone Urology And Laproscopy 
Hospital Preet Vihar","18 Gagan Vihar,Near Metro Station,",NEW DELHI,DELHI,PPN
"Swasthik Hospital (A Unit Of Sushom 
Health Care Pvt.Ltd)","A-9,RAGHUVIR ENCLAVE,DICHAUN CHOWK NAJAFGARH 
NEW DELHINIL",NEW DELHI,DELHI,NON PPN
Maharaja Agrasen Hospital Dwarka,"Plot No.01,,Sector 01,,DwarkaDwarka",NEW DELHI,DELHI,PPN
Rockland Hospitals Ltd,"Haf-B,,Sector-12,DwarkaPhase 1",NEW DELHI,DELHI,NON PPN
Pentamed Hospital,"Derawal Gujrawala Town,,7, Local Shopping 
Centre,,DerawalGujranwala Town",NEW DELHI,DELHI,PPN
Mahindru Hospital,"E - 1,Kiran Garden,Uttam Nagar Delhi,New Delhi",NEW DELHI,DELHI,PPN
Life Line Hospital Dwarka,"Plot - 42,,Sector - 12, B,DwarkaDwarka",NEW DELHI,DELHI,PPN
Shishu Sadan Multispeciality Hospital,"A-1/169a,Metro Pillar No. 616,Janak Puri,janak puri",NEW DELHI,DELHI,PPN
Pushpanjali Hospital And Trauma Centre,"11. Grund Floor, Inder Enclave Main Rohtak Road New 
Delhi,,New DelhiRohtak Road",New Delhi,DELHI,NON PPN
"Apollo Spectra Hospitals (Apollo 
Speciality Hospitals Private Ltd) (Karolba","66A/2, New Rohtak Road, Karol Bagh, New DelhiNew Delhi",NEW DELHI,DELHI,PPN
Rathi Hospital,"Plat No 3, Pratap Vihar Nangloi Najafgarh Road 
RanholaNangloi",NEW DELHI,DELHI,NON PPN
Amar Leela Hospital Pvt. Ltd.,"B-1/6 Janak Puri, Main Najafgarh Road, New Delhi - 
110058New Delhi",NEW DELHI,DELHI,PPN
Ardent Ganpati Hospital,"swarn park, metro piller no-493,N/o Rajdhani p[ark, 
Munirka, Metro Station, New DelhiNew Delhi",New Delhi,DELHI,NON PPN
Cygnus MLS Super Speciality Hospital,"Plot No-4, Main Kanjhawla Road Rama Vihar New DelhiNew 
Delhi",NEW DELHI,DELHI,PPN
Apollo Spectra Hospitals,"A-19/A, Kailash Colony, New Delhi-110048Delhi",NEW DELHI,DELHI,PPN
Delhi Hospital & Temple Nursing Home,"1, Ansari Road Darya GanjNew Delhi",NEW DELHI,DELHI,PPN
"AS Kidney Hospital & Stone Centre Pvt. 
Ltd","1/46, Vijay Enclave, Main Dabri Palam Road. Opp. Jindal 
Public SchoolNew Delhi",New Delhi,DELHI,NON PPN
"Apollo Cradle - For Women & Children (A 
Unit Of Apollo Speciality Hospitals Pvt 
Ltd)","Plot No-15A, Shivaji Marg Najafgarh Road, Near Moti Nagar 
Metro StationNajafgarh Road",NEW DELHI,DELHI,NON PPN
Tomar Multispeciality Hospital,"Plot No.35, Gali No- 2,,Pratap Vihar Part-1 Kirari 
Nanllol,,Nangloi",New Delhi,DELHI,NON PPN
Irene Hospital,"DD-23, Kalkaji ExtentionNew Delhi",New Delhi,DELHI,NON PPN
Mahajan Hospital,"A-4, Milap Nagar, New DelhiNew Delhi",New Delhi,DELHI,NON PPN
Vikas Hospital,"1629-H, Thana Road,opp bank of Baroda,",NEW DELHI,DELHI,PPN
Dr Reena Janana & Surgical Hospital,"Rajiv Colony, Arya Samaj Road, Narela, New DelhiNarela",New Delhi,DELHI,NON PPN
Suman Super Speciality Hospital,"Plot No 14,Pockett No. 4 Binda Pur,Near C-1 
JanakpuriBindra Pur",NEW DELHI,DELHI,PPN
Swasthik Hospital,"14, Gopal Nagar,Opposite Ashok Nagar,Tilak Nagar , New 
DelhiTilak Nagar",NEW DELHI,DELHI,PPN
Konarc Multispeciality Hospital,"9A/1, Naresh Park, NangloiNangloi",NEW DELHI,DELHI,PPN
Nestiva Hospital,"384, JS Complex, Near Canara Bank, MunirkaMunirka",New Delhi,DELHI,NON PPN
Ishan Hospital,"Plot No-1, Pocket -8B, Sector-19, Rohini, DelhiRohini",NEW DELHI,DELHI,PPN
Galaxy Hospital,"5, AGCR Enclave, Near Central School, Delhi - 110092New 
Delhi",New Delhi,DELHI,NON PPN
Park Hospital,"12,Meera Enclave,Near Keshopur Bus Depot,Outer Ring 
Road , New DelhiNew Delhi",NEW DELHI,DELHI,PPN
Apollo Spectra Hospitals Nehru Enclave,"R- 2 Nehru Enclave,,NIL",NEW DELHI,DELHI,NON PPN
Fortis Hospital Shalimar Bagh,"A-Block,Shalimar Bagh",NEW DELHI,DELHI,PPN
"Max Super Speciality Hospital (Shalimar 
Bagh)","Fc-50,,C&D Block, Shalimar Bagh,,New DelhiNIL",NEW DELHI,DELHI,PPN
"SCI International Hospital (Isis Hospital 
Pvt Ltd)","M-4, Greater Kailash, Part-1,Near M- Block Market,,NIL",NEW DELHI,DELHI,PPN
Surya Kiran Hospital Pvt Ltd,"31, Roshan Mandi,,Najafagarh RoadNajafgarh",NEW DELHI,DELHI,PPN
Universal Hospital,"Bypass Road,,Molarband Extn.,,BadarpurNIL",NEW DELHI,DELHI,PPN
"Aakash Healthcare Super Speciality 
Hospital","Hospital Plot,Road No 201, Sector -3, DwarkaDwarka",NEW DELHI,DELHI,PPN
Rosewood Hospital,"Kakrola Rd, New Dharampura Extension, Masudabad, 
Najafgarh, Delhi, 110043Najafgarh",NEW DELHI,DELHI,PPN
Sinha Hospital,"Plot No-3A, Roshan Mandi, Najafgarh",NEW DELHI,DELHI,PPN
Action Cancer Hospital,"H-2/F C-34, A-4, Paschim Vihar",NEW DELHI,DELHI,PPN
Ayushman Hospital,"Sec-10, Dwarka",NEW DELHI,DELHI,PPN
Sir Ganga Ram City Hospital,"B-1/1, Pusa Rd, North Extension Area, Karol Bagh, New 
Delhi, Delhi 110060New Delhi",NEW DELHI,DELHI,NON PPN
I Create Hospital,"A-3/24,3rd Floor,Janakpuri,nil",NEW DELHI,DELHI,PPN
Diyos Mens Hospital,"A1/26, Safdarjung Enclave, Near Green Fields School ,",NEW DELHI,DELHI,PPN
"R G Stone Urology And Laparoscopy 
Hospital","Plot No. 217, 218, P D A Colony,,Panjim Mapusa 
Road,,AltoporvorimPorvorim,",GOA,GOA,NON PPN
Manipal Hospitals,"Dr E Borge Road, Dona Paula Panaji GoaGoa",GOA,GOA,NON PPN
Royal Hospital,"Off Power House Road, Near St. Sebastian Chapel,Aquem, 
Margaomargao",GOA,GOA,NON PPN
Healthway Hospital(Kadmba),"132/1 (Part), Ella Village, Kadamb Plateau Tiswadi Taluka, 
Old GoaNorth District,",GOA,GOA,NON PPN
Healthway Hospitals,"Near Peoples High School, Fontainshas, Mala, Panaji -
Goa,FontainshasNIL",Panaji,GOA,NON PPN
Cims Hospital Pvt Ltd,"Plot No-67/1, Off Science City Road, Sola, Ahmedabad, 
Gujarat 380060Ahmedabad",AHMEDABAD,GUJARAT,PPN
Bodyline Hospitals,"New Vikas Gruh Road,,Opp. Annapurna Hall, B/S Dev 
Status,,Paldi,Ahmedabad",Ahmedabad,GUJARAT,PPN
Panchshil Hospital,"Highway,Ramnagar,Sabarmati",Ahmedabad,GUJARAT,PPN
Poojan Children Hospital,"1ST FLOOR, VAIBHAV COMPLEX, NEAR NIRNAY NAGAR, 
GARNALANIL",AHMEDABAD,GUJARAT,PPN
Shivam Medical Hospital,"C-4 SATYANARAYAN SOCIETY NEAR GOR NO KUVO 
MANINAGAR EASTNIL",AHMEDABAD,GUJARAT,PPN
Siddhi Hospital,"A - Ward.,Nr. Gayatri School,,Kuber Nagar",Ahmedabad,GUJARAT,PPN
"Sanjivani Super Speciality Hospital Pvt 
Ltd","1, Uday Park Society, Sunrise Park Road, Vastrapur",AHMEDABAD,GUJARAT,PPN
SAL Hospital And Medical Institute,"Adarsh Foundatation,Opp.Doordarshan, Drive - In Road,",AHMEDABAD,GUJARAT,PPN
Shreeji Hospital(Ahmedabad),"01, Sharaswati Shopping Center, NR. Vishat Petrol Pump, 
Opp-ONGC Avni Bhavan, Sabarmati, Ahmedabad, Gujrat-
380005Ahmedabad",AHMEDABAD,GUJARAT,PPN
Swapn Healthcare Hospital PVT. LTD,"Ground Floor Sardar Complex, opp. Gordhanwadi, Ishanpur, 
Ahmedabad-382443Ahmedabad",AHMEDABAD,GUJARAT,PPN
Utkarsh Hospital,"24, UTKARSH-2 BUNGLOWS, BEHIND JANTA NAGAR, 
CHANDKHEDA, AHMEDABAD-382424Ahmedabad",AHMEDABAD,GUJARAT,PPN
Rushabh Medi Surge Hospital Pvt Ltd,"2nd Floor Sahjanand Palace, Opp. rahul tower 100 ft. anand 
nagar Road, Ahmedabad, Gujrat-380015 Anand Nagar Road",AHMEDABAD,GUJARAT,PPN
Mansarovar Hospital,"Kheteswar Mer Centre, Kheteswar Bhavan Kirti Colony, NR. 
Panchil Society, Usmanpura, Ahmedabad, Gujrat-
380013ahmedabad",AHMEDABAD,GUJARAT,PPN
Tapan Hospital,"Near Platinum Hall, Anandnagar Cross Road, Ma 
Anandamayi Marg 100 feet road, satelliteAhmedabad",AHMEDABAD,GUJARAT,PPN
Netra Raksha Hospital,"Trimurti Complex, India Colony T.B. Nagar road, 
Bapunagar, Ahmedabad, Gujarat-382350",AHMEDABAD,GUJARAT,PPN
Tapan Hospital,"4th Floor, Radhe Mall, Khokhra circle, Maninagar(E), 
Ahmedabad, Gujarat-380008",AHMEDABAD,GUJARAT,PPN
Devasya Kidney Hospital,"Near Bhimajipura Cross Roads, New Vadaj Road, 
Ahmedabad-380 013Ahmedabad",AHMEDABAD,GUJARAT,PPN
"Tapan Hospital (A Unit Of Tapan Hospital 
Pvt Ltd)","3rd Floor, Deep Shanti Complex, Anjali Cross Road, Vasna, 
Ahmedabad - 380007Ahmedabad",AHMEDABAD,GUJARAT,PPN
Parth Hospital,"Near Ramji Mandir, Ramnagar, SabarmatiSabarmati",AHMEDABAD,GUJARAT,PPN
Shaurya Hospital(Ahmedabad),"301, Shivalik-5, Above Indore Chat,,Mahalaxmi Cross Rd, 
Paldi,,Ahmedabad,Ahmedabad",Ahmedabad,GUJARAT,PPN
"Zydus Hospital And Healthcare Research 
Pvt Ltd","Zydus Hospitals Road, Nr. Sola Bridge, S.G. 
Highway,,Thaltej,,S.G. Highway,Ahmedabad",Ahmedabad,GUJARAT,PPN
Hcg Medi - Surge Hospitals Pvt. Ltd.,"Near Mithakhali Six Roads , AhmedabadAhmedabad",Ahmedabad,GUJARAT,PPN
Krishna Surgical Hospital,"(401-403)4th floor,puskkar anexe complex,opp cinema nr 
mahaprabhuji bethak,naroda,ahemadabad-382340 , 
AhmedabadAhmedabad",AHMEDABAD,GUJARAT,PPN
Aalok Orthocare Hospital,"8,Vidhya Vihar Colony, Ashram Road, Usmanpura, 
Opp.Fortune Landmark Hotel, Ahmedabad-380014 , 
AhmedabadAhmedabad",AHMEDABAD,GUJARAT,PPN
Aarna Super Speciality Hospital,"Opp Suvidha Shopping Centre Near Parimal Underpass 
Paldi, Ahemdabad Gujarat-380007 , 
AHMEDABADAhmedabad",AHMEDABAD,GUJARAT,PPN
Anand Surgical Hospital Pvt Ltd,"5, Janta Chamber,Near saijpur Tower,Naroda 
Road,Ahmedabad-382345Ahmedabad",AHMEDABAD,GUJARAT,PPN
"Apollo Hospital International Ltd (City 
Center)","Ploat No-1/A,City Center, Tulsi Bag Society,Opp. Doctor 
House,Ahmedabad-382428Ahmedabad",AHMEDABAD,GUJARAT,PPN
"Arihant Orthopaedic Hospital And Joint 
Replacement Centre","Upnishad 202/203, Second Floor, Above Hero Honda 
Showroom, Below Sheryas, Crossing Flyover Bridge,, 
Ambawadi, Ahmedabad, Gujarat 380015Ahmedabad",AHMEDABAD,GUJARAT,PPN
Baps Yogiji Maharaj Hospital,"PRAMUKH VATIKA, OPP. BAPS SWAMI NARAYAN MANDIR, 
SHAHIBAUG ROAD, AHMEDABAD-380004 , 
AHMEDABADAhmedabad",AHMEDABAD,GUJARAT,PPN
Dr.Saurabh Shah Orthopaedic Hospital,"3/B Hasmukh Colony , AhmedabadAhmedabad",AHMEDABAD,GUJARAT,PPN
"Global Longlife Hospital And Research 
Pvt.Ltd","Global Longlife Hospital Research Pvt Ltd Nr. Bodakdev 
Garden,Pakwan Cross Road,off S.G. Highway,Bodakdev-
380054 , AhmedabadAhmedabad",AHMEDABAD,GUJARAT,PPN
"Apollo Hospital International 
Ltd(Gandhinagar)","Plot No-1A,Bhat GIDC Estate, Nr.Indira Bridge, Gandhi 
Nagar-382428 , GandhiNagarAhmedabad",AHMEDABAD,GUJARAT,PPN
J Chirag Surgical Hospital,"14/A,Bharat Colony, Stadium Road,Navrangpura, 
Ahmedabad -380014 , AhmedabadAhmedabad",AHMEDABAD,GUJARAT,PPN
Kakadiya Hospital,"B/H SUKH SAGAR COMPLES,OP.DINESH 
CHAMBER,L.B.SHASTRI MARG,BAPUNAGAR, , 
AHMEDABADAhmedabad",AHMEDABAD,GUJARAT,PPN
Karnavati Superspeciality Hospital,"Opp. Saipur Tower,Naroda Road , AhmedabadAhmedabad",AHMEDABAD,GUJARAT,PPN
Laxmi Hospital And Diagnostic Centre,"Samaraan Complex, Ambali Bopal Ring Road, Amabali, 
Ahmedabad , AhmedabadAhmedabad",AHMEDABAD,GUJARAT,PPN
Mansi Multispeciality Hospital,"Akhbar Nagar Cir, Krushikunj Society, New Vadaj, 
Ahmedabad-380013 , AhmedabadAhmedabad",AHMEDABAD,GUJARAT,PPN
Mayflower WomenS Hospital Pvt Ltd,"Ring Road-Drive in road junction, Opp-Traffic Police 
Helmet,Near Manavmandir Memnagar , 
AhmedabadAhmedabad",AHMEDABAD,GUJARAT,PPN
"Param Maternity Gynaec And Surgical 
Hospital","2 Nd Floor Sahayog plaza opp, government engg college, 
Ahemedabad-gujrat-30005 , AhmedabadAhmedabad",AHMEDABAD,GUJARAT,PPN
Rathi Hospital,"Nr Anupam Shopping Centre.Opp Mahabaleshwar 
Society,Jodhpur Cross Roads,Satelite Ahmedabad , 
AHMEDABADAhmedabad",AHMEDABAD,GUJARAT,PPN
Shah Hospital (Dr. Manish Shah),"21 Shantinagar Society,, Ashram Rd,, Vadaj, Ahmedabad, 
Gujarat 380013 , AHMEDABADAhmedabad",AHMEDABAD,GUJARAT,PPN
Sumiran Women`S Hospital,"46/B2, Swastik Society, Near Vodafone House, Stadium Five 
Road, Navrangpura, Ahmedabad AhmedabadAhmedabad",AHMEDABAD,GUJARAT,PPN
"The Gujarat Research And Medical 
Institute(Rajasthan Hospitals)","Rajasthan Hospital, Camp Road, Shahibaug, Ahmedabad-
380004 , AhmedabadAhmedabad",AHMEDABAD,GUJARAT,PPN
Tirupati General Hospital,"Opp Shivam Flat 132 Nava Vadaj , AhmedabadAhmedabad",AHMEDABAD,GUJARAT,PPN
Aarogyam Speciality Hospital,"Opp. Ganesh Tower,,Near Darpan Six Roads,AhmedabadNr. 
Navrang School Circle,",AHMEDABAD,GUJARAT,NON PPN
Anand Multispeciality Hospital,"White House,Subh Complex , Near Rajisthan 
Hospital,,Shahibaugh,NIL",AHMEDABAD,GUJARAT,PPN
Columbia Asia Hospital,"Plot No.121/122,,Hebatpur Road, Off S G 
Highway,,ThaltejNIL",AHMEDABAD,GUJARAT,PPN
"Gcs Medical College Hospital And 
Research Centre","Opp. Drm Office Nr. Chamunda Bridge Naroda 
Road,Ahmedabad,",Ahmedabad,GUJARAT,PPN
"Hcg Hospitals (Healthcare Global 
Enterprises Ltd)","Medisurge Hospitals,,Mithakhali Six Road,,",Ahmedabad,GUJARAT,PPN
Indus Hospital,"Opp. Adani Cng Pump,,Opp Motera Cross Road, Brts 
Stop,,Sabarmati,NIL",AHMEDABAD,GUJARAT,PPN
Kaizen Hospital,"132 Ft. Ring Road,,Helmet Circle,,MemnagarNIL",AHMEDABAD,GUJARAT,PPN
Kalptaru Hospital,"6/1, Gridhar Nagar Society,,Gridhar Nagar 
Shahibaug,Ahmedabad",Ahmedabad,GUJARAT,PPN
Kiran Surgical Hospital,"301, Pratham Mangal Complex,,Near Vasna Bus 
Stand,,Vasna",Ahmedabad,GUJARAT,PPN
"Medilink Hospital And Research Center 
Pvt Ltd","Opp Someshwara Char Rasta Jain Temple,On 132, Ring 
Road, Nr.Shayamal Cross Road,",AHMEDABAD,GUJARAT,PPN
"Narayana Multispeciality Hospital ( 
Ahmedabad)","Ex Monogram Mil Compound,Opp. Rakhiyal Police 
Station,Rakhiyal",Ahmedabad,GUJARAT,PPN
Parimal Hospital ( Maninagar ),"Punit Marg,,Near Under Over Bridge,,Mani Nagar",Ahmedabad,GUJARAT,PPN
Prathana Surgical And Medical Hospital,"Duplex Market, Nayan Nagar,,Krishna Nagar,Ahmedabad",Ahmedabad,GUJARAT,PPN
"Pushpa Children Hospitals And Critical 
Care Centre","302 Vithal Mall, A'Bad,Near Chandkheda Eng College,NIL",AHMEDABAD,GUJARAT,PPN
Samata Hospital Pvt Ltd,"Nr Balmandir,,Behind Bus Stand,,Chandlodia",Ahmedabad,GUJARAT,PPN
Sanjivan Heart And Medical Hospital,"Hiral Shopping Centre, Near Kalimata Temple,,Ramnagar 
Chowk,SabarmatiNIL",AHMEDABAD,GUJARAT,NON PPN
Satyamev Hospital,"Satyamev Arcade,Ahmedabad-Sabarmati-Mehsana State 
Highway,Nr.Chabdkheda Bus Stop,ChandkhedaNIL",AHMEDABAD,GUJARAT,PPN
Saviour Annexe Hospital,"Off Ashram Road,Near Kandoi Bhogilal 
Moolchand,Navrangpura, Dinesh Hall Road,Ahmedabad",AHMEDABAD,GUJARAT,PPN
Shalby Hospital Ltd,"Near Mem Nagar Fire Station,,Vijaya Cross 
Road.,NavrangpuraNIL",AHMEDABAD,GUJARAT,NON PPN
Shraddha Surgical Hospital,"B-4, Surya Complex,,Opp. Navneet House, Opp. A M C O 
Bank, Gurukul Road,,Memnagar",Ahmedabad,GUJARAT,NON PPN
Shreeji Orthopaedic And Ent Hospital,"F/5,Veemurti Complex,Opp. Oxford Tower,,Gurukul 
Road,MemnagarNIL",AHMEDABAD,GUJARAT,PPN
Shrey Hospital And Research Center,"#270/B/5, Near AMCO Bank, Stadium Circle, 
NavrangpuraNIL",AHMEDABAD,GUJARAT,PPN
Siddhi Vinayak Hospital(Maninagar),"Balvatika-Maninagar Road,,Near Jal Dhara Water 
Park,Kakalia,,Maninagar",Ahmedabad,GUJARAT,PPN
"Sterling Hospital-Ahmedabad (Division Of 
Add Life Medical Institute Ltd.)","Off Gurukul Road,,B/H Drive In Cinema,,MemnagarNIL",AHMEDABAD,GUJARAT,PPN
Sushrut Hospital,"9-A Vivekanand Society,Near Badshah Dairy,Mahalaxmi 
Panch Rasta,",Ahmedabad,GUJARAT,PPN
Tapan Hospital Pvt Ltd,"7/76, Vallabh Flats,,Bapunagar Cross Road,Ahmedabad",Ahmedabad,GUJARAT,NON PPN
Smruti Hospital Pvt Ltd,"Unit-1 16/17/18, Sayona Arcade Opp Dinesh Chambers 
Bapunagar AhmedabadAhmedabad",AHMEDABAD,GUJARAT,NON PPN
Central United Hospital,"3rd and 4th floor , Mangalam Arcade , Odhav Talav BRTS 
Bus Stop , Odhav,nil",AHMEDABAD,GUJARAT,PPN
KD Hospital,"Vaishnodevi Circle, S.G.Road,nil",AHMEDABAD,GUJARAT,PPN
Saviour Hospital,"Near Bharat Petrol Pump, Near Lakhudi Talav, Stadium 
Road, Navrangpura,nil",AHMEDABAD,GUJARAT,PPN
Care And Cure Hospital,"Behind Rotray Club, Station Road, Bharuch,,",Bharuch,GUJARAT,NON PPN
M-Cure Hospital,"2nd FLOOR, SHARTHAK 2nd floor,sarthak mall,k 
road,sargasan cross road,gandhinagar, Gandhinagar, 
Gujarat 382421 , GANDHINAGARGandhinagar",GANDHI NAGAR,GUJARAT,PPN
Pagarav Hospital And ICU,"512/1, Nr.G-6 Circle, Opp. SBI, Sector-23",GANDHI NAGAR,GUJARAT,PPN
Kanoria Hospital And Research Centre,"Hansol-Gandhinagar Highway,Nr. Mother 
Dairy,VillbhatGandhinagar",GANDHI NAGAR,GUJARAT,PPN
Yashdeep Hospital,"Opp.Collectorate,,Himmatnagar",Himmatnagar,GUJARAT,NON PPN
Ashirwad Hospital,"150 Ring Road,Mavdi Main Road Crossing,Opp. Jithariya 
Hanuman Mandir, NIL",RAJKOT,GUJARAT,NON PPN
"Sadbhavna Hospital And Medical 
Research Centre","150 Ft Ring Road, Gadhigram, NIL",RAJKOT,GUJARAT,PPN
Sudeep Hospital And Maternity Home,"Ratan Sagar Apt.,,Near Varachha New Police Satation, 
Varachha Road, NIL",SURAT,GUJARAT,NON PPN
Healing Hands Hospital,"Prasham Building ,,City Light Road, NIL",SURAT,GUJARAT,NON PPN
"Metas Of Seventh Day Adventist 
Hospital(Surat)","P.O.Box No 24,,Athwa Lines,SuratNIL",SURAT,GUJARAT,NON PPN
"Kiran Multi Super Specialty Hospital & 
Research Center","Nr Sumul Dairy, Katargam,",SURAT,GUJARAT,NON PPN
SIDS Hospital And Research Centre,"Vijay Nagar, Gate No.3, Beside Nirman Bhavan,Majura gate 
Cross Roads, Ring Road,Opp. Gandhi College,",SURAT,GUJARAT,NON PPN
Indrapuri Hospital,"Uma Char Rasta, Waghodia Road, NIL",VADODARA,GUJARAT,NON PPN
Chandan Hospital And Icu,"Old Navrang Talkies Compound,Opp. Utsav Hotel, 
Raopura,,Baroda Talkies Compound,Raopura",Vadodara,GUJARAT,NON PPN
Chiranjeev Children'S Hospital,"9, Navneet Park,,Ayurvedic Teen Rasta, Outside 
Panigate,,Vadodara",Vadodara,GUJARAT,NON PPN
Dev Hospital And Iccu (Baroda),"Dev Commercial Centre, Nr Natubahi Centre,,Gotri 
Road,,Baroda",Vadodara,GUJARAT,NON PPN
Devamrut Hospital,"Ff 5,6 & Sf 1,2,3,4, A' Wing, Darshanam Arise,,Nr Collabera 
,Gotri Sevasi Main Road,,Gotri",Vadodara,GUJARAT,NON PPN
Devarsh Surgical And Maternity Hospital,"3 & 4 Vihal Krupa Soc, New Sama Road 
Nizampura,Vadodara,",Vadodara,GUJARAT,NON PPN
"Devpushp Meternity And Laproscopic 
Hospital","Devpushp Complex, Tulsidham Cross Road,,Manjalpur, Near 
Deep Chember,Vadodra",Vadodara,GUJARAT,NON PPN
Dhvani Ent Hospital,"Near G. P. O.,,Raopura,Vadodara",Vadodara,GUJARAT,NON PPN
Dr. Bhavesh Patel'S Hospital,"5 - B, Indraprasth Complex,,Opp. Swaminarayan 
Nagar,,Nizampura",Vadodara,GUJARAT,NON PPN
Dr. Munshis Hospital,"Girdharnivas, Raopura,Opp. Ushakiran Building,Raopura",Vadodara,GUJARAT,NON PPN
Dwarkesh Hospital,"10, Shivali Society , L& T Circle,Vip Road,,Karelibaug",Vadodara,GUJARAT,NON PPN
Ganga Jamna Hospital,"Opp. Golden Silver Apts.,,Subhanpura,Subhanpura",Vadodara,GUJARAT,NON PPN
Gujarat Kidney Hospital,"1st Floor,Abhinav Complex,67,Vishwas,Colony Near 
Chikuwadi,,Jetalpur Road Vadodara,",Vadodara,GUJARAT,NON PPN
Gunjan Children Hospital And Icu,"A/F-2 Indraprastha Complex, Above Tata Twin 
Showroom,,Opp. Swami Narayan Nagar Society,,Nizampura",Vadodara,GUJARAT,NON PPN
Gupta Hospital ( Vadodara),"1st Floor,Kabir Shopping Centre,,Makarpura Road,Vadodra",Vadodara,GUJARAT,NON PPN
"Himalaya Cancer Hospital And Research 
Centre","4, Vinod Baug,Nr.Jetalpur Bridge,",Vadodara,GUJARAT,NON PPN
"I Care Hospital And Phaco Centre 
(Vadodara)","Above: Paramount Ct Scan Centre,Behind: Natubhai 
Centre,,Race Course - Gotri Road",Vadodara,GUJARAT,NON PPN
Jadia Orthopedic And Maternity Hospital,"Opp Mahadev Temple,,Nr Karjan,",Vadodara,GUJARAT,NON PPN
Kaka Hospital,"B/H. Dex Plaza, Zavernagar,,Waghodia Road,,Vadodara",Vadodara,GUJARAT,NON PPN
Kalavati Hospital (Vadodara),"D-187/188/189 Dajigar Society,,Harni Warasiya Ring Road, 
Baroda,Kalavati Hospital,D-187-189,Near Premdas Jalaram 
Hospital",Vadodara,GUJARAT,NON PPN
Kamubala Hospital,"53 Defense Colony,,Near Chanakyapur,,New Sama Road",Vadodara,GUJARAT,NON PPN
Kinjal Hospital,"Opposite Police Station, Station Road,,At. & Po. 
Waghodia,,Baroda",Vadodara,GUJARAT,NON PPN
Krishna Hospital(Vado),"1st Floor, Nilamber Complex,Opp Narayan School,Near 
Swami Narayan Gurukul,Char Rasta",Vadodara,GUJARAT,NON PPN
Krishnashray Hospital And Icu,"Sanstha Vasahat,,Raopura",Vadodara,GUJARAT,NON PPN
Metro Hospital And Research Institute,"Harni - Savli Road,,Near Amit Nagar Circle,HarniNIL",VADODARA,GUJARAT,NON PPN
"Viroc Super Speciality Orthopaedic 
Hospital(Nirman Orthopaedics)","5/ B , Nivruti Colony,Aryakanya Vidhalay 
Road,KarelibavaNIL",VADODARA,GUJARAT,NON PPN
"Venus Superspeciality Hospital (A Unit Of 
Venus Medi Surgery Pvt Ltd)","7a, 7b, Shrinathji Park Soc.,Opp. Old Padra Raod,,Opp. 
Akota Ward Office 6#",Vadodara,GUJARAT,NON PPN
Welcare Hospital (Vadodara),"Nr.Miles Motors,Atladara-Vadsar Road,,NIL",VADODARA,GUJARAT,NON PPN
Samvedna Multispeciality Hospital,"C-Wing, Trishla Building, Koparli Road, Chhiri,Near St. 
Xaviews School",VAPI,GUJARAT,NON PPN
Leelawati Hospital,"9 Inder Nagar,Police Line Road,AmbalaNIL",AMBALA,HARYANA,PPN
Vardhman Hospital ( Ambala City ),"C-13 Civil Lines Jail Road,,Opposite Session Court,NIL",AMBALA,HARYANA,PPN
Mehndiratta Hospital,"Manali House, Near Prem Nagar, Sector-1Ambala",AMBALA,HARYANA,PPN
Narain Hospital And Ct Scan Centre,"42,MANAULI HOUSE,AMBALA CITYJail Road",AMBALA,HARYANA,PPN
Monga Hospital And Stone Centre,"Mahesh Nagar Jagadhri Road , Ambala CanttAmbala",AMBALA,HARYANA,PPN
MM Hospital,"6 Police Line, Ambala City- HaryanaAmbala",AMBALA,HARYANA,PPN
Dhawan Orthopaedic Hospital,"Arya Nagar, Jagadhri Road, NIL",AMBALA,HARYANA,PPN
Healing Touch Super Speciality Hospital,"Khasra No. 195, 196, 197, Vill Sultanpur,,Sultanpur Chowk, 
Chandigarh Highway,",AMBALA,HARYANA,PPN
JP Surgical Hospital,"Polytechnic Chowk,Civil Hospital RoadNear Bara Thakur 
dawara,",AMBALA,HARYANA,PPN
Kapoor Hospital(Ambala),"135/7, Sahzad Pur House,,Police Line Chowk,Ambala 
City,NIL",AMBALA,HARYANA,PPN
Rai Multispeciality Hospital,"2069a Chandigarh Road,,Near Naraingarh Chowk,NIL",AMBALA,HARYANA,PPN
"Rotary Ambala Cancer And General 
Hospital.","Gushera Ground,Ram Bag,,Ambala Cantt",AMBALA,HARYANA,PPN
Ishwar Hospital,"Spatu Road ,Miri-Piri Chowk Ambala City,nil",AMBALA,HARYANA,PPN
RJ Super Speciality Hospital,"Delhi - Rohtak Road, Near Rajesh Joon Office, Bahadurgarh, 
Dist Jajjhar, Haryana-124507Bahadurgarh",BAHADURGARH,HARYANA,NON PPN
Care & Cure Hospital,"Old Barahi Road, Opposite Pwd Rest HouseBahadurgarh",BAHADURGARH,HARYANA,NON PPN
Sarvodaya Hospital,"Gopi Colony, Sector-19",FARIDABAD,HARYANA,PPN
Shivalik Hospital,"Huda Market Sector-37,Faridabad,,NIL",FARIDABAD,HARYANA,PPN
Raj Rishik Hospital Pvt Ltd,Clinic Site No. 6 Sector - 3Faridabad,FARIDABAD,HARYANA,PPN
"Qrg Central Hospital And Research 
Centre","69,Sector 20A,Near Ajraunda Chowk, Mathura Road",FARIDABAD,HARYANA,PPN
Sarvodaya Hospital And Research Centre,"YMCA Road, Near ESI Hospital,Sector - 8",FARIDABAD,HARYANA,PPN
C. K. Memorial Kapoor Hospital,"3b/8a,,Nit - 3,Dav College Road,,NIL",FARIDABAD,HARYANA,PPN
IBS Ashwani Hospital,"8-D1,SECTOR-11,FARIDABAD-121006NIL",FARIDABAD,HARYANA,PPN
Fortis Escorts Hospital,"Neelam Bata Road, Opp. Neelam Cinema",FARIDABAD,HARYANA,PPN
Prime Hospital And Ortho Centre,"Site No. 1,Huda Market, Sector-30,Faridabad-121002",FARIDABAD,HARYANA,PPN
Zenith Hospital Pvt Ltd,"Plot no 187/1 Yadav Colony Mohna Road near Punjabi 
Dharamshala And Plot No.110 Yadav Colony, Mohna 
Road,Near Bank of BarodaBallabgarh",FARIDABAD,HARYANA,PPN
RK Hospital,"3C-59 BP,Near ESI, NIT",FARIDABAD,HARYANA,PPN
Lohan Children Hospital,"5C-14,B.P,NIT",FARIDABAD,HARYANA,PPN
"RG Stone Urology And Laparoscopy 
Hospital","A-6,Nehru Ground Neelam Bata Road,NITFaridabad",FARIDABAD,HARYANA,PPN
"Apex Multispeciality And Laproscopy 
Hospital","3C-79,B.P.N.I.T FARIDABADNIL",FARIDABAD,HARYANA,PPN
Jeewan Jyoti Hospital,"562,SECTOR-15,FARIDABAD-121007(HARYANA)NIL",FARIDABAD,HARYANA,PPN
Arsh Hospital,"Opp Era Redwood Residency Tigoan Road Sector 78 
FaridabadFaridabad",FARIDABAD,HARYANA,NON PPN
Ghai Hospital,"Plot No. 29 Sector 9 Faridabad, Haryana-121006",FARIDABAD,HARYANA,PPN
Satyam Hospital,"2/C-14 B.P. NIT, Faridabad , Faridabadfaridabad",FARIDABAD,HARYANA,PPN
Kesar Hospital,"C-480 Chawla Colony Ballabgarh,,BallabgarhBallabgarh",FARIDABAD,HARYANA,PPN
Pawan Hospital,"Samaypur, Near Sec- 56, Ballabgarh, Faridabadnil",FARIDABAD,HARYANA,PPN
Santosh Multispeciality Hospital,"3F - 139, NIT FaridabadFaridabad",FARIDABAD,HARYANA,PPN
"Medicheck Ortho Superspeciality Hospital Site-2,Sec-46, Near Community Centre, Faridabad-121010 ,",FaridabadFaridabad,FARIDABAD,HARYANA,PPN
Gaurav Hospital,"Rajeev Colony, Shamaypur Road Near Petrol Pump, 
Ballabhgarh, FaridabadBallabhgarh",Faridabad,HARYANA,NON PPN
Aar Pee Hospitals,"1276 Sector-28,Faridabad,Faridabad,",FARIDABAD,HARYANA,PPN
Apurva Hospital,"2n/74, B.P.Nit,Naer 2-3 Gole Chakkar Opp. Golf 
Club,FaridabadNIL",FARIDABAD,HARYANA,PPN
Dr. Harish Hospital,"House Number- 701, Sector - 8,,Ymca Road,NIL",FARIDABAD,HARYANA,PPN
Goyal Hospital,"Opp- Hanuman Mandir Side No-2, Sec-8,Dist.Ballabgarh,",FARIDABAD,HARYANA,PPN
Medicheck Hospital,"1 C76/53,Near I.O.B. Bank,NIT",FARIDABAD,HARYANA,PPN
Park Hospital Faridabad,"J - Block, Sector - 10 Near Court",FARIDABAD,HARYANA,PPN
Prakash Hospital,"Site No.2,Near Aggarwal Public School,Sector - 3",FARIDABAD,HARYANA,PPN
Shanti Devi Memorial Hospital,"Sector - 89, Kheri More, Bhopani",FARIDABAD,HARYANA,PPN
Shivmani Hospital,"5E/9 BP ,Behind OBC Bank Near Neelam chowk,",FARIDABAD,HARYANA,PPN
Vardaan Hospital,"3E - I, NIT",FARIDABAD,HARYANA,PPN
Chugh Hospital,"166, KC Road, Block 1, New Industrial Township 4, New 
Industrial Town, Faridabad, Haryana 121013Faridabad",FARIDABAD,HARYANA,PPN
"Doctor Today IVF And Multispeciality 
Hospital","5C-2BP, Railway Road, Nit,Faridabad",FARIDABAD,HARYANA,PPN
Dr Dilip Hospital,"765, opp Sector 29 Petrol Pump ,Sector 28,nil",FARIDABAD,HARYANA,PPN
Shivalik Hospital,"Opposite Sector 91 Sehatpur,nil",FARIDABAD,HARYANA,PPN
Azad Hospital & Trauma Center,"Old Bus Stand, Bhuna, Distt. Fatehabad, Haryana - 
12511Fatehabad",FATEHABAD,HARYANA,NON PPN
Max Hospital Gurgaon,"Block-B, Sushant Lok, phase I",GURGAON,HARYANA,PPN
Neelkanth Hospital,"1 Nathupur Road, Phase-III, DLF City, NIL",GURGAON,HARYANA,PPN
Sethi Hospital ( Gurgaon),"301-302 /4, Model Town,Basai Road,Near Bhuteshwar 
Mandir,GurgaonNIL",GURGAON,HARYANA,PPN
Mamta Hospital (Gurgaon),"877 / 2, Opp Home Guard Office,Sheetla Mata Road,Main 
Bus Stand Gurgaon,,GurgaonNIL",GURGAON,HARYANA,PPN
Aryan Hospital Pvt Ltd,"Old Railway Road,,,Gurgaon",GURGAON,HARYANA,PPN
Tirath Ram Hospital Pvt Ltd(Gurgaon),"163 / 20,,Basai Road,,NIL",GURGAON,HARYANA,PPN
Umkal Hospital,"A-520, Near Iffco Metro Station,,Sushant Lok-1,,Sushant Lok-
1,NIL",GURGAON,HARYANA,PPN
Paras Hospitals Gurgaon,"C-1, Ph-1, Sushant Lok,Sec-43,GurgaonSushant Lok",GURGAON,HARYANA,PPN
Pushpanjali Hospital (Civil Lines),"John Hall Road,,Civil LinesGurgaon",Gurgaon,HARYANA,NON PPN
Kalyani Hospital Pvt Ltd,"Opposite Girls College, Mehrauli Road, Sector-14,",GURGAON,HARYANA,PPN
Columbia Asia Hospital (Palam Vihar),"Block-F, Near Gol ChakkarPalam Vihar",GURGAON,HARYANA,PPN
Ayushman Hospital And Trauma Centre,"Hero Honda Chowk,,N H - 8,,GurgaonNIL",GURGAON,HARYANA,PPN
KK Healthcare Hospital,"238, Sector 5, Urban Estate, nil",GURGAON,HARYANA,PPN
Rockland Hospitals Ltd,"Plot No. P2, Sector-5, Imt Manesar,,Opp. To Raheja 
SquareGurgaon",GURGAON,HARYANA,NON PPN
"Metro Hospital And Heart Institute A Unit 
Of Umkal Health Care Pvt Ltd","H-Block,palam vihar,Gurgaon-122017Gurgaon",GURGAON,HARYANA,NON PPN
Anand Multispeciality Hospital,"P-29, Sector 56, GurgaonGurgaon",GURGAON,HARYANA,NON PPN
Park Hospital,"Q Block, South City 2, Sohna Road, Main Sec-47, Gurugram, 
Haryana 122001gurgaon",GURGAON,HARYANA,PPN
Yashroop Hospital,"12-P, Sector 9, GurgaonGurgaon",Gurgaon,HARYANA,NON PPN
W Pratiksha Hospital,"Golf Course Extn Road, Sector - 56, Shushant Lok II, 
GurgaonGurgaon",GURGAON,HARYANA,NON PPN
Mayom Hospital,"D-Block,,South City,South CityNIL",GURGAON,HARYANA,PPN
Narayana Superspeciality Hospital,"Plot 3201, Block - V, DLF Phase - III, Nathupur, Sector 24, 
nil",GURGAON,HARYANA,PPN
Sukhda Multispeciality Hospital (Hisar),"Delhi Road,,Opp. Green Belt,,Near Pushpa Complex,NIL",HISAR,HARYANA,NON PPN
"Shri Moolchand Kidney Hospital And 
Urological Institute","1075-1076-1077, Sector 13,,Urban Estate,Karnal",Karnal,HARYANA,NON PPN
Uttam Clinic and Hospital,"37-38, Sector 14 Karnal Haryana-132001Sector 14",KARNAL,HARYANA,NON PPN
City Care Hospital,"17, Ashoka Colony, KarnalKarnal",KARNAL,HARYANA,NON PPN
Amritdhara Hospital,"Near ITI Chowk, Kunjpura Road, KarnalKarnal",KARNAL,HARYANA,NON PPN
Park Hospital,"CHD City Sector-45, Karnal, HaryanaKarnal",KARNAL,HARYANA,NON PPN
Arvind Hospital,"Duggal Colony, Opp Randhir Theatre, KarnalKarnal",KARNAL,HARYANA,NON PPN
Saraswati Mission Hospital,"Ambala Road,,PehowaNIL",KURUSHESTRA,HARYANA,NON PPN
Navjeevan Hospital (Nizampur Road),"Nizampur Road Dhowali Narnaul,,Nizampur Road",Palwal,HARYANA,NON PPN
Cosmos Hospital,"Prakash Vihar, Nh-2, Delhi Mathura Road",PALWAL,HARYANA,NON PPN
Dhawan Hospital,"Plot-1, Sector7, Panchakula,,N/O Mansa Devi 
DwarPanchkula",Panchkula,HARYANA,PPN
Raffels Hospital,"Sco 138, Sec-14, Panckula, Haryana,Opp. Police 
Station,,Sector 14,PANCHKULA",PANCHKULA,HARYANA,PPN
Alchemist Hospital Ltd Panchkula,"Sector - 21,,Panchkula",PANCHKULA,HARYANA,PPN
Ojas Super Specialty Hospital,"H1, Sector-26, PANCHKULA",PANCHKULA,HARYANA,PPN
IVY Hospital,"MDC Sector -5 Panchkula,nil",PANCHKULA,HARYANA,PPN
Paras Hospital,"H-2,HSIIDC, Technology Park,Sec-22,nil",PANCHKULA,HARYANA,PPN
D.N.Hospital,"Gohana Road,Krishan Pura,Near G.T.Road,,PanipatNIL",Panipat,HARYANA,NON PPN
Dr. G.C.Gupta Hospital,"372/373 Huda,,Phase-1, Sector 11,PanipatNIL",PANIPAT,HARYANA,NON PPN
Park Hospital,"National Highway No. 1,,Gt Road,",Panipat,HARYANA,NON PPN
Lotus Hospital,"Sonali Road, PanipatPanipat",PANIPAT,HARYANA,NON PPN
"Ganga Sahai Multispecialty Hospital Pvt. 
Ltd","Huda Bye Pass Road Sec -3, Rewari, Near Housing Board 
RewariRewari",Rewari,HARYANA,NON PPN
"Metro Umkal Hospital And Heart Institute Dharuhera Chowk,,,RewariNIL",,REWARI,HARYANA,NON PPN
Pushpanjali Hospital,"Plot No-1, Sec-4,Rajesh Pilot Chowk,NIL",REWARI,HARYANA,NON PPN
LifeCare Hospital Rewari,"Sector-05,Huda Market, Opp. BMG Mall, Circular Road, 
Khasapura, Rewari, Haryana 123401Rewari",REWARI,HARYANA,NON PPN
Sunflag Global Hospital,"PLOT NO 747/28 Bharat colony , opp Hotal Rivoli Near 
sheela chowk , sonipat RoadRohtak",ROHTAK,HARYANA,NON PPN
Kainos Super Speciality Hospital,"Kheri Sadh By Pass Delhi Road Rohtak, Harayana - 
124001Rohtak",ROHTAK,HARYANA,NON PPN
Sanjivani Hospital,"Near Railway Uder Over Bridge,,Hisar Road,,Hisar Road,",SIRSA,HARYANA,NON PPN
Bansal Hospital,"Circular Road Near Valmik Chowk, Sirsa, Haryana 
125055Sirsa",SIRSA,HARYANA,NON PPN
Vinayak Hospital,"Sohna Main Delhi - Alwar Road,,Near Nbgsm College, 
Sohna,Sohna,",Sohna,HARYANA,NON PPN
Nidaan Hospital,"Murthal Road, Sonipat-131001Sonepat",SONEPAT,HARYANA,NON PPN
Gaba Hospital,"Gaba Hospital, Bye Pass Road,,Opp. Panchayat Bhawan,Nh-
93,Yamuna NagarYAMUNA NAGAR",YAMUNA NAGAR,HARYANA,NON PPN
Rk Gupta Hospital,"Gobindpuri Road,,Near Modhu Hotel,Gobindpuri RoadNIL",YAMUNA NAGAR,HARYANA,NON PPN
Apna Hospital,"NH-21, GHAGUS,BILASPUR-174001NIL",BILASPUR,HIMACHAL PRADESH,NON PPN
Vyas Hospital,"Near Kothi Chowk, Village Talwar, P.O. Chandpur, Near Ali 
Khad Bridge,",BILASPUR,HIMACHAL PRADESH,NON PPN
Nav Jeevan Hospital,"Kangra Road,Jwalamukhi.nil",KANGRA,HIMACHAL PRADESH,NON PPN
Aastha Multispeciality Hospital Mandi,"Village Chakkar Po Gutkar Teh Balh,,Himachal 
Pradesh,,Near Milk Plant,",MANDI,HIMACHAL PRADESH,NON PPN
KS Hospital,"245/5, Place Colony, Hospital Road, Teh. sadar,Opp. Zonal 
Hospital Road,",MANDI,HIMACHAL PRADESH,NON PPN
Banga Associated Hospital,"VPO Gutkar,Teh. Sadar,nil",MANDI,HIMACHAL PRADESH,NON PPN
Malhotra Superspeciality Hospital,"Site No. 8,,Himuda, Bhatoli Kalan,,Baddi",Solan,HIMACHAL PRADESH,NON PPN
Lord Mahavira Hospital,"Near Hotel Drive Inn, Dattawal, Dist. SolanNalagarh",SOLAN,HIMACHAL PRADESH,NON PPN
Gagan Hospital,"158, Industrial Area,Old Sabzi Mandi,Baddi,nil",SOLAN,HIMACHAL PRADESH,NON PPN
"Acharya Shri Chander College Of Medical 
Sciences And Hospital(Ascoms)","N.H - 1.Bypass Road,,At The Bank Of Tawi River,SidhraNIL",JAMMU,JAMMU KASHMIR,NON PPN
Jk Medicity Hospital Pvt Ltd,"By Pass Road,Nh-1,Narwal,JammuNIL",JAMMU,JAMMU KASHMIR,NON PPN
"Maharishi Dayanand Hospital And 
Medical Research Centre","228,Bc Road,Rehari Chungi,NIL",JAMMU,JAMMU KASHMIR,NON PPN
Bee Enn General Hospital,"Talab Tillo Road,nil",JAMMU,JAMMU KASHMIR,NON PPN
ASG Hospital Pvt Ltd Srinagar,"M.A. Plaza, S.K. Colony Sector - 01, Near Ansari House,",SRINAGAR,JAMMU KASHMIR,NON PPN
Modern Hospital,"Zero Bridge,Raj Bagh,SrinagarSrinagar",SRINAGAR,JAMMU KASHMIR,NON PPN
"Shri Mata Vaisno Devi Narayana 
Superspeciality Hospital Katra","Kakrayal (Village And Post), Opposite Smudu,,Katra Tehsil 
Reasi District,,NIL",SRINAGAR,JAMMU KASHMIR,NON PPN
Neelam Hospitals Pvt Ltd,"Jodhadih More, Main Road,Chas,NIL",BOKARO,JHARKHAND,NON PPN
Shanti Health Care Hospital,"157, Co-Operative Colony,Bokaro Steel City,",Bokaro,JHARKHAND,NON PPN
Sri Sai Hospital,"Plot No. Gg-8, Sec 4, City Centre,,Near Devi Cinema, Near 
Bokaro Mall,,Bakaro Steel CityNIL",BOKARO,JHARKHAND,NON PPN
"KM Memorial Hospital & Research Centre Bye Pass Road, Chas, BS CityBokaro",,BOKARO,JHARKHAND,NON PPN
Shivam Hospital,"Laxmi Market, Sector 4, Bokaro Steel City, Jharkhand 
827004Bokaro",BOKARO,JHARKHAND,NON PPN
City Hospital(Dugda),"T-More, Dugda, Dist-Bokaro,nil",BOKARO,JHARKHAND,NON PPN
"Shiv Shakti Hospital And Research Centre ITI More, Puruliya Road, Chas,nil",,BOKARO,JHARKHAND,NON PPN
Asarfi Hospital Pvt Ltd,"At - Baramuri,,,P O Bishunpur Polytechnic,NIL",DHANBAD,JHARKHAND,NON PPN
"Asian Dwarkadas Jalan Super Specialty 
Hospital","Near City Centre, Bartand, Dhanbad, Jharkhand 
826001Dhanbad",DHANBAD,JHARKHAND,NON PPN
Jimsar Hospital,"Anant Puram,CMPF Colony, Near Police Line,Hirapur,nil",DHANBAD,JHARKHAND,NON PPN
Asg Hospital Pvt Ltd (Jamshedpur),"No.159 Dhalbhum Road,Snp Area,Sakchi",Jamshedpur,JHARKHAND,NON PPN
Kantilal Gandhi Memorial Hospital,"Outer Circle Road, South Park,,Near Adityapur Bridge, 
Bistupur,,JamshedpurNIL",JAMSHEDPUR,JHARKHAND,NON PPN
"Bhagwan Mahavir Medica Superspecialty 
Hospital","Bariatu Road, In front of P.H.E.D Colony, Near Booty More, 
Ranchi, Jharkhand 834009Ranchi",RANCHI,JHARKHAND,NON PPN
Hill View Hospital And Research Centre,"Hill View Road,Bariatu,NIL",RANCHI,JHARKHAND,NON PPN
"Kanke General Hospital And Research 
Centre Pvt Ltd","Kanke Block Chowk, Po+Ps-Kanke,,At - Block Chowk,Kanke 
RVC,",RANCHI,JHARKHAND,NON PPN
"Medanta Abdur Razzaque Ansari 
Memorial Weavers Hospital",Irba Rachi,RANCHI,JHARKHAND,NON PPN
"Summer Hospital And Research Centre 
Pvt Ltd","Kalyanpur, Karma Chowk,,Singh More, Hatia,Singhmore",RANCHI,JHARKHAND,NON PPN
Santevita Hospital,1 HB Road Near Firayalal Chowk RanchiRanchi,RANCHI,JHARKHAND,NON PPN
Maa Ram Pyari Superspeciality Hospital,"Harihar Singh Road, Opp.Bariatu Petrol Pump, 
Morabadi,Ranchiranchi",RANCHI,JHARKHAND,NON PPN
Life Care Hospital,"Shivaji Chowk, Booti More,nil",RANCHI,JHARKHAND,NON PPN
Gulmohar Hospital,"Dumardagga, NH-33, Booty Road,Opp. Pitambara Palace",RANCHI,JHARKHAND,NON PPN
Samford Hospital Pvt Ltd,"Kokar Chowki,nil",RANCHI,JHARKHAND,NON PPN
"Shree Jagannath Hospital And Research 
Centre","Booty Road, Behind Machhli Ghar, Through Radium 
Road,Infront of Raj Bhawan,",RANCHI,JHARKHAND,NON PPN
Daddenavar Hospital,"Near Rural Police Station,,Bagalkot",Bagalkot,KARNATAKA,NON PPN
Dhanush Hospital,"Mahaveer Road,,,Near Durga Vihar,",Bagalkot,KARNATAKA,NON PPN
MS Ramaiah Hospital,"MSRIT Post, New BEL Road, New BEL Rd, M S Ramaiah 
Nagar, Mathikere, Bengaluru, Karnataka 560054Bangalore",BANGALORE,KARNATAKA,PPN
Panacea Hospital Ltd Bangalore,"#334,Dr Siddaiah Puranik Road,3rd Stage,4th Block, 
BasaveshwarnagarNIL",BANGALORE,KARNATAKA,PPN
Shekhar Hospital,"942 / 45, 28th Main,9th Block,JayanagarNIL",BANGALORE,KARNATAKA,PPN
Hosmat Hospital,"45, Magarath Road,,Off. Richmond Road,Next To Iti 
Corporate Offices,BangaloreNIL",BANGALORE,KARNATAKA,PPN
Mallya Hospital,"2,Vittal Mallya Road,,BangaloreNIL",BANGALORE,KARNATAKA,PPN
Apollo Hospital BG Road,"154/11, opp. IIM, Bannerghatta Road, Bangalore- 
560076Bannerghatta",BANGALORE,KARNATAKA,PPN
Bangalore Baptist Hospital,"Bellary Road,Hebbal,Bangalore",Bangalore,KARNATAKA,NON PPN
NU Hospitals,"C.A, 06, 15th Main,11th Cross, Padmanabhnagar,Near 
Carmelt School.,BangaloreBangalore",BANGALORE,KARNATAKA,PPN
The Bangalore Hospital,"202, RASHTRIYA VIDYALAYA 
ROAD,BASAVANAGUDI,BANGLORENear Southend Circle",BANGALORE,KARNATAKA,PPN
Neha Prakash Hospital,"8, 6th Main Road,,5th Phase,,Yelahanka New 
TownBangalore",BANGALORE,KARNATAKA,PPN
Sapthagiri Hospital,"15, Chikkasandra,Hesaraghatta Main 
Road,,HesaraghattaNIL",BANGALORE,KARNATAKA,PPN
Sagar Hospital(Bangalore),"#44/54, 30th Cross,Jayanagar Extension,TilaknagarNIL",BANGALORE,KARNATAKA,PPN
Padmashree Hospital,"11080/30,10th Main,4th Cross, R.P.C Layout, Vijayanagar",BANGALORE,KARNATAKA,PPN
Bhagwan Mahaveer Jain Hospital,"No.17, Millers Road, Vasanthnagar,",BANGALORE,KARNATAKA,PPN
Aster Cmi Hospital,"No-43/2, Nh-7 Bellary Road,Sahakara Nagar,,Hebbal",BANGALORE,KARNATAKA,PPN
Arunodaya Hospital,"18-23, Mallasandra Main Road, 4th & 5th Cross, 
Bagalagunte, Hesaraghatta Road, Bangalore-
560057Bangalore",BANGALORE,KARNATAKA,PPN
Axon Speciality Hospital,"321, 6th Main Road, HAL 2nd Stage, Indira Nagar, 
Bengaluru, Karnataka 560038Bangalore",BANGALORE,KARNATAKA,PPN
Bharathy Hospital,"#4, Nagarbhavi Main Road, Prashanth NagarPrashanth 
Nagar",BANGALORE,KARNATAKA,PPN
Kusuma Hospital,"No. 237/37, 10th Main Nagendra Block, Srinagar, 
BengaluruSrinagar",BANGALORE,KARNATAKA,PPN
Chaitanya Hospital,"No:80 & 117, P&T Colony, R.T. NagarBangalore",BANGALORE,KARNATAKA,PPN
Unity Lifeline Hospital (India) Pvt. Ltd,"Ekadantha, No 193, 80 Feet road, 2nd Block, 2nd Stage, 
NagaeabhaviBangalore",BANGALORE,KARNATAKA,PPN
Jayashree Multi Speciality Hospital,"#25, 26 & 27, 1st Cross,'B' Block, Vishwapriya Nagar, 
Begur, Bangalore-560 068Bangalore",BANGALORE,KARNATAKA,PPN
Lakshmi Hospital,"No.402, 2nd Cross, Judges Colony, R T Nagar, Opp 108 B 
Bus Stop, Bangalore - 560032bangalore",BANGALORE,KARNATAKA,PPN
NRR Hospital,"""No.3&3A, Hesarghatta Main Road, Chikkasandra, Next to 
Janapriya Apartments, Near Chikkabanavara Railway 
Station, Bangalore-560 090""bangalore",BANGALORE,KARNATAKA,PPN
Sundar Hospital,"#1&2, Hennur Main Road, Lingarajpuram, Bangalore-
560084bangalore",BANGALORE,KARNATAKA,PPN
Eskay Hospital,"No.274, 3rd Cross, Brindavan Layout, Behind Prince Town 
Apartments, Shettihalli, Jalahalli West, Bangalore, 
Karnataka 560015Bangalore",BANGALORE,KARNATAKA,PPN
"Sakra World Hospital(A Unit Of 
Takshasila Hospital Operating Pvt Ltd)","Sy, 52/2 & 52/3, Devarabeesanahalli, Varthur Hobli,,Opp. 
Intel, Outer Ring Road,,MahathahalliBangalore",BANGALORE,KARNATAKA,PPN
Poornima Hospital,"No: 200/A, HMT Layout, 9th Cross, RT Nagar Post, 
BangaloreBangalore",BANGALORE,KARNATAKA,PPN
Maruthi Hospital,"# 2374/26, Vijayanagar Club Road, BangaloreBangalore",BANGALORE,KARNATAKA,PPN
Om shakthi Hospital,"# 1&2, Balaji Homes, Anand Nagar, 1st Main, Kempegowda 
International, Airport Road, Bagalur Cross, Yelahanka, 
BangaloreBangalore",BANGALORE,KARNATAKA,NON PPN
Ashok Hospital,"#65, Nhcs Layout, 3rd Stage, 4th Block, Basaveshwar 
Nagar, Kamalanagar Main Road Bangalore , Karnataka 
Bangalore",BANGALORE,KARNATAKA,NON PPN
Garden City Hospital,"132/18, 22nd Cross, 3rd Block, Jayanagar, Bengaluru, 
Karnataka 560011Bangalore",Bangalore,KARNATAKA,NON PPN
"Sakaria Hospital (A unit of Sakaria 
Healthcare and Lifestyle Service)","797, 10th Main, 1st Stage, 3rd Block HBR Layout Kalyan 
Nagar Post, Bangalore",BANGALORE,KARNATAKA,NON PPN
Ayurvaid Hospital Ramamurthy Nagar,"#16, 3rd Main, TC Palya Road, Hoysala Nagar, Ramamurthy 
Nagar, BangaloreBangalore",BANGALORE,KARNATAKA,NON PPN
People Tree Hospitals @ Chris,"No - 1, Hennur Junction, Grace Town, Kalyan Nagar, 
BangaloreBangalore",BANGALORE,KARNATAKA,PPN
"Motherhood Hospital (A Unit Of Rhea 
Health Care Pvt Ltd)motherhood","324,1st stage CMH road,indra nagarBangalore",BANGALORE,KARNATAKA,PPN
Bgs Global Hospital,"#67, Uttarahalli Road, Kengeri, BangaloreBangalore",BANGALORE,KARNATAKA,PPN
Ravi Kirloskar Memorial Hospital,"No - 19, 2nd main 1st Phase, Peenya Industrial Area, 
BangaloreBangalore",BANGALORE,KARNATAKA,NON PPN
The Pulse Multi Specialty Hospital,"# 5/ 8/ 1, 50 Ft.Road, 20th Main, Girinagar, Muneshwara 
Block - 560085Bangalore",BANGALORE,KARNATAKA,NON PPN
Yogananda Multispeciality Hospital,"No-371, MK Puttacingaiah Road Padmanabhanagar, 
BangaloreBangalore",BANGALORE,KARNATAKA,NON PPN
Chiranjeevi Hospital & Maternity Home,"# 16 Mysore Bank Colony, 2nd Main, BSK 1st Stage, 
BangaloreBangalore",BANGALORE,KARNATAKA,NON PPN
"Medihope Super Specialty Hospitals And 
Research Centre Pvt Ltd","No : 114/1, Malleshpalya Main Road,New Thippasandra 
Post, BangaloreBangalore",BANGALORE,KARNATAKA,NON PPN
Manasa Trinity Heart Hospital,"Opp to Anjaneya Temple, BB Road, Yelahanka Old Town",BANGALORE,KARNATAKA,PPN
Promed Hospital,"No. 3781,13th Cross Road Stage 2, Banashankari, 
Bengaluru Karnataka-560070 , BangaloreBangalore",BANGALORE,KARNATAKA,NON PPN
Excel Care Hospital,"3/2, 27th Cross Road, Banashankari Stage II, Bangalore, 
Karnataka 560070Bangalore",BANGALORE,KARNATAKA,PPN
Columbia Asia Hospital(Banglore),"26/4, Brigade Gateway, Beside Metro Cash and Carry West, 
Malleshwaram, Bengaluru, Karnataka 560055Bangalore",BANGALORE,KARNATAKA,PPN
St JohnS Medical College Hospital,"Sarjapur Road, John Nagar, Bangalore",BANGALORE,KARNATAKA,NON PPN
Aaxis Super Speciality Hospital,"# 301,,3rd Main Road, Old Extention,,K.R.Puram",Bangalore,KARNATAKA,NON PPN
Abhaya Hospital.,"17, Dr. M.H. Mari Gowda Road,,Hosur RoadNIL",BANGALORE,KARNATAKA,PPN
Adarsh Multi Specialty Hospital,"The Luminos Tower, #1943, Ist A Main, 6th Cross 
Kengeri,,Satellite Town,,Nr.Andhra Bank",Bangalore,KARNATAKA,NON PPN
"Agadi Hospital And Research 
Centre(Bangalore)","35 - H , Siddaiah Road,,Wilson Garden,,BangaloreNIL",BANGALORE,KARNATAKA,NON PPN
Apollo Spectra Hospitals Koramangala,"Opus 143 1cross,5th Block,Koramangala",BANGALORE,KARNATAKA,PPN
Apple Hospital,"17/B, 18-20, C Sector, Opp. To Rail Wheel 
Factory,,Yelahanka-Dodaballapura Main Road,,Yelahannka 
New Town",Bangalore,KARNATAKA,PPN
Ashwini Hospital (Bangalore),"No. 1022, Opp To B.D.K Kalyana 
Mantap,,B.B.Road,,Yelahanka",Bangalore,KARNATAKA,NON PPN
"Aveksha Hospital(A Unit Of Aarogya 
Health Care Services)","122, Varadarajaswamy Layout,Singapura,Ms PalyaNIL",BANGALORE,KARNATAKA,PPN
Beams Hospitals Pvt Ltd,"640,12th Main,80 Ft Road,,4th Block,,Koramangala,",Bangalore,KARNATAKA,NON PPN
Bilva Hospital,"No21,22, Near Vinayak Circle,,2nd Main Road,Palace 
Guttahalli",Bangalore,KARNATAKA,NON PPN
Bmj Hospital,"Girinagar, Banashankari 3rd Stage, Alavahalli Extension, Site 
No. 1 And 2, 6th Cross 3rd Main",BANGALORE,KARNATAKA,PPN
Brindhavan Arieon Hospital,"17, 4th Main Road, Chamrajpat",BANGALORE,KARNATAKA,PPN
Chaya Hospital,"6c-335,4th C Main Rd,6 Th Cross<Ombr Layout,Bhuvangiri",Bangalore,KARNATAKA,PPN
Chaya Super Speciality Hospital,"Channasandra Main Rd,6, 5th B,NIL",BANGALORE,KARNATAKA,PPN
Chord Road Hospital Pvt.Ltd,"No.100, Lic Colony West Of Chord 
Road,Basaweshwarnagar,Near Shankar 
Mutt,BangaloreBangalore",BANGALORE,KARNATAKA,PPN
Church Of South India Hospital,"2 Hazarat Kambal Posh Road,,Bangalore",Bangalore,KARNATAKA,NON PPN
Columbia Aisa Hospital Pvt.Ltd,"Sy.No 10 D,12 P,Rama Gondanahalli,Main 
Road,Varthur,White FieldNIL",BANGALORE,KARNATAKA,PPN
Columbia Asia Hospital Pvt Ltd,"Kirloskar Business Park,,Nellar Road, Opp. Military Dairy, 
Hebbal",BANGALORE,KARNATAKA,PPN
Columbia Asia Hospitals Pvt Ltd,"Survey No.46/2,,Ward No 150 Ambalipura,,Sarjapur Road 
,NIL",BANGALORE,KARNATAKA,PPN
Columbia Hospital,"Servey No 22/1b,55/2,Bashettihalli 
Village,,Doddaballapur,NIL",BANGALORE,KARNATAKA,NON PPN
Cytecare Hospital Pvt Ltd,"Venkatal, Near Bagaluru Cross,,Yelahanka,,NIL",BANGALORE,KARNATAKA,PPN
DG Hospital,"#274/ 275, M.R.Puttalingaiah Road,Padmanabha 
Nagar,Devegowda Petrol Bank,BangaloreNIL",BANGALORE,KARNATAKA,PPN
Deeksha Hospital,"#387/347,,Next To Post Office, 
B.B.Road,Nehrunagar,Yelahanka Old Town,,Bangalore",Bangalore,KARNATAKA,NON PPN
Deepa Hospital,"No.27,Old Madras Road,,K R Puram,NIL",BANGALORE,KARNATAKA,PPN
Deepashri Hospital,"#86,2nd Main, 16th Cross,,Malagala ,Nagarabhavi 2nd 
Stage,,Nagarabhavi 2nd Stage,",Bangalore,KARNATAKA,NON PPN
Devagiri Hospital,"#2461,24th Cross,,2nd Stage,,Banashankari",Bangalore,KARNATAKA,NON PPN
Divine Speciality Hospital,"No. 110, 6th Main,,I T I Layout, Benson Town 
Post,,BangaloreNIL",BANGALORE,KARNATAKA,PPN
Dr. Agarwal Hospital,"# 15, Eagle Street,,Lang, 70 Road Town,Bangalore",Bangalore,KARNATAKA,NON PPN
Dr. Rudrappa'S Hospital,"#5 Rajaram Mohan Roy Cross Road,,Before Woodlands 
Hotel,,Opp. P. F. Office,",Bangalore,KARNATAKA,NON PPN
