Hospital Name,Address,CITY,STATE,PPN / NON PPN
Prashanth Multispeciality Hospital,"No-77, Harrington Road, Chetpet",CHENNAI,TAMILNADU,PPN
Apollo Spectra Hospital Alwarpet,"12, CP Ramaswamy Iyer Rd, Natesan Colony, Alwarpet, 
Chennai, Tamil Nadu 600018Alwarpet",CHENNAI,TAMILNADU,NON PPN
Sivam Hospital,"Plot No:3,Srinivasan Street, Jagadambal Colony, Ullagaram,",CHENNAI,TAMILNADU,PPN
FOR Ortho And Neuro Speciality Hospital,"No. 39-40-41, Dhanrajapuram Extension, 200 Feet Road 
Ambedkar Nagar Bus Stop, Kolathur,",CHENNAI,TAMILNADU,PPN
Dr Rex S Hospital,"37, Millers Road, Kilpauk,nil",CHENNAI,TAMILNADU,NON PPN
Orthomed Multispeciality Hospital,"#83 (Old No.43) Royapettah High Road, Royapettah,nil",CHENNAI,TAMILNADU,PPN
Ravina Hospital,"No. 99, Poonamallee High Road, Maduravoyal,nil",CHENNAI,TAMILNADU,PPN
Mint Multispeciality Hospital,"No. 19/1, 1st Avenue, Shastri Nagar, Adyar,nil",CHENNAI,TAMILNADU,PPN
Murugan Hospitals,"No. 264, 125, Kilpauk Garden Road, Kilpauk,nil",CHENNAI,TAMILNADU,PPN
Saraswathy Multispecialty Hospital,"92/A,Bazaar Road, Sadasivam nagar,near ramnagar bus 
stop ,Madipakkam,nil",CHENNAI,TAMILNADU,PPN
Avinash Hospitals Pvt Ltd,"No. 165, thiruvin Nagar, 200ft radial road, 
kovilambakkam,nil",CHENNAI,TAMILNADU,PPN
Bewell Hospitals,"A1 / 1, CTH road, Balaji Nagar, Thirumulaivoyil, Ambattur,nil",CHENNAI,TAMILNADU,PPN
Gem Hospital And Research Centre,"227/2C2, MGR Salai,Perungudi,Saidapet,",CHENNAI,TAMILNADU,NON PPN
Be Well Hospitals(Poonamallee),"#186, Trunk Road, Poonamalleenil",CHENNAI,TAMILNADU,NON PPN
Maaya Speciality Hospital,"No.12, PRH Road, New Lakshmi Puram, Kolathur,nil",CHENNAI,TAMILNADU,PPN
VM Hospitals,"121/1, Redhills Road, Vijayalakshmi Puram, Opp. Oragadam 
Juction,",CHENNAI,TAMILNADU,NON PPN
Hycare Superspeciality Hospital,"37, Razack Garden Road, MMDA Colony,Arumbakkam,",CHENNAI,TAMILNADU,NON PPN
Rainbow Children Hospital,"157, Anna Salai, Near Little Mount Metro Station, 
Guindy,Near Little Mount Metro Station,",CHENNAI,TAMILNADU,PPN
RPS Hospital,"65/2, Water Canal Rd, TVS Nagar, Korattur",CHENNAI,TAMILNADU,PPN
MMRV Hospital,"No.5/Pc-2, Bharathi Salai, Mogappair West,nil",CHENNAI,TAMILNADU,PPN
Muthu Hospital,"105 Pulianthope High Road,Pulianthope,nil",CHENNAI,TAMILNADU,PPN
Bharath Hospital,"#72, I Main Road Naganallur,nil",CHENNAI,TAMILNADU,PPN
Km Hospitals,"64, Medavakkam Tank Road, Kilpauk,",CHENNAI,TAMILNADU,NON PPN
Dr Arvind Vision Care Hospital,"2/862, 1st Block, Mogappair West, Ambattur Industrail 
Estate, nil",CHENNAI,TAMILNADU,PPN
Neolife Childrens Hospital,"PLOT NO 11-15 & 117-19,AGS COLONY BHARATHIDASAN 
STREET RAM NAGAR NORTH EXTENSION , 
MADIPAKKAM,nil",CHENNAI,TAMILNADU,PPN
Neolife Hospital Pvt Ltd,"NO 14/1 2ND CROSS STREET KANNAN NAGAR 
MADIPAKKAM KOOT ROAD MADIPAKKAM,nil",CHENNAI,TAMILNADU,PPN
Ezhil Hospital,"583, Th Road, Tondiarpet, nil",CHENNAI,TAMILNADU,PPN
Mount Multispeciality Hospital,"63, Main Road, Kesari Nagar, Adambakkam,nil",CHENNAI,TAMILNADU,PPN
Mahalakshmi Multispeciality Hospital,"Old No. 2/576, New No. 1/164, Mount Poonamallee High 
Road, Iyyappanthangal,nil",CHENNAI,TAMILNADU,NON PPN
Tagore Medical College And Hospital,"Rathinamangalam, Melakkottaiyr, nil",CHENNAI,TAMILNADU,PPN
Dr Mehta Multispeciality Hospital,"No.50, Poonamallee High Road, Vellappanchavandi,",CHENNAI,TAMILNADU,PPN
C Dot Hospital,"2/1029, Perumbakkam Main Road, nil",CHENNAI,TAMILNADU,PPN
Lakshmi Maternity Hospital,"20, 3rd Avenue, Indira Nagar, Adyar,",CHENNAI,TAMILNADU,PPN
"Srinivasan Rajalakshmi Memorial Hospital 11/77, 6th Street, Voltas Colony, Nanganallur,",,CHENNAI,TAMILNADU,PPN
Vishnu ENT Hospital,"109, A.K.Nagar, NSR Road, Sai Baba Colony, 
CoimbatoreCoimbatore",COIMBATORE,TAMILNADU,PPN
VG Hospital,"76/A, MTP Road, Coimbatore, Tamil Nadu 
641034Coimbatore",COIMBATORE,TAMILNADU,PPN
Rexortho Hospital,"43 R.R. LAYOURT, BEHIN SHANMUGA THEATRE, 
POOMARKET, METTUPALAYAM ROAD, 
COIMBATORECoimbatore",COIMBATORE,TAMILNADU,PPN
Ashwin Hospital (Coimbatore),"1, Alamu Nagar Road,,,Coimbatore",Coimbatore,TAMILNADU,PPN
Brj Ortho Centre And Mak Hospital,"2-1 Raju Nagar Fertilizer Company Stop,,Mettupalayam 
Road,,Coimbatore",Coimbatore,TAMILNADU,PPN
Deepam Hospital ( Ramanathapuram ),"No.687 Trichy Road,Opp. To Alvernia Convert 
Ramanathapuram Covai,",Coimbatore,TAMILNADU,PPN
"Gem Hospital And Research Centre(P)Ltd No 45-A, Pankaja Mill Road, Ra,Manathapuram,","Coimbatore,NIL",COIMBATORE,TAMILNADU,PPN
Global Ortho And Trauma Hospital,"59,Kalingarayan Street,,Behind City Tower Hotel, Ram 
Nager,,Coimbatore",Coimbatore,TAMILNADU,PPN
Kongunad Hospitals Pvt Ltd,"116-117,11 Th Street, Tatabad.,Coimbatore,opp. power 
house",COIMBATORE,TAMILNADU,PPN
Kovai Medical Center And Hospital Ltd,"Post Box.No.3209,Avanashi Road,CoimbatoreNIL",COIMBATORE,TAMILNADU,NON PPN
Kps Hospitals Pvt Ltd,"No; 208, Annur Main Road,Mettupalayam,,MettupalayamNIL",COIMBATORE,TAMILNADU,PPN
PSG Hospitals,"Avinashi Road,Peelamedu,,Near Fun Mall,,NIL",COIMBATORE,TAMILNADU,NON PPN
Ranga Hospital Coimbatore,"1638, Thadagam Main Road,,Near Avila Convent 
School,,VelandipalayamNIL",COIMBATORE,TAMILNADU,NON PPN
Rasi Hospital,"558, D.B.Road,,R.S.Puram,,R.S.Puram,",Coimbatore,TAMILNADU,PPN
Richmond Hospital,"1287,Trichy Road, Opp.Icici Bank",COIMBATORE,TAMILNADU,PPN
Saraswathi Hospital,"152 - A, Trichy Road,,,ChithamanipudurNIL",COIMBATORE,TAMILNADU,PPN
Sheela Hospital,"117, East Power House Road, Tatabad,Gandhipuram,",COIMBATORE,TAMILNADU,NON PPN
Spt Hospital Pvt Ltd,"No; 50, Vivekananda Road,Ramnagar,Coimbatore,Near 
Ayyappa pooja sangam",COIMBATORE,TAMILNADU,PPN
Sri Balaji Hospital Coimbatore,"314, Pollachi Mail Road,,Sundarapuram (Po),Coimbatore",Coimbatore,TAMILNADU,PPN
Sri Lakshmi Medical Centre And Hospital,"18/121,,Metupalayam Road,,Behind Indian Bank",Coimbatore,TAMILNADU,PPN
Sri Ramakrishna Hospital (Coimbatore),"395, Sarojini Naidu Road,Sidhapudur,,SidhapudurNIL",COIMBATORE,TAMILNADU,PPN
Vega Ent Hospital,"50 Guru Govind Singh Road,Off Cowely Brown,,",Coimbatore,TAMILNADU,PPN
Dr Muthus Hospital,"331/1, Opp. Jai Shanthi Theatre, Ondipudhur, Coimbatore, 
Tamil Nadu 641016Coimbatore",COIMBATORE,TAMILNADU,NON PPN
Royal Care Superspeciality Hospital,"SF NO. 554 & 555 NEELAMBUR VILLAGE, SULUR 
TALUK,Coimbatore",COIMBATORE,TAMILNADU,PPN
KG Hospital,"No.5, Govt Arts College Road,Near KG Cinema",COIMBATORE,TAMILNADU,PPN
Dr Ezhil Ent Hospital,"NO:14, TRICHY ROAD, SINGANALLURnil",COIMBATORE,TAMILNADU,PPN
RS Hospital,"224/6 , EAST SAMBANDAM ROAD, R.S. PURAM,nil",COIMBATORE,TAMILNADU,PPN
DJ Hospital,"604, K-1, Ooty Main Road, Jothipuram,Opp. To Srilakshmi 
Fruit Seall",COIMBATORE,TAMILNADU,NON PPN
Kannan Hospital,"17, Bashyam Street, Manjakuppam, NIL",CUDDALORE,TAMILNADU,NON PPN
C. K. Hospital,"27, Balasubbarayalu Street,,,Erode",Erode,TAMILNADU,PPN
Dr Nsk Hospital,"# 5, Muthu Karuppanna Street,,Gandhi Nagar,,",Erode,TAMILNADU,PPN
Senthil Multi Speciality Hospital,"547 Perundurai Road,,",Erode,TAMILNADU,PPN
Bewell Hospitals(Erode),"NO 5 & 7 , GANDHIJI ROAD,nil",ERODE,TAMILNADU,NON PPN
Santhi Hospital,"2/343, Behind SBI, Lal Stop Sipcot, Hosurhousur",HOSUR,TAMILNADU,NON PPN
Arogya Seva Hospitals Pvt.Ltd,"No. 35, Shanti Nagar,Opp. Csi Church,Krishnagiri",Hosur,TAMILNADU,NON PPN
RMD Specialities Hospital,"162, Kundrathur-Sriperambudur Road, Pavvathi Nagar, 
Amarambedu,Sriperambudur",KANCHIPURAM,TAMILNADU,NON PPN
Vijayakumar Hospital,"Swamiyarmadam,,KattathuraiKattatthurai",KANYAKUMARI,TAMILNADU,NON PPN
Apollo Reach Hospital,"Madurai Main Road,Managiri,KaraikudiNear CPS School",KARAIKUDI,TAMILNADU,NON PPN
Dr GC Hospital,"No-31, North Pradakshanam Road KarurKarur",KARUR,TAMILNADU,NON PPN
Apollo Loga Hospital Karur,"163 A- E, Allwyn Nagar, 30, LGB Nagar, Vaiyapuri Nagar, 
Ramanujam Nagar,",KARUR,TAMILNADU,NON PPN
Vadamalayan Hospital Pvt Ltd,"15, Jawahar Road, Chokkikulam,",MADURAI,TAMILNADU,NON PPN
Apollo Speciality Hospitals Madurai,"20 Lake View Road,K K Nagar,Madurai",MADURAI,TAMILNADU,NON PPN
Shenbagam Hospitals (P) Ltd,"15-16,NORTH CROSS 3RD STREET, ANNA NAGARNIL",MADURAI,TAMILNADU,NON PPN
Apollo First Med Hospital,"No-484,,B West First Street,,K K Nagar",MADURAI,TAMILNADU,NON PPN
Bgm Hospital,"249, New Natham Road,,Ayyer Bungalow Bus Stop,,NIL",MADURAI,TAMILNADU,NON PPN
Devadoss Multispeciality Hospital,"75/1, Alagarkovil Main Road,,,Surveyor Colony,NIL",MADURAI,TAMILNADU,NON PPN
Hannah Joseph Hospital Pvt Ltd,"No. 134,,Lake View Road, Near Nagappa 
Motors,,K.K.NagarNIL",MADURAI,TAMILNADU,NON PPN
Jayam Hospital,"No. 3, Abdul Gafarkhan Street,,Chinna Chokkikulam,",Madurai,TAMILNADU,NON PPN
"Meenakshi Mission Hospital And 
Research Centre","Lake Area , Melur Road, Madurai",MADURAI,TAMILNADU,NON PPN
R.R. Hospital (Madurai),"345 Mig, 80 Feet Road,,Anna Nagar,,Sugun Store Stop",Madurai,TAMILNADU,NON PPN
Skg Hospital (Madurai),"No - 19/01, Chinnamani Street,,Pudhu Nagar, 
Thirumangalam,NIL",MADURAI,TAMILNADU,NON PPN
Ashwini Hospital,"4/17-2, Iyer Bungalow Road,Moondrumavadi,K.pudur",MADURAI,TAMILNADU,NON PPN
Rajan Hospital,"155-C, East Veli Street,Near Syndicate Bank",MADURAI,TAMILNADU,NON PPN
Priya Hospital,"555, Madurai Road, Thirumangalam,Opp. To Bus Stand",MADURAI,TAMILNADU,NON PPN
PPK Hospital,"Main Road,Opp. to C.S.I. Chruch, marthandamKanyakumari 
Dist.",MARTHANDAM,TAMILNADU,NON PPN
Holy Cross Hospital,"Christu Nagar,Vettoornimadam,Near Vadasery Bus 
StandKanyakumari Dist.",NAGERCOIL,TAMILNADU,NON PPN
Nirmala Hospital,"Chinthan Vilai road, Karungal,District 
KanyakumariKanyakumari",NAGERCOIL,TAMILNADU,NON PPN
Be Well Hospitals(Nagercoil),"Old #-23/1-7, New #-46/1 & 46/1A K.P.Road, jawahar 
street/Ramavarmapuram,nil",NAGERCOIL,TAMILNADU,PPN
Bethesda Hospital,"34H & 35, Distillery Road, Dist.Kanyakumari,Opp to SBI",NAGERCOIL,TAMILNADU,NON PPN
Saravana Hospital (Namakkal),"No-89, Trichy Road, Ganeshpuram, Near State Bank Of 
India",NAMAKKAL,TAMILNADU,PPN
Deepthi Hospital,"31-A,Mohanur Road,Near Telephone Exchange",NAMAKKAL,TAMILNADU,NON PPN
Sri Karunyaa Hospital,"Sulthanpet, Velur,nil",NAMAKKAL,TAMILNADU,NON PPN
SM Hospital(BS Surgicare),"29/108, Coonoor Rd, Bombay Castel,Udhagamandalam,",OOTY,TAMILNADU,PPN
Alva Hospital Pvt Ltd,"74/A-2, Meenkarai Road,,Ambarampalayam,PollachiNIL",POLLACHI,TAMILNADU,PPN
Arathana Hospital,"120-C, Coimbatore Road, Opp. To N.M. Petrol Bunk, 
Coimbatore To Pollachi Main",POLLACHI,TAMILNADU,PPN
Arun Hospital Pollachi,"#49/88, New Scheme Road, Mahalingapuram",POLLACHI,TAMILNADU,PPN
Bewell Hospitals(Pudukottai),"#5371/5, Alangudi Road, (Near Reliance Petrol Bunk), 
Pudukkotai,nil",PUDUKKOTTAI,TAMILNADU,NON PPN
Kamala Hospital,"256,SREE KRISHNA COMPLEX,2ND AGRAHARAM,SALEM-
636001AGRAHARAM",SALEM,TAMILNADU,PPN
Sri Sanjeevi Hospital,"Durgam Road, KallakurichiKallakurichi",SALEM,TAMILNADU,NON PPN
Aishwaryam Speciality Hospital,"114/1, Banglore By-Pass Road, Near Avr Rounfdtana",SALEM,TAMILNADU,PPN
Dharan Hospital,"No.14, Seelanaickanpatty Bye Pass, No-14, 
,Seelanaickanpatty By-Pass,No.14, Seelanaickanpatty Bye 
Pass,,Nr Sk CardsNIL",SALEM,TAMILNADU,PPN
Sks Hospital India Pvt Ltd,"Alagapuram,,SalemNIL",SALEM,TAMILNADU,PPN
"S Palaniandi Mudaliar Memorial Hospital 
SPMM Hospital","#29, Cuddalore Main Road Ammapet",SALEM,TAMILNADU,PPN
Sri Gokulam Hospital,"No-262,Awai Shanmugam Salai,Gopalapuram, Chennai.,NIL",SALEM,TAMILNADU,NON PPN
Sri Gokulam Hospital Pvt Ltd,"3/60, Meyyanur Road,,Salem",SALEM,TAMILNADU,NON PPN
"Thiru Neuro Multispeciality Hospital 
Pvt.Ltd","#46,,2nd, Agraharam,Salem,",Salem,TAMILNADU,PPN
NITHISH GE & Multi Speciality Hospital,"163-167, Arisipalayam Main Rd, Parvathipuram, Four Roads, 
Arisipalayam, Salem, Tamil Nadu 636009Salem",SALEM,TAMILNADU,NON PPN
A C Hospital,"104, 2nd Agraharam,Pattai Kovilnil",SALEM,TAMILNADU,NON PPN
Sundaram Multispeciality Hospital,"Sadagopan Street, Near Gandhi Statue, Attur,nil",SALEM,TAMILNADU,PPN
London Ortho Speciality Hospital,"Anna Park, Omalur Main, Roadnil",SALEM,TAMILNADU,PPN
Be Well Hospitals(Sivakasi),"#374A, Jawaharlal Nehru Road, Parasakthi Colony,nil",SIVAKASI,TAMILNADU,NON PPN
Meenakshi Hospital,"244/2, Trichy Main Road, Near,New Bus Stand, Tanjore,",THANJAVUR,TAMILNADU,NON PPN
"KG Multispecialty Hospital and Research 
centre","No-3048, 3049, 2nd street VOC Nagar ThanjavurThanjavur",THANJAVUR,TAMILNADU,NON PPN
Rohan Sekar Hospital,"No-28C- W-22, Ranger Office Road, Mani Nagaram, 
Cumbum, Tamil Nadu 625516Cumbum",THENI,TAMILNADU,NON PPN
Muthu Hospital,"43E5, Pandidurai, 2nd Street,Kulavanigarpuram,nil",TIRUNELVELI,TAMILNADU,NON PPN
Ars Hospitals,"6/53, 6th Street,Thennampalayam Extension Palladam 
Road,Dist. Coimbatore",TIRUPPUR,TAMILNADU,PPN
Deepa Hospitals,"#55, Stanes 2nd Street, Odakadu Road, Avinashi Road,nil",TIRUPPUR,TAMILNADU,PPN
Sri Kumaran Hospital,"774, P.N. Road, nil",TIRUPPUR,TAMILNADU,PPN
Sri Vasavi Hospital,"No.158, Kamatchi Amman, Koil Streetnil",TIRUVANNAMALAI,TAMILNADU,NON PPN
Maruti Hospital,"95, Pattabiraman Pillai Street, Thennur",TRICHY,TAMILNADU,NON PPN
Tiruchy Medical Center & Hospitals,"No.B-17, 11-B Cross,Thillainagar, Tiruchirappalli, Tamil 
Nadu 620018Trichy",TRICHY,TAMILNADU,NON PPN
Wellcare Hospital & Research Institute,"9th cross, Thillai Nagar Main Rd, Thillai Nagar, 
Tiruchirappalli, Tamil Nadu 620018Trichy",TRICHY,TAMILNADU,NON PPN
Star Kims Hospital,"D6,6Th Cross,West Extension,Thillai Nagar,Tiruchirappalli",TRICHY,TAMILNADU,NON PPN
Rajesh Tilak Hospital,"107j/79/53/1,2,3 P.C.Road West,Millerpuram,(Near 
Roopavathi Palace,Behind St,Marys School),NIL",TUTICORIN,TAMILNADU,NON PPN
Sri Hospitals,"57, Ettayapuram Road, Kovilpatti,Head Post 
Office,Kovilapatti",Tuticorin,TAMILNADU,NON PPN
Be Well Hospitals(Tuticorin),"#26, Tiruchendur Road , Tuticorin,nil",TUTICORIN,TAMILNADU,NON PPN
"Sri Narayani Hospital And Research 
Centre","SRIPURAM NEAR GOLDEN 
TEMPLE,THIRUMALAIKODI,VELLORENIL",VELLORE,TAMILNADU,NON PPN
Woodlands Hospital(Hyderabad),"3-4-852,Barkatpura,,HyderabadBarkatpura",HYDERABAD,TELANGANA,PPN
Medwin Hospitals,"100, Raghava Ratna Towers,,Chirag Ali Lane,,NampallyNIL",Hyderabad,TELANGANA,PPN
Aditya Hospitals,"# 4-1-16, Adjacent Endowments,,Tilak Road,,Abids,NIL",HYDERABAD,TELANGANA,PPN
"Sathya Kidney Centre And Super 
Speciality Hospitals","3-6-426,STREET NO-4HIMAYATNAGARHyderabad",HYDERABAD,TELANGANA,PPN
Pranaam Hospital Pvt Ltd,"1-58/6/40 &41, NEAR SUJANA SUPER MARKET, 
MADINAGUDA, MIYAPUR,Ist Floor, Megha Hills Complex,",HYDERABAD,TELANGANA,PPN
Aware Gleneagles Global Hospitals,"08/16/01,Sowbhagya Nage,Sagar 
Rd,Lingojiguda,SaroornagarHyderabad",HYDERABAD,TELANGANA,PPN
Anupama Hospital (Hyderabad),"16-31/494&495,6TH PHASE KPHB 
COLONY,KUKATPALLY,HYDERABAD-500072Hyderabad",HYDERABAD,TELANGANA,NON PPN
"Apollo Hospitals Enterprises Ltd 
Hyderguda","Near Old M.L.A Quarters, Hyderguda",HYDERABAD,TELANGANA,PPN
Raghava Hospital,"8-3-214/18,Srinivasa Colony (West),AmeerpetAmerpat",Hyderabad,TELANGANA,NON PPN
Care Hospital Banjara Hills,"6-3-248/2, ROAD NO-1, Banjara Hills,",HYDERABAD,TELANGANA,PPN
"Malla Reddy Narayana Multispeciality 
Hospital","1-1-216, SURARAM X ROADS, JEEDIMETIA, NIL",HYDERABAD,TELANGANA,PPN
Sai Venkateshwara Hospital,"10-1-80/1/2, Near Karmanghat ,,'X' Road,,Sagar Main 
Road,Hyderabad",Hyderabad,TELANGANA,PPN
Ankura Hospital(Kukatpally),"#15-31-0A-55&56,JINTU-HITECH CITY RAILWAY 
STATION,KPHB 7TH PHASE,NIL",HYDERABAD,TELANGANA,PPN
Dharani Hospital (Hyderabad),"13-6-460/16/1 Beside Gudimaalkapur Veg. Market, 
Mehdipatnam, Hyderabad-500028Hyderabad",HYDERABAD,TELANGANA,NON PPN
Adr Hospital,"H.No. 24-112/1,,Anand Bagh,,Malkajgirimalkajgiri",HYDERABAD,TELANGANA,PPN
Xenia Hospitals,"Plot No. 43, Ec Etension,,Ecil 'X' Road,Near More Super 
MarketHyderabad",Hyderabad,TELANGANA,PPN
LivLife Hospital Pvt Ltd,"Plot No-729, Jubilee Hills Road No. 36, 
HyderabadHyderabad",HYDERABAD,TELANGANA,PPN
Omega Hospitals,"#8-2-293/82/L/276a,,Mla Colony Road No 12, Banjara Hills",HYDERABAD,TELANGANA,PPN
Kakatiya Hospitals,"#12-52, P&T Coloney, Road No- 2, Medipally-Vill, RR Distt, 
HyderabadHyderabad",HYDERABAD,TELANGANA,PPN
Matrix Hospital,"Plot No. 4, 5,14 & 15, Pragati Nagar, Ramanthapur, Opp. 
Ramanthapur Lake, Hyderabad, Telangana 500013Pragati 
nagar",HYDERABAD,TELANGANA,PPN
Hope Children'S Hospital,"#5-9-24/81,,Laqke Hills Road,,BasheerbaghHyderabad",HYDERABAD,TELANGANA,PPN
Matrika Dr. Kalpana's Hospital,"H.No:6-3-1100/2, T. Nagar, Rajbhavan Road, 
Somjiguda,Hyderabad",HYDERABAD,TELANGANA,PPN
The Deccan Hospital,"6-3-903/A&B, Somajisuude HyderabadHyderabad",HYDERABAD,TELANGANA,PPN
Star Hospitals,"8-2-594/B, Road No:10, Banjara Hills, HyderabadBanjara 
Hills",HYDERABAD,TELANGANA,PPN
Spark Hospital,"PLot No-2&3, Beside Axis Bank, Peerzadigudi, Near 
UppalHyderabad",HYDERABAD,TELANGANA,PPN
"NEO BBC new Born And Childrens 
Hospital","SK Mall, Above BATA, Opp. Andhra Mahila Sabha, 
Vidyanagar, OU. Road, HyderabadHyderabad",HYDERABAD,TELANGANA,PPN
Omni Hospital,"11-9-46, Opp. Private Market, X Roads, Dilkhushnagar, 
Kottapet,",HYDERABAD,TELANGANA,PPN
Pace Hospitals,"1-11-254/11/A/3/1,2,3, Motilal Nehru Nagar, SP Road, 
Begumpet, HyderabadHyderabad",HYDERABAD,TELANGANA,PPN
Aster Prime Hospitals,"Plot No : 2 & 4, Behind Mythrivanam Building , Opp. 
Passport Office, Ameerpet, HyderabadAmeerpet",HYDERABAD,TELANGANA,PPN
Ravi Hospital (Hyderabad),"Lig-564/565,,Road No 3, Behind Rs Brotheri,,Kph 
ColonyHyderabad",Hyderabad,TELANGANA,PPN
Krishna Multi Speciality Hospital,"# 1-48/4, Adj. to Rajya Laxmi Theatre, Uppal 'X' Roads, 
Uppal, HyderabadHyderabad",HYDERABAD,TELANGANA,NON PPN
GBR Hospital,"1-73/1, Beside Fruit Market, Chaitanya Puri, Prabbath 
Nagar, Dilsukh NagarHyderabad",HYDERABAD,TELANGANA,PPN
Eashwar Lakshmi Hospital,"Plot No. 9, Gandhi Nagar, HyderabadGandhi Nagar",HYDERABAD,TELANGANA,PPN
Ravi Helios Hospital,"# 175, RK. Matt Road, Indira Park, HyderabadHyderabad",HYDERABAD,TELANGANA,PPN
Ramdev Rao Memorial General Hospital,"Opp. V. V Nagar Colony Junction, KukatpallyKukutpally",HYDERABAD,TELANGANA,PPN
Nova ENT Hospital,"6-3-652, First Floor, Kavtilya Block, Srramanjil, Sonajiguda, 
Hyderabad Hyderabad",HYDERABAD,TELANGANA,PPN
Indo Us Superspeciality Hospital,"7-1-57/B7C, Shyam Karan Road, Anand Bagh, Ameerpet",HYDERABAD,TELANGANA,PPN
Kamineni Hospitals Pvt. Ltd,"Survey No 68, Mawsoorabah, LB Nagar, Ranga 
ReddyHyderabad",HYDERABAD,TELANGANA,PPN
Ikon Hospital,"16-11-741/C/1/15, Near Vijaya Diagnostic Centre, Dilsukh 
Nagar Dilsukh Nagar",HYDERABAD,TELANGANA,PPN
Yashoda Super Sprciality Hospital,"Rajbhawan Road, Somajiguda, HyderabadSomajiguda",HYDERABAD,TELANGANA,PPN
"Vijaya Marie Hospital & Education 
Society","10-1-673/1, Chinthal Basthi, KhairthabadHyderabad",HYDERABAD,TELANGANA,PPN
SVK Hospital,"Plot No. 78, Shapur Nagar, Jeedimetla, 
HyderabadHyderabad",HYDERABAD,TELANGANA,PPN
Sai Sanjeevini Hospitals,"H. No. 11-8-99-44/A(8), Narasimha Pori Colony, Kothapet, 
HyderabadKothapet",HYDERABAD,TELANGANA,PPN
"Dr Raos ENT Super Speciality 
International Hospital","Plot No. 29, Road No. 04, Behind Temple Busstop, KPHB 
Colony, HyderabadHyderabad",HYDERABAD,TELANGANA,PPN
"Apollo Hospitals Enterprises Ltd(Jubilee 
Hills)","Emergency Number Is 1066,Jubilee HillsHyderabad",HYDERABAD,TELANGANA,PPN
Sreshta Orange Hospitals,"3-8-264/1,02 264/2 Sy No 58.58/A,,Chandrapuri 
Colony,,Opp:Vijaya Laxmi TheaterHyderabad",HYDERABAD,TELANGANA,PPN
Leela Hospital,Plot No- 112C And 112DHyderabad,HYDERABAD,TELANGANA,PPN
Citizens Hospital,"1-100/1/CCH, Nallagandla Serilingamapally,Near Aparna 
Sarovar,Hyderabad",HYDERABAD,TELANGANA,PPN
"Remedy Super Speciality 
Hospital(Kukatpally )","Road No-4, KPHB. Colony, kukatpallyHyderabad",HYDERABAD,TELANGANA,PPN
Femina Motherhood Hospital,"Road No-12, Banjara HillsHyderabad",HYDERABAD,TELANGANA,PPN
Sankhya Hospitals,"C-15, Road No:1, KPHB Colony, KukatpallyHyderabad",HYDERABAD,TELANGANA,PPN
"Sai Siva Childrens Hospital And Poly 
Clinic","D. No-111, Opp Venkateshwara Temple, Chandanagar, 
HyderabadHyderabad",HYDERABAD,TELANGANA,PPN
RR Hospital,"Plot No. 5C, Ganga Enclave Opp, Byrraju Foundation, Pet 
basheerabad, RR. Dist, HyderabadHyderabad",HYDERABAD,TELANGANA,PPN
Srikara Hospitals,"222&223, Mythri Nagar, Phase II, Madinaguda, 
MiyapurHyderabad",HYDERABAD,TELANGANA,PPN
Virinchi Hospitals Hyderabad,"6-3-2,6-3-3,6-3-3/1, Road No. 1&12 Junction,,Banjara 
Hills,Hyderabad",HYDERABAD,TELANGANA,PPN
Konark Multispeciality Hospitals,"Plot No. 13&14, Pipeline Road, Behind Deevan Dhaba, 
Petbasheerabad, nil",HYDERABAD,TELANGANA,PPN
Majestic Hospital,"9-2-504 & 504 B, Langar House, HyderabadHyderabad",HYDERABAD,TELANGANA,PPN
"Sunrise Super Speciality Children's 
Hospital","3-4-489, SS Nilayam, Opp Reddy Collage, Bakatpura, 
HyderabadHyderabad",HYDERABAD,TELANGANA,PPN
Pragna Hospitals,"6-3-347/22/B/1, Saibaba Temple Road, Dwarakapuri, 
Punjagutta, Hyderabad, Telangana 500082Hyderabad",HYDERABAD,TELANGANA,PPN
Seha Hospital,"# 1-9-49 / B / 1,Lakdikapul,,Lakdikapul,Hyderabad",Hyderabad,TELANGANA,PPN
"Sunrise Super Speciality Children'S 
Hospital","3-5-1105, Opp.Ipm Blood Bank,,Besaide Bata Show 
Room,,NarayanagudaHyderabad",HYDERABAD,TELANGANA,PPN
Trident Hospitals,"Madhura Nagar, NH-7, MAin Road, 
ShamshabadShamshabad",HYDERABAD,TELANGANA,PPN
Little Stars Children'S Hospital,"No.30, Nagarjuna Hills, Panjagutta, Hyderabad - 500082 , 
HyderabadHyderabad",HYDERABAD,TELANGANA,PPN
New Life Line Multi Speciality Hospital,"1-1-2/1, Sai Priya Colony, Near Old Muncipal Office, Kapra, 
Ecil- PostHyderabad",HYDERABAD,TELANGANA,PPN
"Lk Hospital Pvt Ltd Diagnostics And Poly 
Clinic","# 4- 159, 4-172, Maruthi Nagar, Geetha Nagar, Malkajgiri, 
HyderabadHyderabad",HYDERABAD,TELANGANA,PPN
Dr Laxmans Children Hospital,"Main Road Shapur Nagar, Jeenimetla, HyderabadHyderabad",HYDERABAD,TELANGANA,PPN
Bhavya Multispeciality Hospital,"Plot No-65, Road No-5, New Samathapuri Colony 
HyderabadHyderabad",HYDERABAD,TELANGANA,NON PPN
Gurunanak Care Hospitals,"1-4-908/7/1, Bakaram, Musheerabad Main Road, 
HyderabadHyderabad",HYDERABAD,TELANGANA,PPN
"Dr rajashekar Reddy Laparoscopy 
Hospital","Plot No -01, Chitra Layout, LB Nagar, HyderabadHyderabad",HYDERABAD,TELANGANA,PPN
Sreshta Sri Kamala Hospitals,"Kamala Complex, DilsukhnagarDilSukhnagar",HYDERABAD,TELANGANA,PPN
Krishna Hospital,"9-178/3, New Gayathri Nagar, Jillela Guda, 
HyderabadHyderabad",HYDERABAD,TELANGANA,NON PPN
Prasad Hospital,"Mig-204, Road No.1, Opp Grand Sitara Hotel, KPHB Colony , 
HyderabadHyderabad",HYDERABAD,TELANGANA,PPN
Shreyas Hospital,"D No, 286 & 289, Srinivasa Nagar, Colony, ECIL, 
HyderabadHyderabad",HYDERABAD,TELANGANA,PPN
Vanaja Hospital,"Plot No-7, Pragathi Nagar, Saibaba Temple Road, 
Sainathpuram, Dr AS Rao Nagar, ECIL, 
HyderabadHyderabad",HYDERABAD,TELANGANA,PPN
Asha Hospital,"19-66 -11 Prashanth Nagar Phase !! Hitension Road Kapra , 
HyderabadHyderabad",HYDERABAD,TELANGANA,PPN
Sigma Hospitals,"22-4/1, Apiic Colony Ida Jeedi Metla , HyderabadHyderabad",HYDERABAD,TELANGANA,PPN
RK Hospitals,"Beside Manda Mallamma Garden, New Maruthi Nagar, 
Karmanghat, Hyderabad, Telangana 500029Karmanghat",HYDERABAD,TELANGANA,PPN
SM Hospital,"6-61/3, Pasha Mylaram Road, Opp. Cylinder Factor, Isnapur-
X-Road, Patan Cheru (MDL), Medak (D)Isnapur",HYDERABAD,TELANGANA,NON PPN
Sri Narmada Hospital,"1-1-770/A/1/1, New Bakaram, Gandhi Nagar, 
HyderabadGandhi Nagar",HYDERABAD,TELANGANA,PPN
ST Theresas Hospital,"7-1-645/A, BK. Guda, Santh Nagar, Erragadda. Opp.Rythu 
BazarHyderabad",HYDERABAD,TELANGANA,NON PPN
Disha Childrens Hospital,"3-11-142/ N,,R.T.C Colony, L.B.Nagar,Opp. Kamineni 
Hospital,Mansurabad VillegeLB NAGAR",HYDERABAD,TELANGANA,PPN
Preeti Urology & Kidney Hospital,"307, Road No.4, MIG 1, Kukatpally Housing Board Colony, 
Kukatpally, HyderabadKukatpally",HYDERABAD,TELANGANA,PPN
"Lotus Hospitals For Women & Children 
(Kukatpally)","15, JNTU - Hitech City Road, BHEL HIG Phase 2, Kukatpally 
Housing Board Colony, Kukatpally",HYDERABAD,TELANGANA,PPN
Lotus Hospitals For Women & Children,"DNo 6-2-29, Lakdikapul Road",HYDERABAD,TELANGANA,PPN
Shine Childrens Hospital,"3-3-245 & 247, L.B Nagar-Uppal Rd, Kamala Nagar, Suvidha 
Arcade, RTC Colony, LB Nagar, HyderabadLB Nagar",HYDERABAD,TELANGANA,PPN
"Vasavi Medical And Research 
Centre(Vasavi Hospital)","No 6-1-91, Beside Vasavi Seva Kendram,,Laki-Ko-Pool, 
Khairatabad,,KhairatabadKhairatabad",HYDERABAD,TELANGANA,PPN
Healthcare Hospital,"3-2-394, Near LB Nagar Circle Towards Ring Road, LB 
Nagar, Hyderabad LB Nagar",HYDERABAD,TELANGANA,PPN
Supraja Hospitals (Hyderabad),"PLOT NO. 79. NAGOLE,NEAR NAGOLE TRAFFIC 
SGNALHyderabad",HYDERABAD,TELANGANA,PPN
Sree Sreyas Hospital,"Plot no. 56, Sriram Nagar Colony, Nagarluna Sagar Road, 
Near Karmanghat X Road, HyderabadHyderabad",HYDERABAD,TELANGANA,NON PPN
Sri Ganesh Orthopaedic Hospital,"6-2-48, Kalkaji ColonyHanumakonda",HYDERABAD,TELANGANA,NON PPN
"Sai Krishna Super Speciality Neuro 
Hospital","3-4-1,STATION ROAD, KACHIGUDA,Hyderabad",HYDERABAD,TELANGANA,NON PPN
"Apollo Hospital Enterprises 
Ltd(Kanchanbagh-Drdo)","Dmrl 'X' Roads, Kanchanbagh",HYDERABAD,TELANGANA,NON PPN
"Medicover Hospitals (A Unit Of 
Sahrudaya Health Care Pvt Ltd)","5-9-22, Opp Secretariate Road,Sarovar 
Complax.,Mediciti@Hd1.Vsnl.Net.In,,HyderabadHyderabad",HYDERABAD,TELANGANA,PPN
Aakar Asha Hospital,"Opp Metro Pillar No. KPH28, Kukatpally Main Road, 
HyderabadHyderabad",HYDERABAD,TELANGANA,NON PPN
Jayakrishna Hospital,"H.No 1-8-8&9, Opp :- St Joseph's School, Gate No-3, 
Ravinadra Nagar, Habsiguda, HyderabadHyderabad",HYDERABAD,TELANGANA,NON PPN
Janapareddy Hospitals Pvt Ltd,"6A/7A, Pet Basheerabad, NH-7, Kompally, Hyderabad, 
Medical Dist, TelanganaHyderabad",HYDERABAD,TELANGANA,PPN
Manjeera Super Speciality Hospital,"Plot No :39 to 42, Tirumala Enclave, Pothi Reddy Pally, 
Sangareddy (Dist) TelanganaSangareddy",HYDERABAD,TELANGANA,NON PPN
Sumana Hospital,"Plot No.668, Sumana Hospital Lane, Road Number 2, 
Vivekananda Nagar, Kukatpally, Hyderabad, Telangana 
500072Kukatpally",HYDERABAD,TELANGANA,NON PPN
Raja Hospital,"D. No 8-3-318/A/28-31, Opp: State Home, Yellareddyguda, 
HyderabadYellareddyguda",HYDERABAD,TELANGANA,PPN
Cure Well Hospital,"15-1-48, Near, MGM Hospital, Srinivasa Colony, 
WarangalWarangal",HYDERABAD,TELANGANA,NON PPN
"Sri Sai Raghavendra Multi Speciality 
Hospital","Jasmine Towers, Pothireddypalli, Medak, NH-9, Mumbai 
Highway, Sangareddy, Sangareddy, Telangana 
502295Sangareddy",HYDERABAD,TELANGANA,NON PPN
Gleneagles Global Hospitals,"6-1-1070/1 To 4 Lakdi Ka Pul , HyderabadHyderabad",HYDERABAD,TELANGANA,PPN
Shalini Hospitals,"3-4-140, Barkatpura,Hyderabad,Opp. Water 
Tank,Hyderabad",HYDERABAD,TELANGANA,PPN
Prathima Hospitals,"3-4-3, Station Road, 
Kachiguda,Hyderabad,KachigudaHyderabad",HYDERABAD,TELANGANA,PPN
JJ Hospital,"Plot # 57, Kalyan Nagar, Phase- 1, Behind TB Hospital, 
HyderabadHyderabad",HYDERABAD,TELANGANA,NON PPN
Archana Hospital Pvt Ltd,"1-56/AH, National Highway 9,Beside Reliance Fresh, 
Madinaguda, Durga Estates, Miyapur,Hyderabad",HYDERABAD,TELANGANA,PPN
Continental Hospitals,"Plot No. 3, Road No. 2, IT & Financial District, 
Nanakramguda, Gachibowli, Hyderabad, Telangana 
500035Hyderabad",HYDERABAD,TELANGANA,PPN
Mahavir Hospital And Research Centre,"Plot No.10-1-1, Bhagwan Mahavir Marg, AC Guards, Masab 
Tank, Hyderabad, Telangana 500004Hyderabad",HYDERABAD,TELANGANA,PPN
Vijaya Hospital,"Plot. No. 128 New Gayatri Nagar , HyderabadHyderabad",HYDERABAD,TELANGANA,PPN
SLMS Hospital,"# Plot No 21, Nagole X Roads, HyderabadHyderabad",HYDERABAD,TELANGANA,NON PPN
Sri Tirumala Hospital,"4-113/1/3, Opp Aout Hospital, Main Road, Kodad, 
NalgodaKoldad",HYDERABAD,TELANGANA,NON PPN
Aruna Hospital,"Mahesh nagar, Before water tank, Beside radhika Theatre, 
ECIL post Kapra, Hyderabad RR DistHyderabad",HYDERABAD,TELANGANA,NON PPN
Vasundhara Hospital,"H.No 12-4-120/2, Sri Hari Nagar, Opp. KP Bus Depot, 
Moosapet, Hyderabad, Telangana 500072Hyderabad",HYDERABAD,TELANGANA,NON PPN
Sri Siddeshwara Hospital,"Sagar Road, Malla Reddy Nagar, Saroor Nagar East, 
Champapet,Hyderabad",HYDERABAD,TELANGANA,PPN
Care Hospital (Namapally),"5-5-199, exhibithion, Grounds Road, Namapally",HYDERABAD,TELANGANA,PPN
"Prathima Hospitals A Unit Of Mamatha 
Medicare Private Ltd","Plot No. 27, Bhagyanagar Colony Extn., Opp. Sivaparvathi & 
Arjun Theatre, Kphb Main Road, Kukatpally - 
500072Kukatpally",HYDERABAD,TELANGANA,PPN
Rainbow Children Hospital,"Road No - 2, Banjara Hills, Near L V Prasad Eye Hospital, 
Next to Hotel Park Hyatt",HYDERABAD,TELANGANA,PPN
Sri Sai Srinivasa Specialty Hospital,"3-5-1082/A, Keshav Memorial Lane, Beside Deepak Theater, 
Narayanaguda, HyderabadJaiswal Lane,",HYDERABAD,TELANGANA,PPN
Saptagiri Hospital,"# 3-8, Chaitanyapuri X Road, Dilsukhnagar,",HYDERABAD,TELANGANA,NON PPN
Thumbay Hospital,"16-6-104 to 109, Old Kamal Theater Complex, Opp Niagara 
Hotel, Chaderghat, Hyderabad, Telangana 
500024Hyderabad",HYDERABAD,TELANGANA,PPN
Himabindu Hospitals,"# Near Sagar Ring Road, Opp Alekhya Towers, LB Nagar, 
HyderabadHyderabad",HYDERABAD,TELANGANA,PPN
Vijaya Krishna Multi Specialty Hospital,"Mahathma Gandhi Road, SuryapetSuryapet",HYDERABAD,TELANGANA,NON PPN
Sagar Hospital,"3-1-445, Prashanthnagar Colony, KarimnagarKarimnagar",HYDERABAD,TELANGANA,NON PPN
"Abhaya Bbc New Born And Children 
Hospital","Ist Floor,Vidyanagar,Hindi Mahavidlaya Complex,NIL",HYDERABAD,TELANGANA,PPN
"Adavally Damodar Reddy Memorial 
Hospital(ADRM)","H.No 02,9-2, Ramanthapur,HyderabadNIL",HYDERABAD,TELANGANA,PPN
"Aditya Hospital(Aditya Medmaxx Lifecare 
Pvt Ltd)","Opp. Bharath Petrol Pump,,Shantigar, Uppal,Shanti Nagar, 
Appal",HYDERABAD,TELANGANA,PPN
Amrita Ent Head And Neck Hospital,"HIG 450 , next to MORE super market, diagonally opposite 
to Manjeera Mall, JNTU-HITEC city road.KPHB phase 
VI.Kukatpally,NIL",HYDERABAD,TELANGANA,PPN
Apex Hospitals-Hyderabad,"Plot No. 50-51,,Medipally, Warangal Highway,,Uppal 
DepotHyderabad",HYDERABAD,TELANGANA,PPN
"Apollo Hospitals Enterprises 
Ltd(Kukatpally)","Bhagyanagar Colony,,Kukatpally",Hyderabad,TELANGANA,PPN
Apollo Spectra Hospital (Hyderabad),"D.No 2-34/2, G.V Classic, Plot No 1 & 6, Survey No 
02,Kothaguda 'X' Road, Kondapur,SerilingampallyNIL",HYDERABAD,TELANGANA,PPN
Apoorva Hospital Mehdipatnam,"Near St Anns Womens College, Near Park 46 / A Santosh 
Nagar Colony, Mehindipatnam,",HYDERABAD,TELANGANA,PPN
Aruna Hospital(L.B. Nagar),"Rd No.4 Chandrapuri Colony,Plot No.69 & 70 Opp Vijaya 
Lakshmi Theatre,L.B. NagarNIL",HYDERABAD,TELANGANA,PPN
Bibi Cancer Hospital,"16-3-991 / 1 / C,Goverment Printing Press Road,Malakpet",Hyderabad,TELANGANA,PPN
"Bristlecone Hospitals (A Unit Of Virinchi 
Ltd)","Plot No 5 & 9, Padmavathi Colony,,Beside Saibaba Temple, 
R. R. District,Hayath NagarNIL",HYDERABAD,TELANGANA,PPN
Care Hospitals,"Old Mumbai Highway,,Near Cyberabad Police Comissioner 
Office, Hitech City",HYDERABAD,TELANGANA,PPN
"Century Super Speciality Hospital Pvt. Ltd 8-2-703, Road No 12,Telangana,,Banjara HillsNIL",,HYDERABAD,TELANGANA,PPN
"Durgabai Deshmukh Hospital And 
Research Centre","Andhra Mahila Sabha,,Osmania University 
Road,VidyanagarNIL",HYDERABAD,TELANGANA,PPN
"Evya Hospitals And Diabetic Reserach 
Center","Mansoorabad Road,,Vanasthalipuram,,NIL",HYDERABAD,TELANGANA,PPN
Geeta Multi Speciality Hospital,"1-7-90, Chitanyapuri Cross Road,,Dilsukhnagar,,Hyderabad",Hyderabad,TELANGANA,NON PPN
Harsha Hospital Hyderabad,"1-76 / 1 / B/4, Ganga Enclave,,Medchal Road, 
Petbasheerabad,,Quthbullapur Mdi, Rr Dist.NIL",HYDERABAD,TELANGANA,PPN
Healix Hospital,"No-204, Mytrinagar,,Miyapur,,Hyderabad",Hyderabad,TELANGANA,PPN
Himagiri Hospitals Pvt Ltd,"Plot No.4,5,23 & 24, Stadium M,Ain Road, Ganchibowli, 
Hyderabad,Hydrabad",HYDERABAD,TELANGANA,PPN
"Icon Hospital ( A Unit Of Dandamudi 
Anish Health Care)","540/ 1 & 2, Hitech City Road,,Vi Phase,,Kphb Colony",Hyderabad,TELANGANA,PPN
"Basavatarakam Indo American Cancer 
Hospital & Research Institute","Road No-14- Banjara Hills, HyderabadNIL",HYDERABAD,TELANGANA,PPN
Jananii Hospital,"#3-12-58/2, Ganesh Nagar,Ramanthapur,(Opp. Road To Tv 
Studio)NIL",HYDERABAD,TELANGANA,PPN
Kims Hospitals Enterprises Pvt Ltd,"# 1-112/86,Survey No 55/Ee, Kondapur 
Village,,,Serilingampally MandalNIL",HYDERABAD,TELANGANA,PPN
Kosaraju Hospitals,"D.No.9-1-43/23,Langar House,NIL",HYDERABAD,TELANGANA,PPN
Krishnaveni Multi Speciality Hospital,"4-9-437/1/NR, RTC Colony Bus Stop, Hayathnagar,",HYDERABAD,TELANGANA,PPN
"Landmark Hospital(A Unit Of Capital 
Health Services India Pvt Ltd)","Plot No-1, 2, 3, Survey No-127,,Mck Block No-2, Hyder 
Nagar Main Road, Kukatpally, Balanagar, Opp. 
Vasantha,TelanganaNIL",HYDERABAD,TELANGANA,PPN
Maa Ent Hospital,"H.No.8-2-293/82/A/1266,Road No.36,,Jubilee Hills,,Beside 
Icici Bank ,NIL",HYDERABAD,TELANGANA,PPN
Magnas V Hospital,"# 18-79, Manikanta Crown Complex,,,Chaitanyapuri, 'X' 
Roads,NIL",HYDERABAD,TELANGANA,PPN
"Mahesh Hospital And Research 
Foundation","Jubilee Hills Road No- 36,St No 
13,Himayathnagar,,Himayathnagar",Hyderabad,TELANGANA,PPN
Manju Sudha Multi Speciality Hospital,"# 4-20/A, Vikas Nagar,,Dilsukhngar,NIL",HYDERABAD,TELANGANA,PPN
"Medicover Hospitals(A Unit Of Sahrudaya 
Health Centre Pvt Ltd)","Plot No.7,Survey No.64,Behind Cyber Towers, Patrika 
Nagar,Hitech City,Madhapur,HyderabadNIL",HYDERABAD,TELANGANA,PPN
Mcs Neuro Hospital,"Sr Enclave, Mig- 259 ,,Road No-4 , Kphb 
Colony,,TelanganaNIL",HYDERABAD,TELANGANA,PPN
Medisys Hospital,"Plot No 1 To 5,Chinthalakunta Check Post,L B NagarNIL",HYDERABAD,TELANGANA,PPN
Microcare Ent Hospital Research Inst.,"Mig-244 & 245,Road No-4,,Kphb Colony,Kukatpally,NIL",HYDERABAD,TELANGANA,PPN
Motherhood Hospital (Banjara Hills),"H No.8-2-686/1/A,Road 12,Banjara Hills",Hyderabad,TELANGANA,PPN
Mythri Hospital,"D.No - 22-99, Beside To Tirupathi Electronics,,Opposite To 
Gandamma Temple,,Bombay National Highway",HYDERABAD,TELANGANA,PPN
Mythri Hospital(Mehdipatanam),"H. No # 13-6-434/C/148,,Near Pvnr Airport Flyover Pillar 
No. 80,,MehdipatanamNIL",HYDERABAD,TELANGANA,PPN
"Neelima Hospital - Unit Of Neelima 
Hospitals Pvt Ltd","#7-2-1735,Opp. Voltas,Czech Colony, Sanath Nagar,",HYDERABAD,TELANGANA,PPN
Nightingale Hospital,17 -1-383/N.S/ 3&4 Nagarjuna Sagar RoadNIL,HYDERABAD,TELANGANA,PPN
"Nirmala Maternity Orthopaedic And 
General Hospital","2/3rt,,Opp Post Office,Vijaya Nagar Colony,Vijaya Nagar 
ColonyNIL",HYDERABAD,TELANGANA,PPN
Oakridge Hospitals,"1-120/3, Plot No:3,,Behind Karachi Bakery,,MadhapurNIL",HYDERABAD,TELANGANA,PPN
Olive Hospital,"12-2-718/3-5,,Nanalnagar X Road,,MehndipatnamNIL",HYDERABAD,TELANGANA,PPN
Omni Hospital,"Plot No - 20,21,22a,22b,22c, 23 & 24,Balaji Nagar, 
Kukatpally,NIL",HYDERABAD,TELANGANA,PPN
Ozone Hospitals,"11-13-201/33, Green Hills Colony Rd No - 4, Beside Surabhi 
Hotel, Kothapet",HYDERABAD,TELANGANA,PPN
Pace Hospital,"Madhapur, HUDA Techno Enclave, HITEC City",HYDERABAD,TELANGANA,PPN
Pacific Hospital,"237,Road No 36,,Jubilee Hills,Hyderabad",Hyderabad,TELANGANA,PPN
Padmavathi Hospital (Hyderabad),"10-1-80, Near Karmanghat X Roads,Sagar 
Road,Hyderabad,,",Hyderabad,TELANGANA,PPN
Paramitha Childrens Hospital Pvt Ltd,"H No:B & C,In Sy.No:7/D,Ward No: 11,Block No:13,,Green 
Hills Colony Saroor Nagar,,Ranga Reddy,NIL",HYDERABAD,TELANGANA,PPN
Poulomi Hospitals,"Plot No A-2 & B -17,Rukmimipuri Colony,Dr A.S Raogar Main 
Road,,Plot No.A-2 & B-17, Rukminipuri 
Colony,SecunderabadNIL",HYDERABAD,TELANGANA,PPN
Premier Hospital Pvt.Ltd,"#12-2-710,,Gudimalkapur Road, Nanai 
Nagar,,Mehdipatnam,NIL",HYDERABAD,TELANGANA,PPN
"Prime Hospitals (A Unit Of Sree 
Ramachandra Health Services Pvt Ltd)","Plot No. Mig 113 & 114 Road No. 1,,Housing Board 
Colony,,KukatpallyNIL",HYDERABAD,TELANGANA,PPN
Pujitha Hospital,"7-2-1799 / 4a / 2,,Sanathnagar,,Czech Colony",Hyderabad,TELANGANA,PPN
Raghavendra Hospital(Hyderabad),"Ecil 'X' Road,Kamalnagar,Hyderabad",Hyderabad,TELANGANA,PPN
"Rainbow Hospital For Women And 
Childrenrainbow Childrens Medicare Pvt 
Ltd","Plot No. 32 7 33, Survay No.12,,White Field,,KondapurNIL",HYDERABAD,TELANGANA,PPN
Raja Hospital ( Hyderabad ),"Yousufguda Main Rd, Sai Sarathi Nagar,,Padala Ramareddy 
Colony,,Yousufguda,NIL",HYDERABAD,TELANGANA,PPN
Raman Hospital,"6-151/1, Sudharshan Reddy Nagar,,,Behind Bus Stop, 
Chintal,NIL",HYDERABAD,TELANGANA,PPN
Russh Super Speciality Hospital,"Hno.2-181/5/C Suchitra Circle,Nh44,",HYDERABAD,TELANGANA,PPN
S.V.S Hospital,"3-3-67, Old Manjira Hotel,,Chappal Bazar,,Kacheguda",Hyderabad,TELANGANA,PPN
Safe Childrens Hospital,"16-2-741/D/5,Besibe Tv Tower.Moosaram Bagh X Road 
Malakepet,,NIL",HYDERABAD,TELANGANA,PPN
Sai Rajasri Hospitals,"H.No,3-11-48 Opp Homoeopathic Medical College,Near Tv 
Studio Ramanthapur,Hyderabad",Hyderabad,TELANGANA,PPN
Sai Ram Multi Speciality Hospital,"H No. : 7-78/1, Madhura Puri,Konark Theatre Lane, P & T 
Colony Road. (Telangana), Dilsukhnagar,",HYDERABAD,TELANGANA,PPN
Sai Siddhartha Hospital,"Opp. Hanuman Temple Near Raitu Bazar,,HyderabadNIL",HYDERABAD,TELANGANA,PPN
"Sai Vani Hospitals Ltd (A Unit Of Laxmi 
Jaya Hospitals Ltd)","1-2-365/36/6&7,Ramakrishna Math Road,Opp.Indra 
Park,DomalgudaNIL",HYDERABAD,TELANGANA,PPN
Sbr Pulse Hospital,"Plot No. 34, Krishnaveni Nagar,,Gaddiannaram Municipal 
Office,,Saroornagar, Rr. DistNIL",HYDERABAD,TELANGANA,PPN
Shyam Hospital,"Plot No - 52, Panchayat Raj, Teacher Colony.,B.N.Reddy 
Nagar,,HyderabadNIL",HYDERABAD,TELANGANA,PPN
Sigma Hospitals(Hyderabad),"D-No-16-11-740/3/14,Plot No -32,Lane Beside Narayana Jr. 
College,Gaddiannarm X Roads,Dilsukhnagar",Hyderabad,TELANGANA,PPN
"Soumya Hospital For Women And 
Children","Shop No. 12-2-709/C/15 Khadar Bagh Road, Opp Med Plus 
Pharmacy,,Near, Lakshmi Nagar X Roads,Padmanabha 
Nagar Colony,Pillor No:68,Ring, Road,Mehdipatnam,NIL",HYDERABAD,TELANGANA,PPN
Sowmya Children'S Hospital,"Lane N0 23,,Behind Axis Bank,,Sanjeev Reddy Nagar ,",Hyderabad,TELANGANA,PPN
Sowmya Hospital,"# 1-9-49/B/1,,Main Road,,RamnagarNIL",HYDERABAD,TELANGANA,PPN
"Sri Radhika Multispecialty HospitalSri 
Radhika Hospital","#6-208/3/1, Triveni Nagar, Balapur X Roads,,Meerpet, 
Saroornagar Mandal, R.,Hyderabad",HYDERABAD,TELANGANA,PPN
"Sri Sai Ram Hospital, Hyderabad","9-1-364/2/A,,Opp. Bapu Ghat, Langer House,,Hyderabad",Hyderabad,TELANGANA,PPN
"Sri Sri Holistic Hospitals(A Unit Of Sree 
Ramachandra Health Servises Pvt","1-2-49/13 B, Nizampet Road, Hy,Dernagar, Kukatpally, 
Hyderabad,NIL",HYDERABAD,TELANGANA,PPN
"Srikara Hospitals ( A Unit Of SNR Galaxy 
Hospiitals Hyderabad Pvt Ltd)","Plot No 50,Lb Nagar ,Hyderabad,,NIL",HYDERABAD,TELANGANA,PPN
Sunrise Hospitals(Hyderabad),"""4-9-321, Plot No: 4&7, Nh-9"",Hayath Nagar,R.R. Dist",Hyderabad,TELANGANA,PPN
Suraksha Women And Children Hospital,"No. 3-1-21, Anshu Classy, Pet Basheerabad, 
Kompally,Beside Rtao Office.,KompallyNIL",HYDERABAD,TELANGANA,PPN
Susheela Hospital(Hyderabad),"3-3-25/D,Anand Nagar, E-Seva Road,RamankhapurNIL",HYDERABAD,TELANGANA,PPN
Sv Multispeciality Hospital,"H.No. 6-156, Slns Colony,,Balapur X Roads,,Hyd Rr Dist",Hyderabad,TELANGANA,PPN
Tirumala Multi Speciality Hospital,"Plot No 47,Apseb Colony,,Beside Rta Office,,Omkar Nagar 
Sagar RoadNIL",HYDERABAD,TELANGANA,PPN
Udai Omni Hospitals,"5-9-92 / A2, Chapel Road, Nampally, NIL",HYDERABAD,TELANGANA,PPN
Usha Mohan Hospital,"3-4-181/1,Hyderguda,Rajendranagar,Opp. Rta 
Office,,Ranga Reddy",Hyderabad,TELANGANA,PPN
Vijay Marie Hospital,"10-1-673/1,,Kharatabad,",Hyderabad,TELANGANA,PPN
Vijaya Hospital,"41529, S V Nagar, Keesara Main,Rd, Nagaram, 
Secunderabad,NIL",HYDERABAD,TELANGANA,PPN
Vijaya Hospital(Madeenaguda),"1-58/7/3, 3rd Floor Beside ,,St Annes School 
Arch,,MadeenagudaNIL",HYDERABAD,TELANGANA,PPN
Zoi Hospitals,"6-3-1106/1/A, Adj Hsbc Bank, Rajbhavan Road, Somajiguda",HYDERABAD,TELANGANA,PPN
Pulse Hospital,"IDPL, Jeedimetla Main Road, Chandra Nagar, Behind 
Gautami Techno School, Hyderabad, Telangana 
500037Hyderabad",HYDERABAD,TELANGANA,PPN
Sri Ramakrishna Hospital (Hyderabad),"3-2-28/5 & 6, Nimboliodda, Kachiguda 
HyderabadHyderabad",HYDERABAD,TELANGANA,NON PPN
KIMS BIBI Hospital,"16-3-991/1/C Malakpet, Beside Meridian Function Hall 
HyderabadHyderabad",HYDERABAD,TELANGANA,NON PPN
Sri Sai Balaji Hospital,"Plot No 60, L B Nagar, Behind Traffic Ps, 8th Cross, Rock 
Town Street Colony, LB Nagar",HYDERABAD,TELANGANA,PPN
Sahasva Hospital,Manjeera Nagar Main Road SangareddySangareddy,HYDERABAD,TELANGANA,NON PPN
Sri Laxmi Health Care Hospital,"C-84, Mig, Phase-i, Near Vanasthalipuram Complax, 
Vanasthalipuram, Vanasthalipuram, Hyderabad, Telangana 
500070Hyderabad",HYDERABAD,TELANGANA,NON PPN
Zoi Hospitals,"HNo-4-8-149/4/2/1, Opp. Pillar No-145, Attapur",HYDERABAD,TELANGANA,PPN
"Apollo Cradle A Unit Of Apollo Specialty 
Hospital","Dharani Devi Building, Plot No. 565, Road No. 92, Jubilee 
Hills Co-Op Building Society Ltd, Hyderabad, Telangana 
500034Jubilee Hills",HYDERABAD,TELANGANA,PPN
Prerana Hospital,"Sri Ramnagar Colony, Puppalaguda-Manikonda Main 
Road,Manikonda",HYDERABAD,TELANGANA,PPN
Kalyani Hospital,"6-1-69, Bus Stand Road, Sai Nagar, Hanamkonda, 
Telangana 506001Hemakonda",HYDERABAD,TELANGANA,NON PPN
Orchid Hospital,"# 5-3, Sri Sura Lachaiah complex, Saraswathinagar, Railway 
Station Road, KarimnagarKarimnagar",HYDERABAD,TELANGANA,NON PPN
Asian Multi Specialty Hospital,"1-13-127, Borabanda - Allahpur Road, Near Motinagar Cross 
Road, Erragadda, Hyderabad, Telangana 500018Hyderabad",HYDERABAD,TELANGANA,NON PPN
Yashoda Krishna Hospital,"Vidyanagar, Jyothinagar, Karimnagar, Telangana 
505001Karimnagar",HYDERABAD,TELANGANA,NON PPN
"Riya Hospital - A Unit of Vaishnavi 
Research Centre","15/2/63, SVP Road, Beside City Grand Hotel, Warangal",HYDERABAD,TELANGANA,NON PPN
City Hospital,"3-1-334 Beside Civil hospital, Karimnagar, 
TelanganaKarimnagar",HYDERABAD,TELANGANA,NON PPN
Aditya Care Hospital Karimnagar,"3-3-148/1, Beside Civil Hospital Karimnagar",HYDERABAD,TELANGANA,NON PPN
Arunodaya Multi Speciality Hospital,"Sharada Arcade, H.No:3-1-47, P.No:47& 48, Jayadeepika 
Estate, Rajiv Gandhi Nagar, Bachupally, Hyderabad, 
Telangana 500090Hyderabad",HYDERABAD,TELANGANA,PPN
Sunshine Hospital Gachibowli,"7-56/19,Survey No-40,45,46,Dargah Road,LIG Chitrapuri 
Colony, Raidurg, Gachibowli",HYDERABAD,TELANGANA,PPN
Vinn Hospital,"7-1-21, Uma Nagar, Railway Station Road, Begumpet,",HYDERABAD,TELANGANA,PPN
Pavan Sai Hospital,"Plot No 187-188, Road Number 3, Near Reliance Petrol 
Pump, Rock Town Colony, Nagole-LB Nagar Road,",HYDERABAD,TELANGANA,PPN
Germanten Hospitals,"4-8-138/1/B, Opposite pillar no. 150 Main Road, Attapur, 
Rajendra Nagar, KV Ranga Reddy",HYDERABAD,TELANGANA,PPN
AIG Hospitals,"Door No-1-66/AIG/2-5, Survey No-136/1, Gachibowli 
(Village) Serilingampally (Mandal), Rangareddy (Ditrict), 
TelanganaHyderabad",HYDERABAD,TELANGANA,NON PPN
Avis Hospitals,"Plot No 99, Road no 1, Jubilee Hills, Next to Chiranjeevi 
Blood Bank, nil",HYDERABAD,TELANGANA,PPN
Srihitha Hospital,"No - 13-17-87 NR, Opp Pulla Reddy Sweet House, Beside 
Malabar Gold, Chaitanyapuri, Dilsukhnagar",HYDERABAD,TELANGANA,PPN
Sree Lekha Hospital,"H.No.11-1-138,139,140 Near Bhakta Ramadasu 
Kalakshetram, Sri Ram Nagar, Khammam-nil",HYDERABAD,TELANGANA,NON PPN
Sangeetha Hospital,"17, Vidyanagar Road No.1,Pothireddy pally-X Road-5Tesla 
Diagnostics Back Side",HYDERABAD,TELANGANA,NON PPN
Jeevan Hospital,"8-4-21-5, Beside Mega Function Hall, Pavan Puri Colony, 
Karmanghat, Sagar Road,",HYDERABAD,TELANGANA,PPN
Janani Hospitals,"17-2-626/1, Madannapet Main Road,Saidabad,Opp. Success 
School",HYDERABAD,TELANGANA,NON PPN
Ushodaya Hospitals,"8-2-157/1, Shodan Paints Complex,Wyra Road,Khammam",HYDERABAD,TELANGANA,NON PPN
Viswas Multispeciality Hospital,"8-2-77/1, Karmanghat,Champapet,Near Hanuman Temple",HYDERABAD,TELANGANA,NON PPN
RBM Hospital,"1-10/5, Bommak Brothers Colony,Boduppal,Near B.R. 
ambedkar Statue",HYDERABAD,TELANGANA,NON PPN
Maax Life Multispeciality Hospitals,"Plot No A/529, Opp Mega Function Hall, Karmanghat",HYDERABAD,TELANGANA,PPN
Citi Neuro Centre Hospital,"MLA Colony, Road No - 12, Banjara Hills, nil",HYDERABAD,TELANGANA,PPN
Pratibha Super Speciality Hospital,"5-677/1, Pragatri Nagar, NizamabadJoyalukkas Buliding,",HYDERABAD,TELANGANA,NON PPN
New Shadow Hospital,"5-34, Anajpur Road, Abdullapurmet,Dist. Rangareddy",HYDERABAD,TELANGANA,NON PPN
Happy Hospital,"83&103, Main Road, Madinaguda,Dist. Rangareddy",HYDERABAD,TELANGANA,NON PPN
Hyderabad Multispeciality Hospital,"16-2-674/11, Judges Colony Malakpet,nil",HYDERABAD,TELANGANA,PPN
Ankura Hospital(Sainikpuri),"Beside ICICI Bank, Sainikpuri, A S Rao Nagar,nil",HYDERABAD,TELANGANA,PPN
Ankura Hospital(Boduppal),"Beside Icici Bank Main Road,, Peerzadiguda, Boduppal,nil",HYDERABAD,TELANGANA,PPN
Ankura Hospital(Madinaguda),"Beside Bharat Petrol, Deepthisri Nagar, Madinaguda, 
Hafeezpet,nil",HYDERABAD,TELANGANA,PPN
Anupama Hospital,"Eenadu Colony, VV Nagar colony, Main Raod, Kukatpally,nil",HYDERABAD,TELANGANA,PPN
Ent Care Hospital,"Plot Number 336, Calvary Temple Road, Matrusri Nagar, 
Landmark : Near Calvary Temple,nil",HYDERABAD,TELANGANA,PPN
Fatima Hospital,"9-2-24/20/7/6, New Idgah Road, Jahannuma, Nawab Saheb 
Kunta,nil",HYDERABAD,TELANGANA,PPN
Mana Hospitals,"498, Rd Number 2, Chaitanya Nagar, Vivekananda Nagar, 
Kukatpally,nil",HYDERABAD,TELANGANA,PPN
MEDS Hospital,"21-4-736, Koka Bazaar, Puranapul, Gulab Singh Bowli, 
Hussaini Alam,nil",HYDERABAD,TELANGANA,PPN
Nakshatra Hospitals,"Opp. Swagath Grand Hotel, Alkapuri X Roads, LB Nagar-
Uppal Rd, East Yadav Nagar, Ramakrishnapuram, LB 
Nagarnil",HYDERABAD,TELANGANA,PPN
Rohan Hospital,"Vijay nagar Colony, Opp Vijaya Bank, Beside post office, 
Mehdipatnam,nil",HYDERABAD,TELANGANA,PPN
Safe Kids Hospitals,"Pillor no 108, Inner Ring Rd, Moghal Nagar, Karwan,nil",HYDERABAD,TELANGANA,PPN
Shashi Hospital,"Door No 6,Beside Andhra Bank ATM, Dilsukh Nagar, 
Gaddiannaramnil",HYDERABAD,TELANGANA,PPN
Sunita Childrens Hospital,"Shop No. 82, Opposite Rose Gardens, Sagar Road, Santosh 
Nagar,nil",HYDERABAD,TELANGANA,PPN
Surekha Hospital,"Komplly,nil",HYDERABAD,TELANGANA,PPN
Srikara Hospitals,"Main road, NH-7, Near Cine planet, Kompally,nil",HYDERABAD,TELANGANA,PPN
Onus Hospital,"17-1-382/B/7, Bhance Co-Operative Society,Champapet, 
Rangareddy,OPP SBI Bank,",HYDERABAD,TELANGANA,NON PPN
Krishna Hospital,"H.No- 8-147, Gayathrinagar X Roads, Karmanghat,nil",HYDERABAD,TELANGANA,PPN
Mythri Hospital Chandranagar,"Plot No- 5-4 / 12 To 16, Main Road, Plot No- 5-4 / 12 To 16, 
Main Road, Chandanagar ,nil",HYDERABAD,TELANGANA,PPN
Poojitha Hospital,"7-2-1799 / 4A / 2, Sanathnagar, Czech Colonynil",HYDERABAD,TELANGANA,PPN
SS Multi Speciality Hospital,"7-4-25/S/N, Beside Ioc Petrol Pump Omkar Nagar Sagar 
Road,nil",HYDERABAD,TELANGANA,PPN
Dharani Hospital,"12-2-417/46/8/G1, Hari Hara Teja Apts, shiv bagh, Near 
gudimalkapur X roads, karwan.nil",HYDERABAD,TELANGANA,PPN
Ragini Childrens Hospital,"Opp.Adarsh Bank, Beside Sagar Hotel, Main Rd, Shapur 
Nagar, Jeedimetla,nil",HYDERABAD,TELANGANA,PPN
Sriven Hospital,"Hig-9, 6th Phase, Kphb Colony, Kukatpally.nil",HYDERABAD,TELANGANA,PPN
Swaroopa Multispeciality Hospital,"6-32/A, Nirmala Residency, vennelagadda, qutbullapur road, 
suchitraJeedimetla,",HYDERABAD,TELANGANA,PPN
"Maxcure Suyosha Woman And Child 
Hospital","Behind Cyber Towers, In the Lane of IBIS Hotel, Hitech 
City, Madhapur,PLOT NO 7, SURVEY NO 64",HYDERABAD,TELANGANA,PPN
Metro Cure Hospital,"16-2-661/EFGH, Judges Colony, Lane Beside Bajaj 
Electronics, Malakpet,nil",HYDERABAD,TELANGANA,PPN
Calcium Hospital,"Behind ICICI Bank ATM, Opp Akshara school, HT Road, 
Nizampet Rd, A.S.R.Raju Nagar,nil",HYDERABAD,TELANGANA,PPN
Skycare Hospitals Pvt Ltd,"8-2-335/2/A/1, Road No.5, Banjara Hills,nil",HYDERABAD,TELANGANA,NON PPN
"Raksha Cancer Hospital And 
Chemotherapy Centre","Sai Preeti Complex, Flat No. 3-1-399-402,,Ambedkar 
Road,,Karimnagar",Karimnagar,TELANGANA,NON PPN
Renee Hospital,"H. No.3-1-336, Behind Civil Hospital,,Karimnagar",Karimnagar,TELANGANA,NON PPN
Star Children Hospital,"4-101,Saraswathi Nagar,,",Karimnagar,TELANGANA,NON PPN
Sai Sharanya Hospitals,"7Hills, Behind Laxman Orthopaedic Hospital,Karimnagar,nil",Karimnagar,TELANGANA,NON PPN
Sparsh Childrens Hospital (Karimnagar),"3-3-127, Nawab Complex,Opp. Dr Bhoomreddy Hospital,",Karimnagar,TELANGANA,NON PPN
Sri Mahalaxmi Children Hospital,"Opp. Ravindra Prasad Hospital, Janmabhoominagar 
Kamam,Bellampally Road,Mancherial,",Karimnagar,TELANGANA,NON PPN
Sri Balaji Multi Speciality Hospital,"Nh-9,Kandi Village,,,X' Road,Sangareddy,",Sangareddy,TELANGANA,NON PPN
Parvathi Multispeciality Hospital,"E-30-31, VIKRAMPURI COLONEY, NEAR SECUNDERABAD 
CLUB,Secunderabad",SECUNDERABAD,TELANGANA,NON PPN
"Healing Touch Hospital And Institute of 
Child Health Pvt Ltd","8-1-9, Market Street, Opposite Clock Tower, Secunderabad, 
Telangana 500003Secunderabad",SECUNDERABAD,TELANGANA,NON PPN
Srinivasa Hospital,"256,HASTINA PURI COLONY,SAINIK PURI,SECUNDRABAD-
500094,ANDHRA PRADESHSecunderabad",SECUNDERABAD,TELANGANA,PPN
Janapareddy Hospital,"26/A, ,SIKH VILLAGE, SECUNDERABAD-
500009SECUNDERABAD",SECUNDERABAD,TELANGANA,NON PPN
Basant Sahney Hospital,"No.253, Nehru Nagar, West Marredpally, Nehru Nagar",SECUNDERABAD,TELANGANA,NON PPN
Sunshine Hospital,"1-7-201 to 205, Prenderghast Road, Paradise Circle,",SECUNDERABAD,TELANGANA,PPN
BBR Super Speciality Hospital,"7-4-194, Ferozguda, Balaxiagar",SECUNDERABAD,TELANGANA,PPN
Geetha Multispeciality Hospital,"10-1-5/C, Road No-4, West MarredpallySECUNDERABAD",SECUNDERABAD,TELANGANA,PPN
Srikara Hospitals,"10-03-188, St. Johns Road,,Opp. Railway Reseruation 
Counter,,Behind Ramakrishna Hotel,SECUNDERABAD",SECUNDERABAD,TELANGANA,PPN
Balaji Hospital,"Plot No -34/A, NCL South, Pet Basheerabad, Medchal Road,",SECUNDERABAD,TELANGANA,PPN
"Navjeevan Hospitals (A Unit Of 
Navjeevan Life Care Pvt Ltd)","Plot No. 90, P & T Coloney, Vikrampuri,,Karkhana Main 
Road",SECUNDERABAD,TELANGANA,PPN
Meena Hospital,"10-5-682/2 Sri Ranga Towers , SecunderabadSecunderabad",SECUNDERABAD,TELANGANA,PPN
Sunlife Hospital,"6-3/1, Ramana Nagar Colony, Beside Ayyappa Colony Bus 
Stop, Dammaiguda, Keesara Mandal, Ranga ReddyRanga 
Reddy",SECUNDERABAD,TELANGANA,PPN
Jubilee Hospitals,"Bunglow No. 56, Survey No. 606,, G.V. Reddy Colony, Opp. 
Rythubazar, Alwal, Secunderabad,Opp. Rythubazar, 
AlwalSECUNDERABAD",SECUNDERABAD,TELANGANA,PPN
Basant Sahney Hospital,"HNO-3-5-244,SAYAD JALAK GARDEN,INEST MARRED 
PALLYSECUNDERABAD",SECUNDERABAD,TELANGANA,NON PPN
Innova Childrens Heart Hospital pvt ltd,"#12-5-30,White House,Tarnaka, Moola-ali Road 
SeconderabadSECUNDERABAD",SECUNDERABAD,TELANGANA,NON PPN
"Apollo Hospitals Enterprises 
Ltd(Secunderabad)","St. John Road,,Next To Key'S High School,,St. John 
Road,Secunderabad",SECUNDERABAD,TELANGANA,PPN
Prasad Hospitals,"44-617/12, IDA Nacharam, Behind Telephone Exchange, 
Nacharam, SecunderabadNacharam",SECUNDERABAD,TELANGANA,PPN
BVK Reddy Hospital,"12-11-1256, Boudha Nagar, Warasiguda, Boudhanagar 
Colony, Secunderabad, Telangana 500061Secunderabad",SECUNDERABAD,TELANGANA,PPN
Keerthi Hospital,"Rampally X Road, Nagaram, Secunderabad, Telangana 
500083Nagaram",SECUNDERABAD,TELANGANA,NON PPN
Care Hospitals,"Near Clock Tower, Monda Market, 
SecunderabadSecunderabad",SECUNDERABAD,TELANGANA,PPN
Bhavans Sarada Devi Hospital,"Dr A S Rao Nagar Rd,,Officers Colony, Dr As Rao 
Nagar,,SainikpuriSecunderabad",SECUNDERABAD,TELANGANA,PPN
New Life Line Medicure Hospitals,"1-13/20, Lothkunta Signal,,Opp: Nartaki Tiffins, Lothkunta, 
Alwal",SECUNDERABAD,TELANGANA,PPN
"Mayflower Hospital For Women And 
Children","Plot No 42,43,45 & 46,Vijayapuri Colony,,Dr As Rao 
Nagar,Sainikpuri,,TelanganaNIL",SECUNDERABAD,TELANGANA,PPN
"Navodaya Hospital For Women And 
Children","1-70 To 73 , Mashallaw Building,,Paradise Circle, Pg Road, 
Beside Sunshine Heart Institute,TelanganaNIL",SECUNDERABAD,TELANGANA,PPN
Nest Hospital,"3-7-218,Harsha Towers,Beside Lucid Diagnostics,,Kharkana 
Main Road,,",Secunderabad,TELANGANA,PPN
Prashamsa Hospital,"10-11/6, Temple Alwal, SecunderabadNear clmamaheswar 
temple",SECUNDERABAD,TELANGANA,NON PPN
Rainbow Children Hospital,"Plot No - C17, Vikrampuri Colony, NIL",SECUNDERABAD,TELANGANA,PPN
Shree Pooja Hospital Hyd,"Street N O.1, Hmt Nagar, Andhra Bank,Opp.S.R.Digi 
School,,Nacharam,NIL",SECUNDERABAD,TELANGANA,PPN
Shri Adithya Hospitals,"Plot No 4 5 & 11 Dammaiguda Main Raod,Keesara Mandal 
Nr Ecil,NIL",SECUNDERABAD,TELANGANA,PPN
Sri Chandra Hospital,"3-4-261, Sawaran Street, Civil Hospital Road, Karimnagar",SECUNDERABAD,TELANGANA,NON PPN
Sudha Hospital(Telanagana),"H.No.30-1587/1, Plot No.25,Chandra Giri Colony, Krupa 
Complex,,Beside Boi, Old Safilguda,,Mallakajgiri, Medchal",SECUNDERABAD,TELANGANA,PPN
"Suraksha Children Hospital (A Unit Of 
Rochishmati Health Care Pvt Ltd)","12-13-64 Beside Tarnaka Flyover,,Tarnaka Main Road,NIL",SECUNDERABAD,TELANGANA,PPN
KS Multi Speciality Hospital,"Plot No -3, Ganesh Nagar Hasmatpet, Secunderabad, 
Telangana 500011Hasmatpet",SECUNDERABAD,TELANGANA,PPN
Amrutha Children Hospital,"H. No 5-10-15, Kishanpura, Hanamkonda, Beside Lane Of R 
D Junior College, Hanamkonda, Warangal, Telangana 
506001Hanamkonda",SECUNDERABAD,TELANGANA,NON PPN
Kruti Hospital,"Plot No. 27 & 28, Hasmathpet Road, Beside Reliance Fresh 
Super Market, Bowenpally, Secunderabad, Telangana 
500011Secunderabad",SECUNDERABAD,TELANGANA,PPN
Lotus Cure Multispeciality Hospital,"Survey no-56, Hashmatpet Road, Tirumalgherry Cross 
RoadSecunderabad",SECUNDERABAD,TELANGANA,NON PPN
Sundari Maternity and General Hospital,"8-84,Temple Alwal Road,Alwalnil",SECUNDERABAD,TELANGANA,PPN
Shenoy Hospital,"10-3-4, Entrenchment Road, East Marredpally,nil",SECUNDERABAD,TELANGANA,PPN
Ankura Hospital,"Near Yatri Nivas, SP Road, Opp. Metro Pillar No. 23, Beside 
Dominos Pizza, Begumpet,nil",SECUNDERABAD,TELANGANA,PPN
Nest Children Hospital,"Plot No A 7, Behind Food World,Kharkhana Road, 
Vikrampuri Colony-Vikrampurinil",SECUNDERABAD,TELANGANA,PPN
Lions Patny Hospital,"hop No.9/72, Boosareddyguda, Suman Housing Colony, 
West Marredpally Road,New municipal park,",SECUNDERABAD,TELANGANA,PPN
Guardian Multi Speciality Hospital,"#15-1-237, Opp.L.B.College,,Mulugu 'X' 
Road,,TelanganaNIL",WARANGAL,TELANGANA,NON PPN
Lalitha Hospital,"Opposite Laxmi Talkies, Jayaprakash Narayan Road, 
Sherpura, Warangal, Telangana 506002Warangal",WARANGAL,TELANGANA,NON PPN
Javitri Devi Memorial Hospital,"51/10-J/19-West Arjun Nagar, AgraAgra",AGRA,UTTAR PRADESH,NON PPN
New Life Hospital,"Opp.Nari Niketan (Mahila Jail),,100feet Road,Kalindi Vihar, 
Agra,",Agra,UTTAR PRADESH,NON PPN
Shanti Mangalick Hospital(Agra),"Fatehabad Road,P O,Agra",Agra,UTTAR PRADESH,NON PPN
Mithraj Multisuperspeciality Hospital,"Ramghat Road,,Near Sports Stadium,,Aligarh",Aligarh,UTTAR PRADESH,NON PPN
Priti Hospital,"29-B, Panna Lal Road,,Near Indian Press & Anthony 
School,Allahabad",ALLAHABAD,UTTAR PRADESH,NON PPN
Feroz Hospital,"Mirzapur Road, RampurKarchhana, AllahabadAllahabad",ALLAHABAD,UTTAR PRADESH,NON PPN
Srijan Vatsalya Hospital Pvt Ltd,"8/1/6, Elgin Road, Civil Lines , Opp. Prayag Mahila 
Vidyapeeth SchoolAllahabad",ALLAHABAD,UTTAR PRADESH,NON PPN
Saran Hospital,"73-A, Mal Godam Road,Near Raliway Juction,BareillyNIL",BAREILLY,UTTAR PRADESH,NON PPN
Khushlok Hospital,"Near sindhi market, Near Police chowki Model town,stadium 
road,Hajiyapur,",BAREILLY,UTTAR PRADESH,NON PPN
Metro Vision Hospital,"Near Petrol Pump, Mini By Pass, Road Bareilly, Bareilly, 
Uttarpradesh - 243122Bareilly",BAREILLY,UTTAR PRADESH,NON PPN
Ajay Pratima Hospital,"57, Brajlok Colony,Prem Nagar,Near Sood Dharam Kanta,",BAREILLY,UTTAR PRADESH,NON PPN
"Shri Ganga Charan Aryawardhan Hospital A-2, Rampur Garden,,Opp Gandhi Udhyan,Civil Lines,NIL",,BAREILLY,UTTAR PRADESH,NON PPN
"Shrinath Medicity A Multi Super Speciality 
Hospital","7,Pilibhit,Byepass Road,,Shakti Nagar,NIL",BAREILLY,UTTAR PRADESH,NON PPN
Shri Bholanath Global Hospital,"Bisalpur Road,Near Bank of Baroda,Opp. Green Park,",BAREILLY,UTTAR PRADESH,NON PPN
Dr GK Shrivastava Hospital,"13-D, Rampur Garden, Near Vikas Bhawan,",BAREILLY,UTTAR PRADESH,NON PPN
Rohilkhand Medical College And Hospital,"Opp. Sureshsharma Nagar,Pilibhit Bypass Road,nil",BAREILLY,UTTAR PRADESH,NON PPN
Narayana Hospital,"D-10, Rampur Garden,nil",BAREILLY,UTTAR PRADESH,NON PPN
Life Line Multispeciality Hospital(Bareilly),"Suresh Sharma Nagar, Pilibhit Bypass Road,nil",BAREILLY,UTTAR PRADESH,NON PPN
Care Hospital(Bareilly),"Near Delapeer Petrol Pump, Stadium Road,nil",BAREILLY,UTTAR PRADESH,NON PPN
Ruchi Atul Hospital,"241, Choupla Road,Near Telephone Exchange",BAREILLY,UTTAR PRADESH,NON PPN
Vaidik Hospital,"A-38, Rajendra Nagar,nil",BAREILLY,UTTAR PRADESH,NON PPN
Pulkit Memorial Hospital,"Bairaj Road,nil",BIJNORE,UTTAR PRADESH,NON PPN
"Kailash Hospital ( A Unit Of Umma 
Medicare Ltd)","Plot No. 1727, Tappal Road,,Thr. Yamuna,,Jewar Bangar,","Gautam Buddha 
Nagar",UTTAR PRADESH,NON PPN
Yashoda Hospital Nehru Nagar,"3 Rd-M, Nehru Nagar,,,Nehru NagarNEHRU NAGAR",GHAZIABAD,UTTAR PRADESH,PPN
Chandra Laxmi Hospital,"Sector 4/337 A9 Sector 4/337 Vaishali,Ghajiabad,Sector 
4/337,VaishaliVAISHALI",GHAZIABAD,UTTAR PRADESH,PPN
Ganesh Hospital,"11-C/3, 2-C/3, Nehrugar,Ghaziabad Nehru Nagar,,11-
C/3,,GhaziabadNIL",GHAZIABAD,UTTAR PRADESH,PPN
Sarvodaya Hospital And Heart Centre,"D-3, Kavi Nagar Industrial Area,,Industrial Area,,Kavi 
NagarNIL",GHAZIABAD,UTTAR PRADESH,NON PPN
Meenakshi Hospital,"B-13, Dabur Corporate Office,Near Anand Vihar, 
Kaushambhi",GHAZIABAD,UTTAR PRADESH,PPN
Sarvodaya Hospital,"342, Sector- 4,,Vaishali, Nr. Dabur,GhaziabadNIL",Ghaziabad,UTTAR PRADESH,NON PPN
Gargi Hospital,"R-9/182, RAJNAGAR,NIL",GHAZIABAD,UTTAR PRADESH,NON PPN
Shanti Gopal Hospital,"Plot No-Nh-I,Anisha Khand-Ii,Indrapuram",GHAZIABAD,UTTAR PRADESH,PPN
Yashoda Super Speciality Hospital,"H - 1, Kaushambi,,Near Dabur Chowk,,GhaziabadNIL",GHAZIABAD,UTTAR PRADESH,PPN
Manav Hospital Ghaziabad,"B-Block Market, Kavi Nagar,",GHAZIABAD,UTTAR PRADESH,PPN
Kamal Hospital Kaushambi,"KA-BLOCK,KAUSHAMBI,OPP.WAVE 
CINEMA,GHAZIABADGHAZIABAD",GHAZIABAD,UTTAR PRADESH,PPN
Paras Hospital,"130, Sector - 4,,Vaishali,GhaziabadGhaziabad",GHAZIABAD,UTTAR PRADESH,PPN
Pannalal Shyamlal Hospital,"2nd F/ 172, Nehru Nagar,,At Kalkagarhi Crossing, Ambedkar 
Road,,GhaziabadNIL",Ghaziabad,UTTAR PRADESH,NON PPN
"Max Healthcare Super Speciality Hospital W-3, Sector-1, VaishaliVaishali",,GHAZIABAD,UTTAR PRADESH,PPN
Krishna Hospital And Trauma Centre,"J, 85,Patel Nagar, I , GhaziabadGaziabad",GHAZIABAD,UTTAR PRADESH,PPN
Amicare Hospital Pvt Ltd (Ghaziabad),"15/16, Nyay Khand-I,,Near Indirapuram Public 
School,,Indirapuram",GHAZIABAD,UTTAR PRADESH,PPN
Aarogya Hospital,"Plot No. Nh-1 Sector 6,Vaishali,GhaziabadNIL",GHAZIABAD,UTTAR PRADESH,PPN
Ambay Hospital,"1, Lajpat Nagar,,,Sahibabad,NIL",GHAZIABAD,UTTAR PRADESH,PPN
Columbia Asia Hospital,"Nh-24, Hapur Road, Nagpur Road,,Bahmeta Village,,Near 
Land Craft Golflinks,NIL",GHAZIABAD,UTTAR PRADESH,PPN
"Navin Hospital ( A Unit Of Navin 
Meditech Pvt Ltd )","Nh-1, Sector-3, Vaishali,,Near Water Tank,VaishaliNIL",GHAZIABAD,UTTAR PRADESH,PPN
Prem Dharam Hospital And Diagnostics,"10d - 180, Vasundhara,Opp.Sg Alpha Tower,Bank Of 
Baroda,",Ghaziabad,UTTAR PRADESH,NON PPN
Rama Hospital And Resesarch Centre,"Rama Delhi Nh24, Hapur Delhi Highway 38km,,Panchsheel 
Nagar, Mother Dairy And Jindal Pipeline 
Company,,Milestone,NIL",GHAZIABAD,UTTAR PRADESH,NON PPN
Shree Narayan Hospital,"889, Niti Khand 1st Indirapuram.,,",Ghaziabad,UTTAR PRADESH,NON PPN
LYF Hospital,"NH 4, Begum Hazart Mahal Marg, Opp. St Thomas School 
Gate No. 4, Gyan Khand 1, Indirapuram,",GHAZIABAD,UTTAR PRADESH,PPN
"Atlanta Mediworld Multispeciality Hospital 
& Research Centre","Plot No-Nh-01, Sector-14, Atal Chowk , Vasundhara",GHAZIABAD,UTTAR PRADESH,PPN
Jagmohan Multispeciality Hospital,"E -10, Rameshwar Park, Khajuri Pushta Road,nil",GHAZIABAD,UTTAR PRADESH,PPN
Healing Tree Hospital,"30/1, Shakti Khand Indirapuram,nil",GHAZIABAD,UTTAR PRADESH,PPN
Sharda Hospital (Noida),"Plot No. 32/34,,Knowledge Park Iii,,Greater NoidaGreater 
Noida",GREATER NOIDA,UTTAR PRADESH,PPN
Promhex Hospital,"Plot No. Nh-34, P-2, Omega-1,,Gautam Budm Nagar,,Opp. 
Yamuna Express Way Authornil",GREATER NOIDA,UTTAR PRADESH,PPN
Dev Nandini Hospital,"Garh Road Railway Crossing,Hapur,Hapur",HAPUR,UTTAR PRADESH,NON PPN
LAxmi Health Care Center & Hospital,"Kuttupur Chowck, Shahganj Road, JaunpurJaunpur",Jaunpur,UTTAR PRADESH,NON PPN
Madhuraj Hospital,"113/121, SWROOP NAGAR, NIL",KANPUR,UTTAR PRADESH,NON PPN
"Apollo Spectra Hospitals (Apollo 
Speciality Hospitals Private Ltd)","14/138, Chunni Ganj, Kanpur-208001Kanpur",KANPUR,UTTAR PRADESH,NON PPN
Emerald Multi Specialty Hospital,"438, H-2,,Kidwai Nagar,,(In Front Of Sanjay Van)",Kanpur,UTTAR PRADESH,NON PPN
Guru Teg Bahadur Charitable Hospital,"120/192 (105), Opp. Guru Nanak Public School (Mariampur 
School),,Near Haueli Restrurent,,Lajpat Nagar,",KANPUR,UTTAR PRADESH,NON PPN
JL Rohatgi Hospital,"117/52, Sarvodaya Nagar, Near Bhoot Nath Mandhir, NIL",KANPUR,UTTAR PRADESH,NON PPN
Kulwanti Hospital And Research Center,"117/N/8, Saket Puri ,,KakadeoNIL",KANPUR,UTTAR PRADESH,NON PPN
Rama Hospital Research Centre,"A-1/8,Lakhanpur ,,,Kanpur",Kanpur,UTTAR PRADESH,NON PPN
SIS Hospital & Research Centre,"B- Commercial , 1/9, Ambedker Nagar Awas Vikas No-3, 
Kalyan Pur, Kanpur",KANPUR,UTTAR PRADESH,NON PPN
Fortune Hospital,"117/Q/40-A, Sharda Nagar, KanpurKapnpur",KANPUR,UTTAR PRADESH,NON PPN
Naraina Hospital & Research Centre,"1180, Gangaganj, Panki Kanpur NagarKapnpur",KANPUR,UTTAR PRADESH,NON PPN
Lucknow Hospital,"Behind Krishna Nagar Police Station,,Kanpur 
Road,,LucknowLucknow",LUCKNOW,UTTAR PRADESH,NON PPN
Ajanta Hospital And Ivf Centre Pvt Ltd,"765, ABC Complex, Kanpur Road, Alambagh, Lucknow, 
Uttar Pradesh 226005Lucknow",LUCKNOW,UTTAR PRADESH,NON PPN
"Aastha Centre For Geriatric Medicine 
Palliative Care Hospital And Hospice","B-52, J-Park Mahanagar Extension,,,NIL",LUCKNOW,UTTAR PRADESH,NON PPN
Ford Hospital Unit Of Nova Hospital LTD,"NURSING HOME PLOT NO.2, VIKAS KHAND-1, PATRAKAR 
PURAM CROSSING, GOMTI NAGAR, LUCKNOW",LUCKNOW,UTTAR PRADESH,NON PPN
M.V.Hospital And Research Centre,"314/30, Mirza Mandi ChowkNILL",LUCKNOW,UTTAR PRADESH,NON PPN
Shalimar Hospital,"A-989, Indira Nagar,Near Shalimar Crossing,Lucknow",Lucknow,UTTAR PRADESH,NON PPN
Ahuja Hospital,"4-488,Vivek Khanna,Gomati NagarLucknow",LUCKNOW,UTTAR PRADESH,NON PPN
Vinayak Medicare Hospital,"Near Vinayak Indian Oil Petrol Pump Bijnaur Lucknow 
Lucknow",LUCKNOW,UTTAR PRADESH,NON PPN
Nayati Multi Superspeciality Hospital,"Next To Cng Pump,Nh-2,Mathura",MATHURA,UTTAR PRADESH,NON PPN
Sirohi Hospital And maternity Home,"Multan Nagar, Baghpat Road,Near Bhola Check Post,",MEERUT,UTTAR PRADESH,NON PPN
Jaswant Rai Speciality Hospital,"Opp: Sports Stadium,,Mawana Road,,Civil LinesNIL",MEERUT,UTTAR PRADESH,NON PPN
"Yashlok Hospital And Nursing Home Pvt 
Ltd","Eastern Kutchery Road,,Shivaji Marg,,Near Vaism 
AnathalayaNIL",MEERUT,UTTAR PRADESH,NON PPN
Mrityunjay Hospital,"143, College Road, Chippi Tank, Near Loyal Book Depot, 
MeerutMeerut",MEERUT,UTTAR PRADESH,NON PPN
Chhatrapati Shivaji Subharti Hospital,"Subharti Medical Collage, Swami Vivekanand Subharti 
Vishwavidhyalya, Delhi Haridwar, Byepass Road 
MeerutMeerut",MEERUT,UTTAR PRADESH,NON PPN
Meerut Critical Care Hospital,"L-637, Shastri Nagar, Hapur Road, Meerut, Uttarpradesh 
Meerut",MEERUT,UTTAR PRADESH,NON PPN
"Anand Hospital(Anand Nirogdham 
Hospital Pvt Ltd)","A-1, Damoder Colony,Garh Road,Near Medical colony",MEERUT,UTTAR PRADESH,NON PPN
Bhagya Shree Hospital,"231,233,Mangal Pandey Nagar,Near Bharat Petrol 
Pump,Garh Road",MEERUT,UTTAR PRADESH,NON PPN
Bhupal Hospital Meerut,"159, Begum Bridge Road,Near Ganga Plaza Complex,NIL",MEERUT,UTTAR PRADESH,NON PPN
Iimt Life Line Hospital,"'O' Pocket, Ganga Nagar,Mawana Road,Iimt Engineering 
CollegeNIL",MEERUT,UTTAR PRADESH,NON PPN
Kmc Hospital And Research Centre,"187, Baghpat Road",MEERUT,UTTAR PRADESH,NON PPN
"Metro Hospital And Heart 
Institute(Meerut)","47/G-5,Boundary Road,,Lal Kurti,Lal KurtiNIL",MEERUT,UTTAR PRADESH,NON PPN
Sm Hospital,"A-15 Shastri Nagar,Garh Road,NIL",MEERUT,UTTAR PRADESH,NON PPN
Nutema Hospital,"Opp. LLRM Medical College, Near Mansa Devi Rd,, Garh 
Road,, Meerut, Uttar Pradesh 250004Meerut",MEERUT,UTTAR PRADESH,NON PPN
Nexaa Hospital,"Vill. Dungrawali,NH-58,nil",MEERUT,UTTAR PRADESH,NON PPN
CNS Hospital,"BC-09, Lohia Nagar, Bye- Pass Police Chowki, Hapur 
Road,Opp. Bijli Bamba,",MEERUT,UTTAR PRADESH,NON PPN
Murti Multispeciality Hospital,"44-A, Saket,Gol Market saket,",MEERUT,UTTAR PRADESH,NON PPN
Om Trauma And Neuro Hospital,"C-8-9/5, Jaarati Vihar, Garh Road,OPP Medical 
College(LLRM),",MEERUT,UTTAR PRADESH,NON PPN
Silver Cross Hospital And Trauma Centre,"108/1, Jagriti Vihar, Garh RoadOpp Anand hospital",MEERUT,UTTAR PRADESH,NON PPN
Yug Hospital,"Near Nandan Cinema, Old Hapur Stand,Garh Road",MEERUT,UTTAR PRADESH,NON PPN
Navjeevan Hospital,"Near Apex Tower ,447/1, Mangal Pandey Nagar,nil",MEERUT,UTTAR PRADESH,NON PPN
Mediverve Hospital,"C-13/5, Jagrati Vihar, Garh Road, Opp 1st gate of LLRM 
Medical College,",MEERUT,UTTAR PRADESH,NON PPN
Capital Hospital,"L-501, Shastri Nagar, Meerut,Near DAV School,",MEERUT,UTTAR PRADESH,NON PPN
Cosmos Hospital,"Premnagar,PO-Kazipur, Kanth Road,Near Kothiwal dental 
College,",MORADABAD,UTTAR PRADESH,NON PPN
"Asian Vivekanand Super Specialty 
Hospital","Kanth Road,Moradabad,MoradabadNear MDA Office",MORADABAD,UTTAR PRADESH,NON PPN
Sri Sai Hospital (Moradabad),"Mansarovar Colony,Delhi Road,Locoshed Bridge",MORADABAD,UTTAR PRADESH,NON PPN
RSD Hospital And Research Centre,"Ram Ganga Vihar, Phase-2, RSD Academy Campus,nil",MORADABAD,UTTAR PRADESH,NON PPN
"Sahu Rameshwar saran Kothiwal 
Hospital(SRSK)","Kanth Road, Kothiwal Dental College & Research Centrenil",MORADABAD,UTTAR PRADESH,NON PPN
"Neo Hospital(Muskan Medical Centre 
Pvt.Ltd)","-170A, SECTOR - 50, NEAR NOIDA CITY CENTRE, NOIDA, 
UTTARPRADESH - 201302NOIDA CITY CENTR",NOIDA,UTTAR PRADESH,PPN
Apollo Hospital Noida,"E-2 SECTOR - 26,NOIDA",NOIDA,UTTAR PRADESH,PPN
"Kailash Hospital And Research Centre Ltd H-33, Sector-27,Noida",,NOIDA,UTTAR PRADESH,PPN
Metro Hospital And Heart Institute,"X-1, Sector -12,Close To Chowda Mode,NoidaNIL",NOIDA,UTTAR PRADESH,PPN
Navin Hospital Pvt Ltd (G. Noida),"N.H.- 3, Pocket -- F , Sector - Alpha - Ii,Greater 
Noida,NoidaNIL",NOIDA,UTTAR PRADESH,PPN
Kailash Hospitals Ltd (Greater Noida),"23, Institunal Area,,Knowledge Park-I,Near Pari 
Chowk,,Greater NoidaNIL",NOIDA,UTTAR PRADESH,PPN
Surbhi Hospital Pvt Ltd,"Golf Course Road, Morna, Sector-35, Noida",NOIDA,UTTAR PRADESH,PPN
Prakash Hospital Pvt Ltd,"D-12,12 A,12 B, Sector 33, NIL",NOIDA,UTTAR PRADESH,PPN
Metro Multi Speciality Hospital,"L- 94, , Sector - 11,,,NIL",NOIDA,UTTAR PRADESH,PPN
Astha Hospital Noida,"NH-05, BLOCK-I, SEC- ALPHA-2, GREATER NOIDA-
201306NIL",NOIDA,UTTAR PRADESH,PPN
"Prayag Hospital And Research Centre 
Pvt.Ltd","J-206/A-1, SEC-41, NOIDANIL",NOIDA,UTTAR PRADESH,PPN
Indo Gulf Diagnostics And Hospital,"B-498-A,SEC.19,NOIDA,U.P.-201301NIL",NOIDA,UTTAR PRADESH,PPN
Vinayak Hospital,"NH-1, Sect-27, Atta, Noida, Uttar Pradesh-301201Noida",NOIDA,UTTAR PRADESH,PPN
Yatharth Wellness Hospital (Noida),"Plot No. 01,,Sector 110.,Noidanil",NOIDA,UTTAR PRADESH,PPN
Jaypee Hospital,"Sector-128,,Noida",NOIDA,UTTAR PRADESH,PPN
Durga Hospital,"Railway Road, Noida Road, Dadri GB NagarGB Nagar",NOIDA,UTTAR PRADESH,NON PPN
Felix Hospital,"Nh-01,,Sec-137,,Expressway,NIL",NOIDA,UTTAR PRADESH,PPN
Fortis Hospital Noida,"B-22, Sector 62, Gautam Buddh Nagar",NOIDA,UTTAR PRADESH,PPN
Green City Hospital,"NH-17 Delta-I, Opp Wipro India Ltd,",NOIDA,UTTAR PRADESH,PPN
Shri Ram Singh Multi Speciality Hospital,"Opp. OIDB Bhawan, Sec-70,nil",NOIDA,UTTAR PRADESH,PPN
Samvedna Hospital,"B-27-188-G, new Colony Ravindrapuri, VaranasiVaranasi",Varanasi,UTTAR PRADESH,NON PPN
Surya Super Speciality Hospital,"D 63/6- K, Prime Tower, Mahmoorganj Rd, Near Akashwani, 
Tulsipur, Mahmoorganj, Varanasi, Uttar Pradesh 
221010Mahmoorganj",VARANASI,UTTAR PRADESH,NON PPN
Bhargava Hospital And Trauma Centre,"S. 8/457 A,,Pandeypur Police Line Crossing,,Andha Mub",Varanasi,UTTAR PRADESH,NON PPN
Pmc Hospital Pvt Ltd,"B1-3/12, Ravindra Puri Extn, Behind Durgakund",VARANASI,UTTAR PRADESH,NON PPN
Archana Hospital And Lithotripsy Centre,"123-A, MAHINDRA VIHAR, BEHIND HOTEL SURBHI 
PALACE,BALLUPUR ROADNIL",DEHRADUN,UTTARAKHAND,NON PPN
Max Super Specialty Hospital,"Khasra No. 165, Mussoorie Diversion Road,Near Indian Oil 
Petrol Pump,,Malsi,Dehradun",DEHRADUN,UTTARAKHAND,NON PPN
Himalayan Hospital A Unit of SRHU,"Swami Ram Nagar, Beside Jolly Grant Airport, Jolly Grant, 
Doiwala, Dehradun, Uttarakhand 248016",DEHRADUN,UTTARAKHAND,NON PPN
Fortis Escorts Hospital Dehradun,"2nd Floor, Coronation Hosptial, Curzon Road,Near Windlass 
Residential Complex,Dalanwala",DEHRADUN,UTTARAKHAND,NON PPN
Krishna Hospital And Research Centre,"3-136, Gurunanak Pura,,Nainital Road,,HaldwaniNIL",HALDWANI,UTTARAKHAND,NON PPN
Sai Hospital Kaladhungi Road,"Kaladhungi Rd, Mukhani Chauraha, Haldwani, Uttarakhand 
263139Haldwani",HALDWANI,UTTARAKHAND,NON PPN
Matrix Hospital & accident Care,"Lal Danth, Kaladungi Road HaldwaniHaldwani",HALDWANI,UTTARAKHAND,NON PPN
City Hospital Haridwar,"Super Complex, Ranipur More, HaridwarHaridwar",HARIDWAR,UTTARAKHAND,NON PPN
"Metro Hospital And Heart Institute (A 
Unit Of Sunhill Hospital Pvt Ltd)","Plot No F-1,,Sec 6a,,SidculNIL",HARIDWAR,UTTARAKHAND,NON PPN
"Yog Mata Pilot Baba Multispeciality 
Hospital","Deshrkshak More Laksar Road,Kankhal,nil",HARIDWAR,UTTARAKHAND,NON PPN
Jeevandeep Hospital,"OPP.P.A.C.,NAINITAL ROAD,RUDRAPUR(UDHAM SINGH 
NAGAR),UTTRAKHANDRudrapur",RUDRAPUR,UTTARAKHAND,NON PPN
MP Memorial Hospital,"Near Civil Hospital, Ramnagar Road Kashipur, US 
Nagakashipur","UDHAMSINGHNAGA
R",UTTARAKHAND,NON PPN
Anand Hospital & Research Centre,"Chhabra Street, Sitargani Road, Khatima, Dist. Udham 
Singh Nagar, UttrakhandUdham Singh Nagar","UDHAMSINGHNAGA
R",UTTARAKHAND,NON PPN
Shree Krishna Hospital(Kashipur),"Opp:Chamunda Mandir,,Girital,,Kashipur","UDHAMSINGHNAGA
R",UTTARAKHAND,NON PPN
"Sahota Super Speciality Hospital And 
Neurotrauma Centre","Opp Jaspur Bus Stand, Moradabad Road, US 
Nagar,Kashipur,","UDHAMSINGHNAGA
R",UTTARAKHAND,NON PPN
Lila Hospital Pvt Ltd,"13/3/A, AC Road, MurshidabadNIL",BEHRAMPORE,WEST BENGAL,NON PPN
Kisholoy Childrens Hospital,"69, Gt Road, Kanainatshal, Sripally,Near Police Line Bazar,",BURDHWAN,WEST BENGAL,NON PPN
Diamond Hospital Pvt Ltd Andal,"Andal More,,Ukhra Road,,Burdwan, Andal",Durgapur,WEST BENGAL,NON PPN
"Iq City Narayana Multispeciality 
Hospital(A Division Of Iq City 
Foundation)","Sovapur, 6, Bijra Road, Jamua,,B-Zone, Durgapur-3,NIL",DURGAPUR,WEST BENGAL,NON PPN
Healthworld Hospitals,"C-49, Commercial Area, Opp. ESIC, Sub-Regional Office, 
Near Gandhi More, City Centre, Durgapur, West Bengal 
713216Durgapur",DURGAPUR,WEST BENGAL,NON PPN
We Care Hospital,"101/1/Z/Z/M,RS, Verma Road, Uttarpara,",HOOGHLY,WEST BENGAL,NON PPN
Kamala Ray Hospital Pvt Ltd,"20, K. G. T Road, Kotrung,,Hindmotor, 
Hooghly,,Uttarpara,NIL",HOOGLI,WEST BENGAL,NON PPN
Relife Multispecialty Hospital,"252/5, Kotrung GT Road Hindmotor Hooghly West 
BengalUttarpara,",HOOGLI,WEST BENGAL,NON PPN
Narayana Multispeciality Hospital,"Westbank Hospital, Chunavati, Abdul Road, Howrah - 
711109Howrah",HOWRAH,WEST BENGAL,NON PPN
"Sebabrata Super Specialist Hospital And 
Diagnostic Centre Pvt Ltd","Bazarpara, Uluberia,",HOWRAH,WEST BENGAL,NON PPN
"Narayana Superspeciality Hospital (Unit 
Of Meridian Research And Hospital Ltd","120/1, Andul Rd., Howrah,Juncation 2nd Hooghly 
Bridge,Howrah",HOWRAH,WEST BENGAL,NON PPN
"Sanjiban Hospital(A Unit Of Hybridization 
Udyog)","720-B,Birkenstock (North), P.O. Sijberia, P.S. 
Uluberia,HowrahUluberia",HOWRAH,WEST BENGAL,NON PPN
Ideal Clinic and Hospital Pvt Ltd,"1047/1182/505, Bazar Para, Ulubaria, HowrahHowrah",Howrah,WEST BENGAL,NON PPN
Shree Jain Hospital And Research Centre,"57a, 493 B/12, Grand Trunk Road (South),,Inside Bengal 
Jute Mill Compund, Shibpur, 24 Paragnas,,HowrahNIL",HOWRAH,WEST BENGAL,NON PPN
MCS Diagnostic and Hospital Pvt Ltd,Basudevpur BElkulal Uluberia HowrahHowrah,HOWRAH,WEST BENGAL,NON PPN
Medica Superspecialty Hospital,"127, Mukundpur,,,E. M. BypassKolkata",KOLKATA,WEST BENGAL,PPN
Health Point Multispeciality Hospital,"21, PRANNATH PANDIT STREET (OPP. LANSDOWN 
PADMAPUKUR), NIL",KOLKATA,WEST BENGAL,PPN
Apollo Gleneagle Hospital Ltd,"58,Canel Circular Road,,Kadapara,KolkataNIL",KOLKATA,WEST BENGAL,PPN
"North City Hospital And Neuro Institute 
Pvt Ltd","73, Baglan Road,,Near Ultadanga Road, Bagmari 
Road,,KolkataNIL",KOLKATA,WEST BENGAL,PPN
Zenith Super Specialist Hospital,"9/3,FEEDER RAOD, BelghoriaKolkata",KOLKATA,WEST BENGAL,PPN
Eco Hospital And Diagnostics,"111/1, Jessore Road,,,BarasatKolkata",KOLKATA,WEST BENGAL,PPN
AMRI Hospitals Salt Lake,"JC 16 & 17, Sec-3, Salt Lake City,",KOLKATA,WEST BENGAL,PPN
Anandalok Hospital,"Dk - 7/3 Salt Lake,,Near Karunamayee Of Gsi 
Building,KolkataKolkata",KOLKATA,WEST BENGAL,PPN
"Peerless Hospital And BK Roy Reseasrch 
Centre","360, PANCHSAYAR, KOLKATAKolkata",KOLKATA,WEST BENGAL,PPN
GD Hospital And Diabetes Institute,"139A, Lenin SaraniKolkata",KOLKATA,WEST BENGAL,PPN
"Rotary Narayana Multyspeciality Hospital 
Salt Lake","Cn-5,Sector 5,,Salt Lake,West Bengal State Cor Bus 
Depot.,Salt LakeSalt Lake City",KOLKATA,WEST BENGAL,PPN
"Phoenix Hospitaland Diagnostic Centre 
(Pvt.) Ltd.","2, Motilal Colony, Nirmal Sengupta Sarani, (Near 2 NO. 
Airport Gate), Kolkata - 700081Near 2 NO. Airport Gate",KOLKATA,WEST BENGAL,PPN
"BP Poddar Hospital and Medical Research 
Ltd","71/1, Humayun Kabir Sarani,New Alipore Kolkata 
700053Kolkata",KOLKATA,WEST BENGAL,PPN
"Rg Stone Urology And Laparoscopy 
Hospital","33, Gariahat Road (South), Opp.Jodhpur Park,",KOLKATA,WEST BENGAL,PPN
Narayana Multispeciality Hospital,"78,,Jessore Road(South),Barasat, 24 Parganas NorthBarasat",KOLKATA,WEST BENGAL,PPN
Ils Hospital Dum Dum,"1, Khudiram Bose Sarani, Beside Nagerbazar, ILS Flyover, 
Kazipura",KOLKATA,WEST BENGAL,PPN
SVS Marwari Hospital,"118,Raja Rammohan Sarani,Kolkata-700009Kolkata",KOLKATA,WEST BENGAL,PPN
Woodlands Multispeciality Hospital Ltd,"8/5, Alipore Road, KolkataKolkata",KOLKATA,WEST BENGAL,PPN
Sterling Hospital (Kolkata),"55/1, Bhupen Bose Avenue,,,ShyambazarKolkata",KOLKATA,WEST BENGAL,PPN
ILS Hospitals (Salt Lake),"DD-6,, Salt Lake City, Kolkata, West BengalKolkata",KOLKATA,WEST BENGAL,PPN
ASG Hospital Pvt Ltd Kolkata,"403/1 Alcove Gloria (Above Big Bazaar), Dakshindari Road, 
VIP Road, Sreebhumi, Near Lake Town,",KOLKATA,WEST BENGAL,PPN
Iris Hospital,"82/1, Raja Subodh Chandra Mullick Road,,Kolkata,Kolkata",KOLKATA,WEST BENGAL,PPN
RSV Hospital Pvt Ltd,"40, Deshpran Sasmal Road,,Tollygunge Phari, 
Kolkata,,Tollygunge Phari,Kolkata",KOLKATA,WEST BENGAL,PPN
Fortis Hospital And Kidney Institute,"111A, Rash Behari Avenue, GariahatKolkata",KOLKATA,WEST BENGAL,PPN
Nabajiban Hospital Pvt Ltd,"RO 5, Shibdas Bhaduri Street Fariapukur, KolkataKolkata",KOLKATA,WEST BENGAL,PPN
"Dum Dum Municipal Specialised Hospital 
And Cancer Research Centre","4, Harimohan Dutta Road,,Kolkata,Kolkata",KOLKATA,WEST BENGAL,PPN
AMRI Hospital Mukundapur,"230, Barakhola Lane, Behind Metro cash & Carry on EM 
Byepass kolkataKolkata",KOLKATA,WEST BENGAL,PPN
AMRI Hospitals Ltd Dhakuria,"P-4 & P-5, CIT Scheme, Gariahat Road,Beside Dhakuria 
Bridge,KolkataGarihat",KOLKATA,WEST BENGAL,PPN
Bmrc Hospitals Ltd,"6/6, BT Road,Talpukur, Titagarh, 24 Paraganas",KOLKATA,WEST BENGAL,PPN
Calcutta Heart Clinic And Hospital,"Hc-4, Block-3,,Bidhannagar, Kolkata,West Bengal,NIL",KOLKATA,WEST BENGAL,PPN
Columbia Asia Hospital(Kolkata),"Ib-193,Sec-Iii,Saltlakecity,Embypass Beliaghata Towards 
Saltlake,,Near Eastern Zonal Cultural 
Complex(Ezcc),SaltlakeNIL",KOLKATA,WEST BENGAL,NON PPN
Desun Hospital And Heart Institute,"720,Anandapur, Desun More,,Embypass,,Kasba GolparkNIL",KOLKATA,WEST BENGAL,PPN
Fortis Hospital Anandapur,"730, Anandapur, EM Bypass Road",KOLKATA,WEST BENGAL,PPN
"Gems Hospital And Medical Research 
Institute","B8-45, Chatta Charial Road,,Banerjee Hat, Maheshtala,,NIL",KOLKATA,WEST BENGAL,NON PPN
Genesis Hospital,"1570,Rajdanga Road,,Close To Kasba Gol Park.,KolkataNIL",KOLKATA,WEST BENGAL,PPN
Lotus Hospital,"Indiranagar, Kanjilal Para,,Po+Ps, Rajarhat,",KOLKATA,WEST BENGAL,PPN
Nehru Memorial Techno Global Hospital,"6, Barasat Road, Lalkuthi,,Opp. Lalkuthi Telephone 
Exchange, Barrackpur Cantonment,,BarrackporeNIL",KOLKATA,WEST BENGAL,PPN
Ohio Hospital And Medical Centre,"Plot No. Dg-06,New Town, Rajarhai,",KOLKATA,WEST BENGAL,PPN
"Remedy Hospital(A Unit Of Remedy 
Medical Services Pvt Ltd)","Kali Tala, Garia Station Road,,Near Pranab Nagar Metro 
Station, Kolkata,NIL",KOLKATA,WEST BENGAL,PPN
Ruby General Hospital Ltd,"E.M.Bye-Pass,,Kasba,,GolparkNIL",KOLKATA,WEST BENGAL,PPN
Sahid Khudiram Bose Hospital,"12, B.T Road,,Rathala Belgharia,KolkataNIL",KOLKATA,WEST BENGAL,PPN
"Behala Balananda Brahmachari Hospital 
and Research Center","Plot No. 151 & 153, Diamond Harbour Road, Behala, 
Kolkata, West Bengal 700034Kolkata",KOLKATA,WEST BENGAL,NON PPN
Spandan Hospital,"BMC-17/1,TEGHORIA, V.I.P. ROAD, KOLKATAKolkata",KOLKATA,WEST BENGAL,PPN
Peerless Hospital City Diagnostic Centre,"223, Chittaranjan Ave, Metro Station, Girish Park, 
JorasankoKolkata",KOLKATA,WEST BENGAL,PPN
Dr BK Memorial Hospital,"A-75(88)M.B. Road,(Near Nimta High School,Kolkata",KOLKATA,WEST BENGAL,PPN
Debdoot Sevayan Hospital,"51, Charu Avenue, KolkataKolkata",KOLKATA,WEST BENGAL,PPN
Baine Hospital,"123/1,Gopal Lal Tagore Road,nil",KOLKATA,WEST BENGAL,PPN
"Jagannath Gupta Institute of Medical 
Sciences And Hospital (JIMS)","RS DAG NO 689 KP MODAL ROAD ,Budge Budge. (Hsg-
ii)South 24 Parganas",KOLKATA,WEST BENGAL,PPN
Baroma Sirona Hospital,"Dakshin Mechogram, P.O. Uttar Mechogram,,P.S. Panskura, 
Dist-Purba Medinipur,",Medinipur,WEST BENGAL,NON PPN
St.Joseph'S Hospital (Medinipur),"Phulpahari, P.O-Vidyasagar University, Dist- 
Pashim,Medinipur, West Bengal,",Medinipur,WEST BENGAL,NON PPN
Netraalok Hospital,"Deshbandhu Pally,6 No Bijaynagar, Naihati","NORTH 24 
PARGANAS",WEST BENGAL,NON PPN
Care Concern Hospital Pvt Ltd,"87/A, G. T. Road (West), Serampore,Near Belting 
Bazar,Hoogly,",SERAMPORE,WEST BENGAL,NON PPN
Paramount Hospital Pvt Ltd,"Mangal Pandey Road, Khalpara, SiliguriSiliguri",SILIGURI,WEST BENGAL,NON PPN
